 2024  914 1125  1.4 LQ 66.375-162.062 19.8   AK 25 0.5 2.3                    1
 2024  914 1125  1.459  66.37470 -162.06170   19.800  0.510                    H
 GAP=                      0.5     0.5  0.8 -9.8752e-02                        E
 Action:ARG 26-01-05 11:59 OP:OBSP STATUS:               ID:20240914112501     I
 STAT SP IPHASW D HRMM SECON CODA AMPLIT PERI AZIMU VELO AIN AR TRES W  DIS CAZ7
 F18K BZ  P    A  112519.240                                   -0.03 8  109  75 
 E18K BZ  P       112522.249                                   -0.1310  132  28 
 F15K BZ  P       112523.030                                   -0.13 8  138 238 
 D17K BZ  P       112525.330                                    0.11 3  153 343 
 H16K BZ  P       112530.610                                    0.04 7  193 182 
 RDOG BZ  P       112530.704                                    0.52 3  190 349 
 F18K BN  S       112533.117                                   -0.08 2  109  75 
 G19K BZ  P    A  112534.200                                   -0.44 6  224  94 
 E19K BZ  P       112537.638                                    0.67 2  242  58 
 C16K BZ  P       112538.342                                   -0.01 2  253 327 
 C18K BZ  P       112539.220                                    0.56 4  255   7 
 F15K BN  S       112540.818                                    0.68 4  138 238 
 F20K BZ  P       112543.097                                    0.36 2  288  72 
 H20K BZ  P       112549.289                                   -0.01 4  339 103 
 RDOG BN  S       112552.740                                    0.09 3  190 349 
 J17K BZ  P       112552.825                                    1.02 4  359 155 
 H16K BN  S       112553.870                                    0.53 1  193 182 
 F21K BZ  P       112555.042                                   -0.25 2  387  72 
 J19K BZ  P       112556.687                                   -0.24 2  400 128 
 G19K BN  S       1126 0.505                                   -0.09 2  224  94 
 C21K BZ  P       1126 0.890                                   -0.41 1  434  41 
 J20K BZ  P       1126 2.787                                    0.66 1  441 119 
 ANM  BE  S       1126 6.452                                   -0.57 2  252 218 
 I21K BZ  P       1126 6.526                                   -0.24 2  478 101 
 H22K BZ  P       1126 7.548                                    0.12 1  483  91 
 C18K BN  S       1126 8.176                                    0.42 3  255   7 
 TNA  BE  S       112612.154                                   -1.10 3  280 253 
 MLY  BZ  P       112613.712                                   -0.72 1  538 100 
 BPAW BZ  P       112618.344                                   -0.49 0  573 111 
 L19K BZ  P       112619.294                                   -0.45 0  580 139 
 C23K BZ  P       112622.490                                   -0.64 0  609  45 
                                                                                

 2024 1016 1610 31.1 LQ 70.257-144.107 19.0   AK 23 0.6 2.8                    1
 2024 1016 1610 31.192  70.25710 -144.10650   19.000  0.600                    H
 GAP=                      1.5     1.2  0.4  9.1690e-01                        E
 Action:ARG 26-01-05 11:59 OP:OBSP STATUS:               ID:20241016161031     I
 STAT SP IPHASW D HRMM SECON CODA AMPLIT PERI AZIMU VELO AIN AR TRES W  DIS CAZ7
 C26K BZ  P       161039.898                                   -0.14 4 48.6 219 
 C27K BZ  P       161043.828                                    0.03 7 71.7 167 
 D25K BZ  P       161053.251                                    0.60 5  135 221 
 PS01 BZ  P       161057.547                                    0.43 4  169 272 
 D24K BZ  P       1611 4.371                                    0.53 4  219 238 
 E25K BZ  P       1611 7.705                                    0.65 6  244 194 
 C23K BZ  P       1611 8.289                                    0.43 4  251 262 
 E27K BZ  P       1611 8.747                                    0.91 5  250 155 
 D25K BE  S       1611 9.476                                    0.05 4  135 221 
 TOLK BZ  P       161111.229                                   -0.19 4  278 232 
 E24K BZ  P       161113.862                                    0.00 2  298 217 
 PS01 BZ  S       161117.774                                    0.39 4  169 272 
 D22K BZ  P       161122.510                                    0.08 1  366 249 
 E22K BZ  P       161123.955                                   -0.8710  384 235 
 G27K BZ  P       161126.432                                    0.17 1  396 164 
 D24K BE  S       161128.540                                   -0.84 3  219 238 
 COLD BZ  P       161128.635                                   -0.19 1  416 219 
 C21K BZ  P       161130.441                                    0.06 1  428 258 
 G23K BZ  P       161134.455                                   -0.13 1  461 214 
 E25K BE  S       161135.319                                    0.20 2  244 194 
 INK  HZ  P       161135.565                                    0.21 0  468 112 
 F21K BZ  P       161139.142                                   -0.99 0  505 232 
 H24K BZ  P       161140.171                                   -1.23 0  515 199 
 TOLK BE  S       161142.010                                   -0.87 1  278 232 
 PPD  BZ  P       161142.560                                   -0.78 1  530 187 
 PS04 BN  S       161144.399                                   -0.99 1  289 227 
 H22K BZ  P       161147.521                                   -0.78 0  570 215 
 F20K BZ  P       161149.725                                   -0.71 0  588 238 
                                                                                

 2023 1113 1733 16.9 LQ 67.295-168.175  4.1   AK 25 0.9 3.3                    1
 2023 1113 1733 16.970  67.29470 -168.17550    4.100  0.860                    H
 GAP=                      1.7     3.6  0.8 -4.4983e+00                        E
 Action:ARG 26-01-05 11:59 OP:OBSP STATUS:               ID:20231113173316     I
 STAT SP IPHASW D HRMM SECON CODA AMPLIT PERI AZIMU VELO AIN AR TRES W  DIS CAZ7
 C16K BZ  P       173345.175                                    0.3810  161  46 
 TNA  BZ  P       173349.955                                   -0.19 7  193 176 
 D17K BZ  P       173353.392                                   -0.27 6  221  75 
 RDOG BZ  P       173355.426                                   -0.34 5  237  66 
 F15K BZ  P       173356.375                                    0.88 7  235 136 
 C16K BN  S       1734 4.228                                   -0.78 8  161  46 
 ANM  BZ  P       1734 7.909                                    0.76 8  329 156 
 B18K BZ  P       1734 8.973                                   -0.56 3  348  45 
 TNA  BN  S       173412.930                                   -1.56 7  193 176 
 F18K BZ  P       173414.263                                    0.93 9  378  97 
 G17K BZ  P       173415.825                                    1.12 5  389 117 
 C19K BZ  P       173415.859                                   -1.12 3  407  56 
 H16K BZ  P       173416.747                                    0.85 3  399 134 
 RDOG BN  S       173423.000                                   -1.94 6  237  66 
 F15K BE  S       173423.848                                   -0.60 8  235 136 
 E19K BZ  P       173424.600                                    0.09 5  467  82 
 D20K BN  P       173428.980                                   -0.29 2  505  66 
 G19K BZ  P       173429.216                                    0.30 4  503  99 
 B20K BZ  P       173432.239                                   -0.90 1  537  50 
 F20K BZ  P       173433.729                                    0.62 5  536  87 
 C21K BZ  P       173438.790                                   -0.80 1  588  63 
 J17K BZ  P       173443.217                                    1.72 1  603 131 
 K13K BZ  P       173443.741                                    0.35 1  619 162 
 F21K BZ  P       173444.774                                   -0.04 1  630  83 
 H20K BZ  P       173445.024                                    1.04 1  623 102 
 K15K BZ  P       173446.887                                    1.10 1  638 147 
 E22K BZ  P       173452.755                                   -0.08 1  694  74 
 H21K BZ  P       173454.604                                    0.56 1  703  97 
 L14K BZ  P       173455.976                                    0.96 1  712 155 
                                                                                

 2024 1215 2222 20.1 LQ 67.945-165.199 18.6   AK 10 0.6 2.0                    1
 2024 1215 2222 20.141  67.94550 -165.19870   18.600  0.610                    H
 GAP=                      1.9     2.5  1.5 -3.2080e+00                        E
 Action:ARG 26-01-05 11:59 OP:OBSP STATUS:               ID:20241215222220     I
 STAT SP IPHASW D HRMM SECON CODA AMPLIT PERI AZIMU VELO AIN AR TRES W  DIS CAZ7
 C16K BZ  P       222227.463                                    0.29 8 37.0 350 
 C16K BE  S       222232.157                                   -0.5110 37.0 350 
 D17K BZ  P       222236.786                                    0.9810 93.0 106 
 RDOG BZ  P       222237.054                                    0.7810 96.2  81 
 D17K BN  S       222247.631                                   -0.4310 93.0 106 
 C18K BZ  P       222248.084                                    0.14 8  182  62 
 RDOG BE  S       222248.672                                   -0.21 5 96.2  81 
 F15K BZ  P       222256.412                                   -0.32 7  249 174 
 F18K BZ  P       2223 0.306                                   -0.34 6  281 119 
 TNA  BE  P       2223 1.266                                   -0.62 2  290 205 
 E19K BZ  P       2223 7.754                                   -0.41 2  340  95 
 C18K BE  S       2223 9.376                                   -0.32 5  182  62 
 G19K BZ  P       222316.258                                   -0.02 1  404 115 
 F15K BN  S       222324.185                                   -1.17 4  249 174 
 F18K BE  S       222330.914                                   -1.42 4  281 119 
 D22K BZ  P       222331.028                                   -0.09 1  521  72 
                                                                                

 2019  216 2235  7.2 LQ 69.486-144.073 13.8   AK 70 0.8 4.0                    1
 2019  216 2235  7.276  69.48580 -144.07330   13.800  0.800                    H
 GAP=                      0.9     0.6  0.4  2.0012e-01                        E
 Action:ARG 26-01-05 11:59 OP:OBSP STATUS:               ID:20190216223507     I
 STAT SP IPHASW D HRMM SECON CODA AMPLIT PERI AZIMU VELO AIN AR TRES W  DIS CAZ7
 C27K BZ  P       223512.056                                    0.41 4 21.0  41 
 C27K BN  S       223514.793                                   -0.02 2 21.0  41 
 C26K BZ  P       223518.760                                    1.22 2 57.9 326 
 D25K BZ  P    A  223522.625                                   -0.69 7 91.8 259 
 C26K BE  S       223526.424                                    1.43 5 57.9 326 
 D25K BE  S       223534.747                                   -0.21 3 91.8 259 
 D24K BZ  P       223538.813                                   -0.12 2  190 261 
 TOLK BZ  P    A  223544.800                                   -0.15 8  237 249 
 E24K BZ  P       223545.418                                    0.57 2  236 230 
 C23K BZ  P       223546.876                                   -0.23 2  255 281 
 G27K BZ  P       223554.317                                   -0.15 2  314 160 
 FYU  BZ  P       223556.809                                    0.62 5  328 189 
 G24K BZ  P       223557.637                                   -0.09 2  340 206 
 E22K BZ  P    A  223558.050                                   -0.33 5  345 247 
 D22K BZ  P       223558.388                                   -0.12 1  346 262 
 COLD BZ  P       223559.832                                    0.26 4  355 227 
 D24K BE  S       2236 2.696                                    0.01 3  190 261 
 G23K BZ  P       2236 4.444                                   -0.13 1  394 221 
 C21K BZ  P       2236 7.832                                   -0.05 3  421 270 
 H24K BZ  P       2236 9.597                                   -0.17 1  436 203 
 INK  BZ  P       223610.141                                   -0.20 2  441 102 
 I27K BZ  P       223611.169                                    0.42 1  444 165 
 PPD  BZ  P       223611.292                                    0.28 2  445 188 
 F21K BZ  P       223612.613                                   -0.10 1  460 241 
 I26K BZ  P       223613.632                                    0.16 1  466 174 
 TOLK BE  S       223614.395                                    1.03 2  237 249 
 H22K BZ  P       223617.831                                   -0.36 0  503 221 
 D20K BZ  P       223618.644                                    0.46 0  503 266 
 POKR BZ  P       223618.931                                    0.42 1  506 198 
 A21K BZ  P       223618.988                                    0.20 5  509 299 
 I23K BZ  P       223621.849                                    0.13 1  532 207 
 J25K BZ  P       223623.461                                    0.12 0  544 186 
 J26L BZ  P       223624.931                                    0.32 0  554 177 
 CCB  BZ  P    A  223625.368                                   -0.01 1  561 198 
 H21K BZ  P       223625.385                                   -0.23 1  563 225 
 E19K BZ  P       223626.712                                   -1.09 0  580 253 
 I21K BZ  P       223628.149                                   -0.22 2  585 218 
 WRH  BZ  P       223628.327                                    0.15 1  583 199 
 NEA2 BZ  P       223628.635                                    0.29 1  585 204 
 SCRK BZ  P    A  223632.508                                    0.63 1  612 179 
 H20K BZ  P    A  223634.225                                   -0.69 1  637 231 
 DAWY HZ  P    A  223634.940                                    0.17 1  636 159 
 K24K BZ  P    A  223635.400                                    0.65 1  636 187 
 A19K BZ  P       223636.460                                   -0.42 1  653 284 
 DOT  BZ  P    A  223636.788                                    0.43 1  649 179 
 BPAW BZ  P       223639.026                                    0.04 0  670 210 
 MCK  BZ  P       223639.606                                    0.10 0  674 200 
 C18K BZ  P       223640.140                                   -0.62 2  684 270 
 E18K BZ  P       223643.219                                   -0.75 1  710 259 
 F18K BZ  P    A  223644.775                                   -0.38 1  720 251 
 TRF  BZ  P       223646.050                                    0.11 1  724 205 
 KTH  BZ  P    A  223646.128                                    0.21 1  725 207 
 PAX  BZ  P       223646.501                                    0.33 1  727 185 
 RDOG BZ  P       223649.889                                   -1.75 1  771 267 
 D17K BZ  P       223651.964                                   -2.33 0  793 264 
 HARP BZ  P    A  223654.900                                    1.00 1  789 184 
 M27K BZ  P    A  223655.675                                    0.52 1  798 171 
 K20K BZ  P       223656.105                                   -0.54 3  811 217 
 PPLA BZ  P       223657.219                                   -0.19 1  816 210 
 WACK BZ  P       2237 0.242                                    0.58 1  834 180 
 C16K BZ  P       2237 0.376                                   -2.05 1  858 271 
 YUK2 HZ  P       2237 4.250                                    0.13 1  870 168 
 SCM  BZ  P       2237 4.658                                    1.43 1  863 191 
 YUK3 HZ  P       2237 4.778                                    0.29 1  872 167 
 SAW  BZ  P       2237 5.535                                    0.89 1  875 194 
 L20K BZ  P       2237 6.312                                   -0.69 0  894 214 
 TTA  BZ  P       2237 6.997                                   -0.91 1  901 221 
 J17K BZ  P       223711.719                                   -1.65 1  945 231 
 YUK4 HZ  P    A  223711.910                                    0.29 1  930 161 
 H16K BZ  P       223712.757                                   -0.95 1  948 244 
 F15K BZ  P       223713.268                                   -2.12 0  961 254 
 YUK5 HZ  P    A  223716.920                                    0.14 1  971 159 
 L18K BZ  P       223717.705                                   -0.83 0  986 221 
 HYT  HZ  P    A  223721.690                                    0.21 1 1009 159 
 L17K BZ  P       223723.781                                   -1.14 0 1037 225 
                                                                                

 2024 1130 1058 30.9 LQ 71.812-152.378  5.0   AK 22 0.7 2.1                    1
 2024 1130 1058 30.957  71.81220 -152.37760    5.000  0.690                    H
 GAP=                      9.7     4.9  5.7 -4.5801e+01                        E
 Action:ARG 26-01-05 11:59 OP:OBSP STATUS:               ID:20241130105830     I
 STAT SP IPHASW D HRMM SECON CODA AMPLIT PERI AZIMU VELO AIN AR TRES W  DIS CAZ7
 A21K BZ  P       105858.526                                    0.20 1  158 251 
 C23K BZ  P       1059 9.935                                    1.43 0  228 162 
 A21K BE  S       105918.213                                    0.01 6  158 251 
 C21K BZ  P       105919.795                                    1.33 1  308 197 
 D22K BZ  P       105922.018                                    1.31 1  326 182 
 C26K BZ  P       105923.127                                    0.28 3  343 124 
 D25K BZ  P       105924.364                                    0.09 0  354 138 
 TOLK BZ  P       105926.787                                    0.84 0  367 162 
 E21K BZ  P       105928.428                                    1.04 1  379 189 
 C27K BZ  P       105929.828                                   -0.0610  399 123 
 C19K BZ  P       105931.144                                    0.87 0  402 225 
 E22K BZ  P       105932.036                                    0.90 0  409 176 
 E24K BZ  P       105935.890                                    0.80 1  441 158 
 C23K BN  S       105936.252                                   -0.47 1  228 162 
 C18K BZ  P       105940.373                                    0.09 0  482 227 
 E25K BZ  P       105941.309                                    0.76 1  484 144 
 F21K BZ  P       105944.410                                    0.46 1  512 185 
 COLD BZ  P       105945.003                                    0.52 1  516 169 
 E19K BZ  P       105945.144                                    0.35 0  519 203 
 F20K BZ  P       105948.099                                    0.05 0  545 195 
 E27K BZ  P       105951.363                                   -0.27 0  573 129 
 C21K BE  S       105953.902                                   -0.53 1  308 197 
 D17K BZ  P       105955.738                                   -0.87 0  613 227 
 D22K BE  S       105958.073                                   -0.33 0  326 182 
 H22K BZ  P       11 0 2.011                                   -0.33 0  659 176 
 D25K BE  S       11 0 3.843                                   -0.91 1  354 138 
 H24K BZ  P       11 0 5.728                                   -0.24 0  688 162 
 TOLK BE  S       11 0 6.730                                   -1.00 0  367 162 
 E21K BN  S       11 0 9.792                                   -0.49 0  379 189 
                                                                                

