 2024  816 1857 27.9 LQ 60.883-138.451  3.8   ak 34 1.2                        1
 2024  816 1857 27.939  60.88330 -138.45120    3.800  1.170                    H
 Action:ARG 26-01-05 11:50 OP:OBSP STATUS:               ID:20240816185728     I
 STAT SP IPHASW D HRMM SECON CODA AMPLIT PERI AZIMU VELO AIN AR TRES W  DIS CAZ7
 YUK6 HZ  Pg      185730.280                                    0.1244 4.40 274 
 YUK7 HZ  Pg      185735.120                                   -1.2025 46.3 170 
 HYT  HZ  Pg      185735.600                                   -0.3126 44.0 106 
 YUK4 HZ  Pg      185738.290                                    0.1622 57.0 345 
 BRWY HZ  Pg      185738.310                                   -0.7721 62.9 320 
 YUK7 HE  Sg      185740.450                                   -1.4112 46.3 170 
 HYT  HE  IAML    185741.320       215.5 0.43                   0.1512 44.0 106 
 YUK8 HZ  Pg      185742.200                                   -1.3417 88.8 296 
 BRWY HE  Sg      185746.580                                    0.0812 62.9 320 
 PIN  BZ  IAML    185751.080       244.0 0.44                  -1.3312  143 229 
 LOGN BZ  IAML    185751.110        47.1 0.44                  -2.0112  148 266 
 YUK8 HN  Sg      185752.560                                   -1.4111 88.8 296 
 PNL  BZ  Pn      185752.650                                   -1.1212  154 204 
 SAMH BZ  IAML    185754.840        74.1 0.64                  -0.1812  164 237 
 RKAV BZ  Pn      185755.880                                   -1.4412  182 248 
 BARN BZ  Pn      185756.820                                   -0.6312  183 275 
 GRNC BZ  Pn      185757.730                                   -0.6312  190 264 
 WHY  HZ  Pn      185757.890                                   -0.0412  187  98 
 CHX  BZ  Pn      185758.260                                    0.8212  184 239 
 PLBC HZ  Pn      185759.590                                    0.6812  196 146 
 KIAG BZ  Pn      1858 1.880                                   -0.2511  221 271 
 BAL  BZ  Pn      1858 1.980                                    0.0211  220 274 
 ISLE BZ  Pn      1858 2.360                                   -0.1211  224 262 
 MESA BZ  Pn      1858 2.590                                    0.7911  218 248 
 BARK BZ  Pn      1858 4.620                                    0.4711  238 257 
 TGL  BZ  Pn      1858 5.880                                    0.4811  248 267 
 WAX  BZ  Pn      1858 6.490                                    0.1911  255 259 
 MCAR BZ  Pn      1858 6.770                                   -0.0011  260 283 
 PIN  BE  Sn      1858 7.660                                   -2.19 8  143 229 
 LOGN BN  IAML    1858 8.340        40.1 0.48                  -2.77 8  148 266 
 PNL  BE  Sn      185810.200                                   -2.09 8  154 204 
 BERG BZ  Pn      185812.360                                    0.3210  302 260 
 GLB  BZ  Pn      185812.450                                    0.3610  303 283 
 SUCK BZ  IAML    185814.150        26.5 2.34                   0.3210  317 254 
 RKAV BE  Sn      185816.280                                   -2.36 7  182 248 
 BMR  BZ  IAML    185817.800        10.2 0.70                   0.7710  343 273 
 BARN BN  Sn      185818.170                                   -0.70 7  183 275 
 DAWY HZ  Pn      185818.440                                    0.1310  353 351 
 S31K BZ  IAML    185818.690        12.1 2.80                   0.6410  351 159 
 GRNC BE  Sn      185819.020                                   -1.47 7  190 264 
 RAG  BZ  IAML    185819.310        30.3 1.64                   0.7510  355 262 
 WHY  HE  Sn      185819.750                                    0.00 7  187  98 
 PLBC HN  Sn      185822.700                                    1.16 7  196 146 
 MESA BE  Sn      185827.350                                    0.68 7  218 248 
 ISLE BE  Sn      185827.470                                   -0.44 7  224 262 
 KIAG BN  Sn      185828.100                                    0.84 7  221 271 
 S32K BZ  IAML    185828.630        12.7 2.72                  -0.44 9  441 149 
 SCRK BZ  IAML    185830.870         8.2 3.10                   0.69 9  449 321 
 TGL  BN  Sn      185833.790                                    0.64 6  248 267 
 WAX  BN  Sn      185834.850                                    0.08 6  255 259 
 MCAR BN  Sn      185839.770                                    4.13 0  260 283 
 VRDI BZ  IAML A  185844.920         8.0 2.76                  -0.1419  281 278 
 GLB  BN  Sn      185848.450                                    3.28 0  303 283 
                                                                                

 2024  2 1 1155  8.9 LQ 60.862-138.215 10.0   us 46 1.2 3.0L us 3.0L ak        1
 2024  2 1 1155  8.903  60.86210 -138.21500   10.000  1.190                    H
 GAP=63     us  2.40       6.0     3.2  2.0  3.7217e+00                        E
 2024  2 1 1155  7.2 LQ 60.813-138.249 10.9   ak 46 1.4                        1
 2024  2 1 1155  7.268  60.81270 -138.24890   10.900  1.420                    H
 Action:ARG 26-01-05 11:50 OP:OBSP STATUS:               ID:20240201115508     I
 STAT SP IPHASW D HRMM SECON CODA AMPLIT PERI AZIMU VELO AIN AR TRES W  DIS CAZ7
 YUK6 HE  Pg      115512.960                                    1.0838 12.1 318 
 HYT  HZ  IAML    115514.450      1363.6 0.40                  -1.4127 38.7  95 
 HYT  HN  Sg      115518.930                                   -1.6412 38.7  95 
 YUK5 HE  Sg      115519.780                                    0.0413 35.7  32 
 YUK4 HZ  Pg      115520.020                                   -0.5121 66.4 344 
 BRWY HZ  Pg      115520.530                                   -0.9120 71.9 322 
 YUK8 HZ  Pg      115524.110                                   -1.4916 96.1 300 
 YUK4 HE  Sg      115528.310                                   -0.0811 66.4 344 
 BRWY HE  Sg      115529.910                                   -0.0111 71.9 322 
 PIN  BZ  Pn      115531.570                                   -1.1712  141 233 
 PNL  BZ  Pn      115532.010                                   -1.6212  148 206 
 LOGN BZ  IAML    115532.900       183.7 0.66                  -1.2712  151 269 
 YUK3 HZ  Pn      115533.470                                   -1.4712  157 311 
 SAMH BZ  IAML    115534.900       227.7 0.74                  -0.6012  163 241 
 YUK8 HN  Sg      115536.110                                   -0.7810 96.1 300 
 RKAV BZ  Pn      115537.100                                   -0.91 0  183 251 
 PLBC HZ  Pn      115537.530                                   -0.8812  187 145 
 CHX  BZ  Pn      115538.840                                    0.90 0  183 242 
 BARN BZ  IAML    115538.850       124.4 0.86                   0.1912  188 278 
 BVCY HZ  Pn      115542.740                                   -0.0911  222 322 
 MESA BZ  Pn      115543.450                                    0.9611  219 251 
 SKAG BZ  IAML    115543.680        85.1 0.74                   0.7911  224 133 
 KIAG BZ  Pn      115543.880                                    0.62 0  225 273 
 BAL  BZ  Pn      115544.100                                    0.95 0  225 276 
 M27K BZ  Pn      115547.270                                    0.2211  256 312 
 PIN  BN  Sn      115548.820                                   -1.03 8  141 233 
 MCAR BZ  Pn      115549.550                                    1.4511  265 284 
 KHIT BZ  Pn      115551.020                                    1.14 0  279 262 
 LOGN BE  IAML    115552.080       217.4 0.48                  -0.32 8  151 269 
 VRDI BZ  Pn      115552.270                                    1.4711  286 280 
 YUK3 HN  Sn      115553.450                                   -0.32 0  157 311 
 BESE BZ  Pn      115554.090                                   -0.4010  317 141 
 GLB  BZ  Pn      115555.050                                    1.6310  308 284 
 SUCK BZ  Pn      115555.780                                    1.1410  318 256 
 S31K BZ  Pn      115557.100                                   -0.42 0  342 159 
 BMR  BZ  Pn      115558.670                                    0.4810  347 274 
 R32K BZ  IAML    115559.270        25.8 0.48                   0.0010  356 142 
 PLBC HE  Sn      115559.930                                   -0.12 0  187 145 
 N25K BZ  Pn      1156 0.320                                    1.38 0  353 286 
 MENT BZ  IAML    1156 0.590        88.9 0.38                  -0.4910  370 311 
 DAWY HZ  IAML    1156 0.740       152.3 0.58                   0.66 0  362 350 
 HARP BZ  IAML    1156 6.490        15.5 0.72                   1.0310  406 297 
 DIV  BZ  IAML    1156 6.570        10.9 1.18                   0.5510  410 277 
 EYAK BZ  IAML    1156 7.340        17.5 0.80                   1.0810  413 268 
 DOT  BZ  Pn      1156 8.200                                   -0.80 9  434 318 
 KLU  BZ  Pn      1156 8.500                                    1.1810  420 282 
 SKAG BN  Sn      1156 9.600                                    1.50 0  224 133 
 SIT  BZ  IAML    115611.090        19.6 0.70                  -0.42 9  455 157 
 KIAG BN  Sn      115611.480                                    2.77 0  225 273 
 FID  BZ  IAML    115612.760        21.5 1.16                   1.04 9  457 271 
 RIDG BZ  Pn      115612.900                                   -0.52 9  470 315 
 HIN  BZ  IAML    115613.100        24.5 1.18                   1.38 9  456 267 
 SCM  BZ  IAML    115617.270        12.1 1.20                   0.21 9  499 286 
 BAE  BZ  IAML    115622.580        19.5 0.94                   0.96 9  537 277 
 I27K BZ  IAML    115624.360        36.0 0.86                   0.39 8  556 343 
 PPD  BZ  Pn      115634.210                                    0.28 8  636 327 
                                                                                

