 2023 1018 1947 24.7 LQ 66.198-149.442 13.9   AK 63 0.7 3.0                    1
 2023 1018 1947 24.781  66.19780 -149.44190   13.900  0.730                    H
 GAP=                      0.3     0.4  0.2  4.8992e-02                        E
 Action:ARG 26-01-05 12:06 OP:OBSP STATUS:               ID:20231018194724     I
 STAT SP IPHASW D HRMM SECON CODA AMPLIT PERI AZIMU VELO AIN AR TRES W  DIS CAZ7
 H23K BZ  P    A  194732.940                                    0.6710 41.7 186 
 G23K BZ  P       194736.137                                    0.45 3 62.6 335 
 H23K BE  S       194738.029                                   -0.08 3 41.7 186 
 H24K BZ  P       194738.989                                    0.21 3 81.3 118 
 PS05 BZ  P       194740.161                                    0.39 3 87.3 322 
 H22K BZ  P       194741.606                                    0.76 2 93.7 249 
 G24K BZ  P    A  194742.020                                   -0.39 5  103  56 
 PS07 BZ  P       194743.966                                    0.45 3  112 151 
 G23K BN  S       194744.179                                   -0.01 5 62.6 335 
 COLD BZ  P       194745.141                                    0.63 9  119 343 
 I23K BZ  P       194745.470                                    1.32 9  116 178 
 MLY  BZ  P    A  194747.808                                    0.07 9  142 205 
 MDM  BZ  P    A  194748.108                                   -0.36 9  148 157 
 H24K BN  S       194748.581                                   -1.12 5 81.3 118 
 POKR BZ  P    A  194748.600                                   -0.25 9  151 141 
 I21K BZ  P    A  194750.200                                   -0.10 9  162 226 
 H21K BZ  P       194750.686                                    0.13 2  163 250 
 PS05 BE  S       194751.182                                   -0.29 3 87.3 322 
 NEA2 BZ  P       194752.482                                   -0.14 5  179 174 
 H22K BE  S       194752.693                                   -0.69 3 93.7 249 
 CCB  BZ  P    A  194753.000                                   -0.84 8  188 155 
 WRH  BZ  P    A  194754.968                                   -0.69 7  201 161 
 F21K BZ  P    A  194756.700                                   -0.22 5  210 304 
 PS07 BE  S       194756.864                                   -1.29 3  112 151 
 E24K BZ  P    A  194757.200                                    0.02 5  212  10 
 HDA  BZ  P       194758.643                                   -0.74 8  230 148 
 I23K BE  S       194758.661                                   -0.62 3  116 178 
 COLD BE  S       194759.119                                   -0.82 3  119 343 
 BPAW BZ  P       1948 0.268                                   -0.92 3  244 197 
 E22K BZ  P       1948 0.611                                    0.15 3  238 335 
 H20K BZ  P    A  1948 2.200                                   -0.91 6  259 254 
 E25K BZ  P       1948 3.821                                   -0.80 2  271  36 
 MCK  BZ  P    A  1948 4.788                                   -0.33 5  275 174 
 TOLK BZ  P       1948 5.262                                    0.58 5  271 358 
 MLY  BE  S       1948 5.293                                   -0.40 2  142 205 
 CHUM BZ  P       1948 6.319                                   -0.69 2  290 208 
 F20K BZ  P       1948 7.067                                   -0.21 4  292 291 
 KTH  BZ  P       1948 8.099                                   -0.50 3  302 194 
 I26K BZ  P       1948 8.710                                    0.04 2  303 106 
 J20K BZ  P       1948 8.762                                   -1.23 2  314 226 
 I21K BN  S       194810.976                                    0.72 3  162 226 
 CAST BZ  P       194811.508                                   -0.95 1  333 203 
 H21K BE  S       194811.730                                    1.02 3  163 250 
 G19K BZ  P       194813.364                                   -0.34 1  343 272 
 RIDG BZ  P       194814.579                                    0.19 3  348 139 
 SCRK BZ  P       194814.795                                   -0.51 4  355 131 
 NEA2 BE  S       194815.667                                    1.27 3  179 174 
 I27K BZ  P       194815.725                                   -0.30 3  361  96 
 DHY  BZ  P    A  194816.248                                    0.19 3  360 163 
 J19K BZ  P       194816.576                                   -1.63 2  378 232 
 E19K BZ  P       194816.734                                   -0.12 2  368 295 
 K20K BZ  P       194817.375                                   -1.54 1  384 216 
 CCB  BE  S       194817.564                                    0.99 5  188 155 
 D25K BZ  P       194817.586                                    0.40 1  370  18 
 WAT1 HZ  P       194818.018                                    0.02 2  376 173 
 WAT7 BZ  P       194818.112                                    0.27 3  375 175 
 PPLA BZ  P       194818.939                                   -0.78 1  389 200 
 E27K BZ  P       194820.512                                   -0.86 2  403  53 
 C21K BZ  P       194820.994                                    0.29 1  398 328 
 WRH  BN  S       194821.391                                    1.57 2  201 161 
 PAX  BZ  P       194821.648                                   -0.04 2  405 150 
 WAT6 BZ  P       194821.835                                   -0.51 1  410 167 
 C23K BZ  P       194822.380                                    0.58 1  407 353 
 L22K BZ  P       194822.678                                    0.07 1  413 189 
 F21K BN  S       194823.117                                    1.06 2  210 304 
 D20K BZ  P       194823.159                                    0.50 4  413 315 
 E24K BN  S       194823.835                                    1.31 3  212  10 
 PS08 BE  S       194825.338                                    1.09 2  220 145 
 HDA  BE  S       194827.309                                    0.86 4  230 148 
 F18K BZ  P       194827.624                                   -0.33 1  456 280 
 L20K BZ  P       194827.719                                   -1.45 1  465 209 
 C27K BZ  P       194827.802                                    0.61 1  449  29 
 SKN  BZ  P       194830.467                                   -0.54 1  479 193 
 G17K BZ  P       194834.578                                   -0.86 1  515 266 
 B20K BZ  P       194836.565                                   -0.75 1  530 326 
 C19K BZ  P       194837.704                                   -0.44 0  536 311 
 STLK BZ  P       194837.921                                   -0.17 0  535 193 
 SPBL BZ  P       194839.848                                   -0.00 0  549 193 
 M27K BZ  P       194840.374                                   -1.01 0  560 136 
 SPNN BZ  P       194840.982                                   -0.35 0  560 198 
                                                                                

 2015  919  856 25.6 LQ 64.639-158.612 24.1   AK 11 0.5 2.0                    1
 2015  919  856 25.640  64.63880 -158.61150   24.100  0.540                    H
 GAP=                      3.3     4.5  2.9 -6.9777e+00                        E
 Action:ARG 26-01-05 12:06 OP:OBSP STATUS:               ID:20150919085625     I
 STAT SP IPHASW D HRMM SECON CODA AMPLIT PERI AZIMU VELO AIN AR TRES W  DIS CAZ7
 J20K BZ  P        85658.541                                    0.68 6  220 101 
 K20K BZ  P        857 3.332                                    0.03 5  263 120 
 H21K BZ  P        857 7.399                                    0.08 3  293  64 
 CHUM BZ  P        857 9.490                                   -0.37 8  315 102 
 ANM  BZ  P        85710.614                                   -0.16 2  322 271 
 L19K BZ  P        85711.613                                   -0.28 8  330 143 
 L20K BZ  P        85712.199                                   -0.25 3  335 133 
 PPLA BZ  P        85716.218                                   -0.72 4  370 118 
 BPAW BZ  P        85717.079                                    0.08 6  371  95 
 J20K BN  S        85723.389                                    0.3210  220 101 
 TTA  BN  S        85725.362                                    0.26 4  228 144 
 K20K BN  S        85733.981                                    1.22 2  263 120 
 CHUM BN  S        85743.800                                   -0.65 8  315 102 
 MLY  BN  S        85757.185                                   -0.69 4  374  79 
                                                                                

