 2024  826 2053  6.6 LQ 68.241-136.567 24.2   AK 25 0.5 3.3                    1
 2024  826 2053  6.603  68.24090 -136.56750   24.200  0.520                    H
 GAP=                      2.3     0.8  2.0 -7.2489e-01                        E
 Action:ARG 26-01-05 11:59 OP:OBSP STATUS:               ID:20240826205306     I
 STAT SP IPHASW D HRMM SECON CODA AMPLIT PERI AZIMU VELO AIN AR TRES W  DIS CAZ7
 INK  HZ  P       205326.022                                   -0.0510  125  85 
 E27K BZ  P    A  205337.200                                   -0.01 5  207 270 
 INK  HN  S       205341.668                                    0.37 3  125  85 
 C27K BZ  P       205351.974                                    0.03 3  324 301 
 I27K BZ  P    A  205357.260                                   -0.09 3  366 219 
 C26K BZ  P       205358.464                                   -0.49 1  379 303 
 E27K BE  S       2054 0.808                                   -0.35 2  207 270 
 D25K BZ  P       2054 3.336                                    0.22 3  412 291 
 DAWY HZ  P       205411.159                                   -0.72 1  481 196 
 E24K BZ  P       205413.390                                    0.06 1  492 273 
 PPD  BZ  P    A  205413.448                                   -0.10 1  493 236 
 J26L BZ  P       205415.770                                   -0.94 1  519 220 
 K27K BZ  P       205417.189                                   -0.77 0  529 210 
 TOLK BZ  P       205417.854                                   -0.47 1  532 280 
 H24K BZ  P       205420.653                                   -0.89 1  557 246 
 J25K BZ  P       205420.993                                   -1.01 1  561 228 
 SCRK BZ  P       205423.568                                   -0.69 1  579 218 
 C23K BZ  P       205424.334                                   -0.41 0  584 294 
 POKR BZ  P       205424.815                                   -0.60 0  589 239 
 G23K BZ  P       205425.493                                   -0.76 0  596 259 
 E22K BZ  P       205430.082                                   -0.02 1  628 276 
 D22K BZ  P       205433.465                                   -0.04 0  656 283 
 H22K BZ  P    A  205437.240                                   -0.33 0  690 254 
 C21K BZ  P       205443.836                                    0.32 0  740 286 
 KLU  BZ  P       205458.998                                   -0.12 0  868 214 
 J20K BZ  P       2055 2.926                                   -0.39 0  904 248 
 GHO  BZ  P       2055 5.078                                   -0.71 0  921 224 
 E24K BN  S       2055 5.543                                    0.01 0  492 273 
                                                                                

 2024  520 1530 35.1 LQ 68.223-136.743 19.2   AK 72 0.8 3.8                    1
 2024  520 1530 35.187  68.22320 -136.74260   19.200  0.770                    H
 GAP=                      1.3     0.9  2.7  1.5481e-01                        E
 Action:ARG 26-01-05 11:59 OP:OBSP STATUS:               ID:20240520153035     I
 STAT SP IPHASW D HRMM SECON CODA AMPLIT PERI AZIMU VELO AIN AR TRES W  DIS CAZ7
 INK  HZ  P       153056.331                                    0.17 3  132  84 
 E27K BZ  P       1531 5.524                                    0.17 4  200 271 
 INK  HE  S       153111.849                                   -0.72 0  132  84 
 C27K BZ  P       153120.425                                   -0.0310  319 302 
 I27K BZ  P       153125.724                                   -0.00 0  360 218 
 E25K BZ  P       153125.901                                   -0.36 0  364 272 
 C26K BZ  P       153127.379                                   -0.10 0  374 303 
 D25K BZ  P       153132.380                                    0.87 1  406 291 
 DAWY HZ  P       153139.604                                   -0.93 0  477 195 
 G24K BZ  P       153141.275                                   -0.44 1  487 254 
 E24K BZ  P       153141.419                                   -0.16 1  485 273 
 J26L BZ  P       153144.693                                   -0.38 1  512 219 
 PS04 BZ  P       153145.199                                   -0.44 1  517 278 
 TOLK BZ  P       153145.936                                   -0.69 0  525 281 
 H24K BZ  P       153149.134                                   -0.61 0  550 246 
 SCRK BZ  P       153152.047                                   -0.66 2  573 218 
 COLD BZ  P       153152.716                                   -0.31 0  576 265 
 C23K BZ  P       153153.454                                    0.22 0  578 294 
 POKR BZ  P       153153.979                                    0.26 1  582 238 
 G23K BZ  P       153154.298                                   -0.23 0  589 259 
 C27K BN  S       153154.792                                   -1.07 0  319 302 
 E22K BZ  P       153157.493                                   -0.94 0  621 276 
 RIDG BZ  P       153157.795                                   -0.22 0  617 220 
 CCB  BZ  P       153158.374                                   -1.15 1  631 236 
 K24K BZ  P       153159.143                                   -1.25 0  637 223 
 I23K BZ  P       1532 0.850                                   -1.00 0  650 244 
 D22K BZ  P       1532 1.066                                   -0.82 0  650 283 
 WRH  BZ  P       1532 1.338                                   -1.01 0  654 235 
 NEA2 BZ  P       1532 4.114                                   -1.24 0  679 239 
 H22K BZ  P       1532 4.576                                   -1.27 0  683 254 
 E25K BN  S       1532 7.297                                    1.08 0  364 272 
 PAX  BZ  P       1532 7.620                                   -1.19 0  707 218 
 MLY  BZ  P       1532 8.320                                   -0.82 0  710 246 
 F21K BZ  P       1532 8.718                                   -0.63 0  712 268 
 YUK3 HZ  P       153211.623                                   -0.98 0  737 195 
 MCK  BZ  P       153211.885                                   -1.08 0  742 233 
 C21K BZ  P       153212.143                                    0.22 0  733 286 
 I21K BZ  P       153212.810                                   -0.84 0  748 250 
 H21K BZ  P       153213.359                                   -0.89 0  752 255 
 HARP BZ  P       153213.619                                   -0.90 0  754 214 
 YUK4 HZ  P       153214.249                                   -0.99 0  759 187 
 RND  BZ  P       153214.961                                   -1.03 0  766 231 
 A22K BZ  P       153215.755                                   -0.15 0  767 302 
 WACK BZ  P       153216.485                                   -1.01 0  777 210 
 D25K BN  S       153217.186                                    1.62 0  406 291 
 YUK8 HZ  P       153217.272                                   -1.03 0  784 191 
 BPAW BZ  P       153217.442                                   -0.64 0  784 241 
 YUK5 HZ  P       153217.930                                   -0.98 0  790 184 
 WAT1 HZ  P       153219.936                                   -0.88 0  807 227 
 F20K BZ  P       153220.524                                   -0.62 0  810 269 
 WAT7 BZ  P       153220.905                                   -1.03 0  815 228 
 MCAR BZ  P       153221.049                                   -0.77 0  815 204 
 N25K BZ  P       153221.899                                   -0.80 0  822 210 
 BARN BZ  P       153222.202                                   -1.46 0  829 198 
 PTPK BZ  P       153222.425                                   -0.99 0  827 201 
 B20K BZ  P       153223.102                                   -0.28 0  828 293 
 BAL  BZ  P       153224.162                                   -0.92 0  841 201 
 H20K BZ  P       153224.626                                   -0.74 0  844 257 
 WHY  HZ  P       153224.733                                   -0.81 0  845 173 
 LOGN BZ  P       153225.146                                   -0.62 0  847 195 
 E19K BZ  P       153226.570                                   -0.54 0  859 273 
 KLU  BZ  P       153226.955                                   -0.65 0  862 214 
 CAST BZ  P       153228.601                                   -0.47 0  875 239 
 TGL  BZ  P       153228.925                                   -0.66 0  879 202 
 SAW  BZ  P       153230.795                                   -0.56 0  894 222 
 G19K BZ  P       153231.793                                   -0.51 0  902 264 
 DAWY HE  S       153232.893                                    1.23 0  477 195 
 GHO  BZ  P       153233.292                                   -0.89 0  914 224 
 PIN  BZ  P       153233.806                                   -0.57 0  919 192 
 C19K BZ  P       153234.699                                   -0.22 0  923 286 
 J19K BZ  P       153239.817                                   -0.14 0  966 249 
 ATLI BZ  P       153239.943                                   -0.67 0  971 169 
 STLK BZ  P       153247.263                                   -0.22 0 1027 230 
 SPNN BZ  P       153252.029                                   -0.26 0 1067 232 
 SPWE BZ  P       153252.410                                   -0.32 0 1071 231 
 H17K BZ  P       153253.545                                   -0.10 0 1079 261 
 RDSO BZ  P       1533 1.913                                   -0.47 0 1150 229 
                                                                                

 2021 1031  345 12.1 LQ 70.851-137.671 40.8   AK 52 1.1 3.8                    1
 2021 1031  345 12.144  70.85100 -137.67100   40.800  1.150                    H
 GAP=                      7.3     4.1 19.6  1.7535e+01                        E
 Action:ARG 26-01-05 11:59 OP:OBSP STATUS:               ID:20211031034512     I
 STAT SP IPHASW D HRMM SECON CODA AMPLIT PERI AZIMU VELO AIN AR TRES W  DIS CAZ7
 C27K BZ  P    A   34549.240                                    0.0610  264 241 
 C26K BZ  P        34552.420                                    0.14 3  289 252 
 INK  BZ  P        34556.001                                   -0.82 4  325 148 
 E27K BZ  P    A   34558.600                                    0.71 8  333 209 
 PS01 BZ  P        346 5.489                                   -2.03 2  409 265 
 G27K BZ  P        34615.700                                   -0.38 1  476 201 
 C27K BE  S        34616.715                                   -1.44 2  264 241 
 C23K BZ  P        34616.952                                   -1.49 1  496 263 
 TOLK BZ  P    A   34620.200                                   -1.18 2  518 247 
 PS04 BZ  P        34621.013                                   -1.21 0  525 244 
 E24K BZ  P        34621.200                                   -0.55 1  521 238 
 C26K BE  S        34623.290                                   -0.39 2  289 252 
 B22K BZ  P        34627.401                                   -1.65 0  582 271 
 INK  BE  S        34628.692                                   -3.08 2  325 148 
 D22K BZ  P        34631.520                                   -1.22 0  613 256 
 G24K BZ  P        34631.600                                   -0.27 0  605 225 
 I27K BZ  P        34631.737                                   -0.13 0  605 197 
 A22K BZ  P        34632.608                                   -1.73 1  626 279 
 E27K BE  S        34632.662                                   -1.01 2  333 209 
 E22K BZ  P        34632.983                                   -1.38 0  626 248 
 COLD BZ  P        34635.948                                    0.09 0  639 237 
 A21K BZ  P        34638.524                                   -2.48 0  682 283 
 C21K BZ  P        34639.576                                   -0.61 0  674 262 
 G23K BZ  P        34639.601                                   -0.68 0  675 233 
 H24K BZ  P        34642.563                                   -0.15 0  695 221 
 B20K BZ  P        34645.608                                   -1.03 0  728 271 
 F21K BZ  P        34648.143                                   -0.40 0  744 244 
 POKR BZ  P        34649.885                                    0.10 0  754 217 
 J26L BZ  P        34649.999                                    0.93 0  747 202 
 DAWY HZ  P        34650.190                                   -0.08 0  758 186 
 D20K BZ  P        34650.200                                   -0.52 0  762 260 
 J25K BZ  P        34651.929                                    0.88 0  764 208 
 H22K BZ  P        34653.200                                   -0.13 0  783 232 
 K27K BZ  P        34653.452                                    0.43 0  780 195 
 MDM  BZ  P        34653.922                                    0.10 0  787 218 
 I23K BZ  P        34654.813                                   -0.04 0  796 223 
 CCB  BZ  P        34657.190                                    0.84 0  808 216 
 SCRK BZ  P        34658.168                                    1.61 0  809 202 
 F20K BZ  P        34658.760                                   -0.26 0  831 248 
 C19K BZ  P        347 0.959                                   -0.58 0  851 267 
 A19K BZ  P        347 1.065                                   -2.00 0  864 276 
 E19K BZ  P        347 1.200                                   -0.83 0  855 253 
 H20K BZ  P        34710.008                                   -0.05 0  922 238 
 G19K BZ  P        34711.437                                   -1.01 0  942 245 
 BVCY HZ  P        34713.414                                    0.21 0  948 190 
 PAX  BZ  P    A   34714.388                                    2.35 0  938 204 
 M27K BZ  P    A   34715.600                                    0.65 0  961 193 
 M26K BZ  P        34717.440                                    1.89 0  967 196 
 F18K BZ  P        34718.026                                   -0.98 0  996 252 
 RDOG BZ  P        34720.548                                   -1.77 0 1024 264 
 J20K BZ  P        34720.904                                   -0.20 0 1014 231 
 YUK3 HZ  P        34721.560                                   -0.04 0 1016 188 
 D17K BZ  P        34723.135                                   -2.31 0 1050 262 
 J19K BZ  P        34728.482                                    0.25 0 1073 233 
 K20K BZ  P        34729.567                                   -0.38 0 1087 228 
 C16K BZ  P        34729.887                                   -1.69 0 1101 268 
                                                                                

 2024 1111  138 26.1 LQ 68.776-147.488  0.0   AK 17 0.8 1.7                    1
 2024 1111  138 26.153  68.77630 -147.48800    0.000  0.750                    H
 GAP=                      0.5     0.3  0.4 -5.2041e-02                        E
 Action:ARG 26-01-05 11:59 OP:OBSP STATUS:               ID:20241111013826     I
 STAT SP IPHASW D HRMM SECON CODA AMPLIT PERI AZIMU VELO AIN AR TRES W  DIS CAZ7
 D25K BZ  P        13838.563                                   -0.32 7 75.1  35 
 PS04 BZ  P        13840.507                                   -0.13 9 85.5 243 
 TOLK BZ  P    A   13841.020                                    0.3810 85.5 260 
 E24K BZ  P        13841.101                                    0.02 6 88.1 208 
 E25K BZ  P    A   13844.420                                    0.1210  107 132 
 D25K BE  S        13847.264                                   -1.55 3 75.1  35 
 PS04 BN  S        13851.080                                   -0.86 3 85.5 243 
 E24K BE  S        13851.967                                   -0.75 3 88.1 208 
 TOLK BE  S        13852.199                                    0.25 3 85.5 260 
 C26K BZ  P        13853.627                                    0.56 9  162  37 
 C23K BZ  P        13853.960                                   -0.19 9  170 315 
 C27K BZ  P    A   13855.200                                    0.17 9  176  55 
 E22K BZ  P        13857.119                                    0.16 8  190 250 
 E25K BE  S        13857.744                                   -0.71 3  107 132 
 D22K BZ  P        13859.712                                    0.29 2  208 275 
 G23K BZ  P        139 4.499                                   -0.78 3  253 206 
 E27K BZ  P        139 4.610                                   -0.13 3  249 102 
 C21K BZ  P        13910.615                                    0.21 1  293 281 
 F21K BZ  P        13911.161                                   -0.47 1  303 238 
 C26K BE  S        13913.143                                   -0.96 3  162  37 
 H24K BZ  P    A   13914.360                                   -0.30 4  327 183 
 G27K BZ  P        13915.205                                    0.42 1  328 129 
 C23K BN  S        13915.416                                   -0.62 3  170 315 
 C27K BE  S        13915.894                                   -1.71 2  176  55 
 PPD  BZ  P        13919.962                                   -0.45 3  372 165 
 E22K BE  S        13920.141                                   -0.90 2  190 250 
 D22K BE  S        13926.246                                    0.82 3  208 275 
 E27K BE  S        13934.961                                    0.05 1  249 102 
 G23K BE  S        13935.414                                   -0.47 1  253 206 
 C21K BN  S        13943.074                                   -1.94 1  293 281 
 F21K BN  S        13945.843                                   -1.35 1  303 238 
 G27K BN  S        13952.808                                   -0.01 1  328 129 
                                                                                

