 2022  1 8  816 47.0 LQ 60.301-140.378 30.5     156 0.0                        1
 2022  1 8  816 47.0    60.30130 -140.37840   30.500  0.000                    H
 2022  1 8  816 42.8 LQ 60.460-140.449 35.0     156 0.0                        1
 2022  1 8  816 42.800  60.46000 -140.44940   35.000  0.000                    H
 1970  1 1  0 0  0.0 LQ  0.000   0.000 50.0     156 0.0                        1
 1970  1 1  0 0  0.0     0.00000    0.00000   50.000  0.000                    H
 1970  1 1  0 0  0.0 LQ  0.000   0.000  0.0     156 0.0                        1
 1970  1 1  0 0  0.0     0.00000    0.00000    0.000  0.000                    H
 2022  1 8  816 42.3 LQ 60.370-140.510 46.0     156 0.0                        1
 2022  1 8  816 42.300  60.37000 -140.51000   46.000  0.000                    H
 Action:ARG 26-01-05 11:50 OP:OBSP STATUS:               ID:20220108081642     I
 STAT SP IPHASW D HRMM SECON CODA AMPLIT PERI AZIMU VELO AIN AR TRES W  DIS CAZ7
 PIN  BZ  Pn       81650.970                              61   -0.5014 36.3 154 
 SAMH BZ  Pn       81651.830                              55    0.8014 32.2 205 
 LOGN BZ  Pn       81652.530                              80   -1.2013 54.9 332 
 GRNC BZ  Pn       81655.750                              85   -0.7012 77.2 300 
 SAMH BE  Sn       81657.290                              51    0.6012 32.2 205 
 PIN  BE  Sn       81657.480                              56    0.1011 36.3 154 
 BARN BZ  Pn       81658.340                              87   -0.5012 96.9 320 
 PNL  BZ  Pn       81658.740                              87   -0.7012  102 141 
 LOGN BN  Sn       81659.520                              75   -1.7010 54.9 332 
 YUK8 HN  Pn       81659.720                              88   -0.6012  108  22 
 KIAG BZ  Pn       817 0.840                              88   -0.5011  116 301 
 CYK  BZ  Pn       817 1.880                              88    1.1011  113 253 
 TGL  BZ  Pn       817 3.260                              88    0.0011  132 288 
 BRWY HZ  Pn       817 3.490                              88   -0.2011  136  36 
 PTPK BZ  Pn       817 4.050                              88    0.1011  137 310 
 GRNC BN  Sn       817 5.180                              84   -1.00 8 77.2 300 
 CRQ  BZ  Pn       817 5.360                              88    0.4011  146 287 
 YUK3 HZ  Pn       817 6.110                              89    0.1010  154   1 
 BARN BE  Sn       817 8.870                              87   -1.60 7 96.9 320 
 MCAR BZ  Pn       817 9.290                              89    0.9010  175 310 
 VRDI BZ  IAML     817 9.930     24979.6 0.96             89    0.2010  184 301 
 PNL  BN  Sn       81711.780                              87    0.30 7  102 141 
 GLB  BZ  IAML     81713.310     17062.4 1.00             89    0.2010  213 304 
 KIAG BN  Sn       81714.750                              87   -0.00 7  116 301 
 KAI  BZ  IAML     81714.930     11966.4 1.08             89    0.80 9  222 258 
 BVCY HZ  Pn       81715.040                              89    0.30 9  226 355 
 M27K BZ  Pn       81715.340                              89   -0.00 9  231 342 
 BMR  BZ  IAML     81715.950     33627.1 0.74             89    0.60 9  231 287 
 RAG  BZ  IAML     81716.250     42231.4 0.98             89    1.30 9  228 271 
 GOAT BZ  Pn       81716.290                              89    0.90 9  231 277 
 PLBC HZ  Pn       81717.500                              89   -0.70 9  255 112 
 TGL  BN  Sn       81718.260                              88    0.00 6  132 288 
 BRWY HE  Sn       81719.110                              88    0.10 6  136  36 
 M26K BZ  IAML     81719.400      8925.3 0.80             89    0.50 9  260 330 
 N25K BZ  Pn       81719.720                              89    1.00 9  258 303 
 PS12 BZ  Pn       81722.160                              89    1.10 9  278 297 
 WACK BZ  Pn       81722.200                              89    1.80 9  271 312 
 EYAK BZ  IAML     81722.570     11710.6 0.98             89    0.40 9  287 275 
 CRQ  BN  Sn       81722.570                              88    1.30 6  146 287 
 DIV  BZ  IAML     81723.890      8858.6 0.90             89    0.40 9  297 288 
 SKAG BZ  IAML     81724.180      8631.3 0.98             89   -0.70 9  309 107 
 WHY  HZ  IAML     81724.550     14373.5 0.82             89   -0.80 9  312  82 
 YUK3 HE  Sn       81724.580                              88    1.30 6  154   1 
 KLU  BZ  IAML     81726.630     20733.6 0.82             89    0.70 9  317 295 
 MENT BZ  IAML     81727.400      8580.4 1.12             89   -0.20 9  330 330 
 L26K BZ  IAML     81727.430      4220.2 0.46             89   -0.00 9  329 334 
 HIN  BZ  IAML     81727.750     15795.0 0.72             89    0.30 9  329 272 
 VMT  BZ  Pn       81728.040                              89    0.90 9  327 286 
 HARP BZ  Pn       81728.640                              89    0.70 0  333 314 
 PS11 BZ  Pn       81728.650                              89    1.70 9  325 307 
 FID  BZ  IAML     81728.790      8299.1 0.82             89    0.70 0  335 279 
 Q23K BZ  Pn       81729.880                              89    1.00 0  342 254 
 GLI  BZ  IAML     81731.330      8447.7 0.82             88   -0.30 0  363 281 
 S31K BZ  Pn       81732.260                              88    0.40 0  365 135 
 BESE BZ  Pn       81732.300                              88   -1.40 0  380 119 
 P23K BZ  IAML     81734.700      5194.4 0.86             88    0.60 0  383 266 
 SCM  BZ  IAML     81736.710      7214.2 1.12             88    0.50 0  400 296 
 R32K BZ  Pn       81736.920                              88   -1.10 0  415 121 
 DOT  BZ  Pn       81736.930                              88   -0.20 0  408 334 
 K27K BZ  Pn       81737.390                              88   -0.50 0  414 349 
 DAWY HZ  IAML     81737.450      7160.4 1.91             88   -0.40 0  414   7 
 JIS  BZ  Pn       81737.580                              88   -1.20 0  422 121 
 M23K BZ  Pn       81739.240                              88    0.80 0  418 295 
 BAE  BZ  Pn       81739.640                              88    0.80 0  422 284 
 BAT  BZ  Pn       81739.880                              88    0.60 0  425 284 
 SCRK BZ  IAML     81740.800      1686.1 1.08             88   -0.20 0  438 337 
 PS10 BZ  Pn       81741.880                              88    1.30 0  436 323 
 KNK  BZ  IAML     81742.720      7179.3 1.04             88    1.00 0  445 288 
 SAW  BZ  IAML     81742.720      5093.4 0.84             88    0.50 0  449 293 
 WAT6 BZ  Pn       81743.480                              88    0.40 0  455 305 
 S32K BZ  IAML     81744.380      2777.1 1.00             88   -0.70 0  473 130 
 K24K BZ  Pn       81744.690                              88    0.00 0  469 326 
 DHY  BZ  IAML     81745.100      1978.6 1.12             88    0.30 0  469 312 
 SIT  BZ  Pn       81745.230                              88   -0.50 0  478 138 
 GRES HZ  Pn       81746.060                              88    0.10 0  480 327 
 GREN HZ  Pn       81746.170                              88   -0.00 0  481 328 
 GHO  BZ  IAML     81746.600      5130.1 1.16             88    0.70 0  478 292 
 J26L BZ  Pn       81746.700                              88    0.10 0  484 342 
 PMR  BZ  IAML     81746.970      3249.8 0.96             88    0.50 0  484 289 
 SWD  BZ  IAML     81747.880      1610.3 1.20             88    0.10 0  495 270 
 RC01 BZ  Pn       81749.420                              87   -0.00 0  508 282 
 WAT1 HZ  Pn       81749.550                              88    0.50 0  505 306 
 WAT7 BZ  Pn       81750.670                              87   -0.10 0  518 305 
 J25K BZ  Pn       81752.100                              87   -0.40 0  533 334 
 SLK  BZ  Pn       81753.320                              87    0.70 0  533 275 
 FIRE BZ  Pn       81754.200                              87    1.60 0  534 283 
 RND  BZ  Pn       81754.870                              87   -0.00 0  552 311 
 HDA  BZ  Pn       81755.240                              87   -0.30 0  557 326 
 PS08 BZ  Pn       81755.810                              87   -0.70 0  565 327 
 CUT  BZ  Pn       81757.500                              87    0.90 0  566 297 
 MCK  BZ  Pn       81757.980                              87    0.20 0  576 313 
 BRLK BZ  Pn       81758.710                              87    0.20 0  582 267 
 I27K BZ  Pn       81758.960                              87    0.10 0  584 355 
 CAPN BZ  Pn       818 0.040                              87    1.30 0  583 278 
 CCB  BZ  Pn       818 0.680                              87   -0.60 0  604 324 
 WRH  BZ  Pn       818 0.690                              87    0.00 0  599 322 
 L22K BZ  Pn       818 1.100                              87    0.90 0  595 298 
 CNP  BZ  Pn       818 2.010                              87    0.50 0  605 265 
 SKN  BZ  Pn       818 3.190                              87    0.30 0  617 291 
 POKR BZ  Pn       818 3.480                              87   -1.50 0  634 329 
 DLBC HZ  Pn       818 3.670                              87   -1.40 0  634 105 
 STLK BZ  Pn       818 4.390                              87    0.50 0  624 286 
 HOM  BZ  Pn       818 4.960                              87    1.10 0  625 267 
 NEA2 BZ  Pn       818 5.100                              87   -0.90 0  642 320 
 SPU  BZ  Pn       818 5.450                              87    0.50 0  633 283 
 RDT  BZ  Pn       818 6.970                              87   -0.40 0  653 276 
 RDSO BZ  Pn       818 9.110                              87   -0.70 0  672 275 
 O20K BZ  Pn       81810.210                              87    0.70 0  670 272 
 NCT  BZ  Pn       81810.670                              86   -0.30 0  681 277 
 RED  BZ  Pn       81810.910                              87    0.90 0  674 275 
 BPAW BZ  Pn       81811.920                              86    1.00 0  682 311 
 I23K BZ  Pn       81812.370                              86   -0.10 0  695 323 
 CAST BZ  Pn       81813.170                              86    0.80 0  694 304 
 ILS  BZ  Pn       81813.990                              86    1.20 0  697 271 
 ILSW BZ  Pn       81814.030                              86    0.70 0  700 271 
 H24K BZ  Pn       81814.310                              86   -0.20 0  711 331 
 P19K BZ  Pn       81815.540                              86    0.90 0  712 268 
 CHUM BZ  Pn       81816.440                              86    0.10 0  726 307 
 AUJK BZ  Pn       81817.770                              86    1.00 0  730 266 
 L20K BZ  Pn       81819.510                              86    0.40 0  748 293 
 PS06 BZ  Pn       81821.180                              86    0.10 0  765 326 
 O19K BZ  Pn       81821.390                              86    0.70 0  762 274 
 Q19K BZ  Pn       81821.400                              86    1.40 0  756 263 
 N19K BZ  Pn       81821.840                              86    0.60 0  765 279 
 V35K BZ  Pn       81822.360                              86    0.30 0  773 132 
 G24K BZ  Pn       81822.750                              86   -0.60 0  783 336 
 O18K BZ  Pn       81827.640                              86    0.10 0  817 272 
 J20K BZ  Pn       81827.780                              86   -0.30 0  821 306 
 KAPH BZ  Pn       81827.980                              86    1.70 0  807 261 
 H22K BZ  Pn       81828.190                              86    0.20 0  820 323 
 KAHG BZ  Pn       81829.400                              86    1.20 0  822 261 
 P18K BZ  Pn       81829.710                              86    0.70 0  829 268 
 KARR BZ  Pn       81830.480                              86    1.30 0  830 261 
 G23K BZ  Pn       81831.170                              86   -0.10 0  847 330 
 Q18K BZ  Pn       81831.500                              86    0.90 0  841 262 
 KAWH BZ  Pn       81831.580                              86    1.20 0  840 260 
 TTA  BZ  Pn       81833.350                              85   -0.30 0  866 295 
 KAKN BZ  Pn       81833.720                              85    1.10 0  858 260 
 E27K BZ  Pn       81834.410                              85    0.10 0  872 357 
 KBM  BZ  Pn       81835.000                              85    1.40 0  866 260 
 KABU BZ  Pn       81835.390                              85    1.20 0  871 260 
 COLD BZ  Pn       81836.190                              85   -1.30 0  898 332 
 L18K BZ  Pn       81836.410                              85    0.20 0  888 290 
 ACH  BZ  Pn       81836.410                              85    1.60 0  876 260 
 KEL  BZ  Pn       81837.590                              85    1.10 0  889 262 
 P17K BZ  Pn       81838.310                              85    0.40 0  901 268 
 INK  HZ  Pn       81842.810                              85   -0.40 0  945  17 
 PLK2 BZ  Pn       81845.060                              85    1.20 0  950 258 
 PLK3 BZ  Pn       81845.480                              85    1.50 0  950 258 
 GCSA BZ  Pn       81846.400                              85    0.40 0  968 307 
 L17K BZ  Pn       81846.450                              85    0.00 0  970 289 
 PLK1 BZ  Pn       81846.490                              85    1.00 0  963 259 
 F21K BZ  Pn       81849.220                              85    0.30 0  991 325 
 PS04 BZ  Pn       81849.690                              85    0.80 0  990 338 
 P16K BZ  Pn       81850.460                              85    1.40 0  992 268 
 M16K BZ  Pn       81851.520                              85    0.70 0 1006 282 
 E22K BZ  Pn       81853.050                              85    0.60 0 1020 332 
 J17K BZ  Pn       81853.450                              85    0.00 0 1028 297 
 TOLK BZ  Pn       81853.520                              85    1.50 0 1016 338 
 R16K BZ  Pn       81854.660                              85    1.40 0 1027 259 
 N15K BZ  Pn       819 0.510                              84    0.70 0 1080 277 
 H17K BZ  Pn       819 3.620                              84    0.00 0 1110 305 
 D22K BZ  Pn       819 4.370                              84    1.10 0 1107 333 
 C23K BZ  Pn       819 9.970                              84    1.20 0 1153 340 
 UNV  BZ  Pn       82018.200                              70    0.20 0 1721 256 
 NIKH BZ  P        82040.300                              53    0.00 0 1904 256 
 ATKA BZ  P        82113.920                              52    0.10 6 2246 261 
                                                                                

 2024  221 2053 35.5 LQ 61.376-139.996  5.0   us 62 0.8 3.1L ak 3.3L us        1
 2024  221 2053 35.567  61.37600 -139.99580    5.000  0.760                    H
 GAP=45     us  1.55       2.5     2.6  1.6  5.5924e-02                        E
