 2017  213  717 12.6 LQ 62.512-142.748  8.9   AK140 0.9 5.3                    1
 2017  213  717 12.642  62.51200 -142.74770    8.900  0.930                    H
 GAP=                      0.3     0.2  0.2  2.4465e-02                        E
 Action:ARG 26-01-05 12:06 OP:OBSP STATUS:               ID:20170213071712     I
 STAT SP IPHASW D HRMM SECON CODA AMPLIT PERI AZIMU VELO AIN AR TRES W  DIS CAZ7
 M26K BZ  P        71716.097                                    0.02 3 17.8 226 
 M26K BE  S        71718.562                                   -0.19 5 17.8 226 
 M27K BZ  P        71721.226                                    0.27 5 47.9 110 
 L26K BZ  P        71723.972                                    0.2410 64.7 332 
 MENT BZ  P        71724.360                                   -0.01 2 68.5 314 
 M27K BE  S        71727.762                                    0.33 4 47.9 110 
 WASW SZ  P        71729.269                                   -0.16 3 98.4 229 
 WACK BZ  P        71729.379                                   -0.43 4  100 235 
 BVCY HZ  P    A   71729.420                                    0.15 9 97.6  95 
 L26K BE  S        71731.413                                   -0.97 3 64.7 332 
 MENT BE  S        71733.068                                   -0.45 4 68.5 314 
 HARP BZ  P        71733.134                                   -0.48 9  124 265 
 MCAR BZ  P    A   71733.168                                   -0.67 9  126 186 
 YUK2 HZ  P    A   71733.340                                   -0.96 9  129 129 
 GLB  BZ  P        71733.923                                   -0.64 5  131 205 
 N25K BZ  P    A   71735.025                                   -0.66 9  139 224 
 YUK3 HZ  P    A   71735.830                                   -0.62 9  144 123 
 PAX  BZ  P    A   71735.868                                   -0.93 5  147 291 
 VRDI BZ  P    A   71736.528                                   -0.33 9  147 194 
 DOT  BZ  P    A   71736.708                                    0.62 9  142 332 
 BAL  BZ  P    A   71739.488                                    0.27 9  165 172 
 BARN BZ  P    A   71740.508                                    0.46 9  171 160 
 SCRK BZ  P    A   71740.688                                    0.27 9  174 339 
 RIDG BZ  P    A   71740.708                                    0.58 9  172 323 
 WACK BE  S        71741.228                                   -1.98 3  100 235 
 KIAG BZ  P        71741.562                                    0.62 8  177 173 
 BVCY HN  S        71742.316                                    0.08 3 97.6  95 
 BMR  BZ  P        71743.468                                   -0.05 9  197 210 
 KLU  BZ  P    A   71743.988                                    0.02 8  200 237 
 K24K BZ  P    A   71745.400                                    0.33 7  209 314 
 YUK8 HZ  P    A   71745.850                                    0.84 7  207 129 
 DIV  BZ  P    A   71747.488                                    0.79 5  221 227 
 J26L BZ  P        71747.565                                    0.34 3  224 350 
 HARP BN  S        71748.724                                   -1.28 2  124 265 
 DAWY BZ  P    A   71749.225                                    0.02 4  240  42 
 DHY  BZ  P    A   71749.488                                   -0.14 4  243 286 
 SCM  BZ  P    A   71750.188                                   -0.15 6  249 254 
 YUK4 HZ  P    A   71750.280                                   -0.23 6  249 116 
 WAT6 BZ  P    A   71750.808                                   -0.42 4  255 273 
 SGA  BZ  P        71752.754                                    1.70 1  255 211 
 M23K BZ  P        71752.987                                    0.03 4  270 255 
 SSP  BZ  P        71753.169                                    1.64 2  259 181 
 CYK  BZ  P        71754.451                                    1.57 2  270 176 
 EYAK BZ  P        71754.743                                    1.90 2  270 217 
 YUK6 HZ  P    A   71755.110                                   -0.40 5  289 125 
 HDA  BZ  P    A   71755.240                                   -0.99 5  296 317 
 YUK5 HZ  P        71756.160                                   -0.50 5  299 118 
 SAMH BZ  P        71756.717                                    1.89 2  284 157 
 WAT1 HZ  P    A   71757.058                                    0.59 5  298 279 
 SAW  BZ  P    A   71757.488                                    0.75 4  300 257 
 PIN  BZ  P    A   71757.988                                    1.29 5  299 152 
 I26K BZ  P        71758.502                                    0.41 2  311 356 
 WAT7 BZ  P        71759.360                                    0.93 5  313 279 
 HYT  HZ  P        718 0.505                                   -0.59 2  334 121 
 YUK7 HZ  P        718 0.885                                    0.40 3  328 130 
 KNK  BZ  P    A   718 0.888                                    0.53 3  322 250 
 CCB  BZ  P    A   718 0.988                                   -1.30 4  344 315 
 RND  BZ  P    A   718 1.168                                    1.35 3  324 290 
 BCP  BZ  P        718 1.402                                    1.00 3  329 148 
 WRH  BZ  P    A   718 1.688                                   -0.41 4  343 311 
 GHO  BZ  P    A   718 2.048                                    1.00 3  331 258 
 MCK  BZ  P    A   718 2.508                                    0.86 3  339 296 
 I27K BZ  P        718 3.060                                    0.26 1  348   8 
 PMR  BZ  P        718 3.630                                    0.95 3  347 255 
 PWL  BZ  P        718 3.940                                    1.30 3  347 240 
 POKR BZ  P    A   718 4.275                                   -1.21 3  369 323 
 PPD  BZ  P    A   718 4.408                                   -0.02 3  360 339 
 MDM  BZ  P        718 5.466                                   -1.73 6  383 317 
 PNL  BZ  P        718 5.626                                    0.87 3  363 148 
 BWN  BZ  P        718 6.264                                    0.10 3  375 302 
 P23K BZ  P        718 6.836                                    0.81 3  374 223 
 NEA2 BZ  P        718 6.944                                   -0.98 3  388 309 
 CUT  BZ  P        718 8.987                                    0.97 3  386 271 
 TRF  BZ  P        71810.175                                    1.38 3  394 288 
 RC01 BZ  P        71810.407                                    1.13 1  399 249 
 I23K BZ  P        71812.459                                   -1.48 2  436 315 
 KTH  BZ  P        71814.186                                    1.26 1  427 289 
 H24K BZ  P    A   71814.425                                   -0.66 2  445 328 
 BPAW BZ  P    A   71814.748                                   -0.59 2  447 296 
 SSN  BZ  P        71814.819                                    1.18 1  433 257 
 SWD  BZ  P        71815.776                                    0.03 2  446 236 
 WHY  BZ  P    A   71816.500                                   -1.02 2  464 112 
 SLK  BZ  P        71817.157                                    0.95 2  454 244 
 FYU  BZ  P    A   71817.788                                    0.14 2  466 346 
 SKN  BZ  P    A   71817.828                                    1.11 2  458 266 
 MLY  BZ  P    A   71818.648                                   -1.09 1  482 309 
 G27K BZ  P        71819.559                                    0.01 0  480   5 
 PLBC HZ  P        71819.744                                   -0.11 1  483 131 
 CAST BZ  P    A   71820.108                                    0.38 1  482 286 
 PPLA BZ  P        71821.482                                    1.55 0  482 279 
 CHUM BZ  P        71822.890                                    0.59 0  502 291 
 SPCG BZ  P    A   71823.620                                    1.05 1  503 258 
 G24K BZ  P        71823.705                                   -0.44 0  517 336 
 SPCP BZ  P    A   71824.648                                    1.09 1  511 258 
 N20K BZ  P        71824.772                                    0.62 1  516 257 
 SPCR BZ  P        71824.975                                    0.82 0  516 257 
 BRSE BZ  P        71825.899                                    0.94 1  527 237 
 SPBG BZ  P    A   71826.160                                    1.24 1  522 258 
 I21K BZ  P        71826.298                                   -0.77 0  540 307 
 BRLK BZ  P        71826.539                                    0.85 1  534 238 
 M20K BZ  P        71828.010                                    0.58 0  542 267 
 H22K BZ  P        71828.634                                   -1.09 0  561 315 
 CNP  BZ  P    A   71830.488                                    0.77 1  564 237 
 G23K BZ  P        71830.986                                   -1.24 0  580 326 
 L20K BZ  P        71831.252                                    0.27 0  570 274 
 RDDF BZ  P    A   71831.320                                    0.72 1  567 252 
 K20K BZ  P    A   71832.350                                    0.29 1  579 284 
 RDSO BZ  P        71833.008                                    1.14 0  577 251 
 H21K BZ  P        71833.226                                   -1.26 0  599 310 
 NCT  BZ  P        71833.254                                    1.24 1  580 252 
 O20K BZ  P        71834.586                                    1.02 1  591 247 
 M19K BZ  P    A   71835.175                                   -0.13 0  606 268 
 BESE BZ  P    A   71835.828                                   -0.35 0  613 131 
 S31K BZ  P        71837.346                                    0.47 0  620 141 
 COLD BZ  P    A   71837.629                                   -0.57 0  630 329 
 L19K BZ  P    A   71837.675                                    0.14 0  624 272 
 ILSW BZ  P        71837.770                                    0.51 0  622 247 
 E27K BZ  P        71838.528                                    0.01 0  633   4 
 E25K BZ  P    A   71839.275                                    0.28 0  637 349 
 R32K BZ  P    A   71840.250                                   -0.52 0  652 132 
 N19K BZ  P        71840.672                                    0.48 0  646 258 
 JIS  BZ  P    A   71840.948                                   -0.37 0  657 132 
 TTA  BZ  P        71843.343                                   -0.43 0  676 279 
 E24K BZ  P        71843.890                                    0.55 0  672 339 
 SVW2 BZ  P    A   71845.740                                    0.05 0  692 262 
 S32K BZ  P    A   71848.525                                   -0.48 0  720 137 
 Q19K BZ  P        71849.081                                    0.97 0  712 240 
 F21K BZ  P        71849.592                                   -0.25 0  727 320 
 O18K BZ  P    A   71850.800                                    0.76 0  728 251 
 GCSA BZ  P        71852.785                                    1.57 0  739 295 
 P18K BZ  P        71853.135                                   -0.23 0  756 248 
 INK  BZ  P        71853.550                                   -1.53 0  771  29 
 TOLK BZ  P    A   71853.975                                    1.44 0  749 338 
 D25K BZ  P        71856.989                                    1.40 0  774 349 
 C27K BZ  P        71859.336                                    1.66 0  792 357 
 Q18K BZ  P        71859.668                                    1.71 0  793 242 
 KAKN BZ  P        719 2.056                                    0.85 0  820 240 
 P17K BZ  P    A   719 2.425                                    0.71 0  825 249 
 DLBC BZ  P        719 2.460                                    0.25 0  829 117 
 C26K BZ  P    A   719 3.650                                    1.56 0  829 354 
 ANCK BZ  P        719 6.572                                    2.20 0  847 241 
 Q17K BZ  P        719 7.560                                    1.58 0  860 242 
 U33K BZ  P        719 9.550                                   -0.48 0  895 138 
 P16K BZ  P        71913.735                                    1.80 0  910 251 
 PLK1 EZ  P        71915.808                                    2.05 0  925 241 
 R16K BZ  P        71923.032                                    1.97 0  986 242 
 V35K BZ  P        71926.256                                    1.13 0 1020 136 
                                                                                

 2024 1016  314 49.2 LQ 66.918-135.904 20.8   AK 19 0.4 3.0                    1
 2024 1016  314 49.274  66.91830 -135.90410   20.800  0.430                    H
 GAP=                      1.6     1.5  1.5 -1.8748e+00                        E
 Action:ARG 26-01-05 12:06 OP:OBSP STATUS:               ID:20241016031449     I
 STAT SP IPHASW D HRMM SECON CODA AMPLIT PERI AZIMU VELO AIN AR TRES W  DIS CAZ7
 INK  HZ  P        31517.014                                   -0.0310  184  32 
 G27K BZ  P        31526.337                                    0.51 4  251 269 
 E27K BZ  P        31529.670                                    0.28 5  279 302 
 I27K BZ  P        31531.746                                    0.47 4  294 242 
 INK  HE  S        31538.793                                    0.03 6  184  32 
 DAWY HZ  P        31538.987                                   -0.04 5  355 208 
 I26K BZ  P        31541.087                                    0.03 7  372 244 
 E25K BZ  P        31547.851                                   -0.77 3  431 292 
 C27K BZ  P        31548.864                                   -0.77 2  439 316 
 PPD  BZ  P        31551.568                                   -0.51 3  458 254 
 G27K BN  S        31554.334                                   -0.09 4  251 269 
 SCRK BZ  P        31556.378                                   -0.47 1  495 232 
 J25K BZ  P        31556.882                                   -0.64 2  501 243 
 D25K BZ  P        31558.042                                   -0.35 2  508 306 
 E27K BE  S        316 0.325                                   -0.44 2  279 302 
 H24K BZ  P        316 2.565                                   -0.56 2  545 262 
 RIDG BZ  P        316 2.869                                   -0.04 1  544 233 
 E24K BZ  P        316 3.386                                   -0.21 1  549 289 
 BVCY HZ  P        316 4.158                                    0.14 1  553 207 
 I27K BE  S        316 4.283                                    0.15 4  294 242 
 YUK3 HZ  P        31611.048                                   -0.31 1  612 203 
 COLD BZ  P        31611.384                                   -0.62 0  619 279 
 YUK4 HZ  P        31613.227                                    0.58 0  622 193 
 DAWY HN  S        31618.256                                    0.31 2  355 208 
 I26K BE  S        31620.945                                   -0.62 2  372 244 
                                                                                

 2024 1223  118 19.2 LQ 65.204-138.494 21.5   AK 21 0.9 2.5                    1
 2024 1223  118 19.250  65.20390 -138.49400   21.500  0.860                    H
 GAP=                      1.9     4.6  2.3  7.5305e+00                        E
 Action:ARG 26-01-05 12:06 OP:OBSP STATUS:               ID:20241223011819     I
 STAT SP IPHASW D HRMM SECON CODA AMPLIT PERI AZIMU VELO AIN AR TRES W  DIS CAZ7
 I27K BZ  P        11842.651                                    0.1010  151 288 
 J26L BZ  P        11855.506                                   -0.33 1  251 254 
 I27K BE  S        119 0.785                                    0.01 4  151 288 
 SCRK BZ  P        119 0.829                                   -0.55 4  295 245 
 PPD  BZ  P        119 4.403                                   -1.06 2  327 279 
 DOT  BZ  P        119 4.517                                    0.32 6  318 239 
 J25K BZ  P        119 4.955                                   -0.82 1  330 261 
 E27K BZ  P        119 6.908                                   -2.36 1  358 339 
 M26K BZ  P        11912.045                                   -0.21 1  381 217 
 PAX  BZ  P        11917.004                                   -0.09 1  419 236 
 H24K BZ  P        11917.948                                   -1.36 0  437 283 
 CCB  BZ  P        11918.947                                   -0.94 0  442 266 
 WRH  BZ  P        11921.366                                   -0.79 1  460 264 
 J26L BN  S        11924.898                                    0.45 3  251 254 
 C27K BZ  P        11930.509                                   -1.63 0  539 338 
 MCK  BZ  P        11930.985                                    0.53 0  525 256 
 E24K BZ  P        11931.140                                   -1.52 0  543 310 
 WAT6 BZ  P        11931.945                                   -0.10 0  537 241 
 RND  BZ  P        11932.306                                    0.34 0  537 252 
 SCRK BE  S        11934.048                                   -0.29 1  295 245 
 D25K BZ  P        11935.438                                   -0.42 1  568 327 
 SAMH BZ  P        11936.204                                   -0.60 0  576 192 
 TRF  BZ  P        11939.551                                   -0.16 0  599 256 
 TOLK BZ  P        11940.509                                   -0.85 0  614 313 
 PPD  BN  S        11941.782                                    0.17 3  327 279 
                                                                                

