 2024  712 1134 54.1 LQ 60.436-141.507  6.6   AK 83 0.9 3.4                    1
 2024  712 1134 54.133  60.43640 -141.50700    6.600  0.930                    H
 GAP=                      0.3     0.2  0.2  2.3040e-02                        E
 Action:ARG 26-01-05 11:50 OP:OBSP STATUS:               ID:20240712113454     I
 STAT SP IPHASW D HRMM SECON CODA AMPLIT PERI AZIMU VELO AIN AR TRES W  DIS CAZ7
 RKAV BZ  P    A  113456.248                                   -1.1810 17.6 150 
 RKAV BE  S       113458.670                                   -1.33 2 17.6 150 
 MESA BZ  P    A  1135 1.008                                    0.3310 37.7 220 
 LOGN BZ  P    A  1135 3.208                                    0.3110 51.0  32 
 SAMH BZ  P    A  1135 3.428                                    0.3010 52.5 130 
 KIAG BZ  P    A  1135 6.188                                   -0.12 9 71.4 319 
 BARN BZ  P    A  1135 6.408                                    0.36 9 69.8 353 
 MESA BN  S       1135 6.496                                    0.71 5 37.7 220 
 TGL  BZ  P       1135 7.227                                   -0.59 2 80.4 296 
 BAL  BZ  P       1135 7.698                                   -0.1910 80.7 325 
 PIN  BZ  P    A  1135 7.948                                    0.39 9 78.8 118 
 LOGN BN  S       1135 9.870                                    0.13 2 51.0  32 
 SAMH BE  S       113510.092                                   -0.06 5 52.5 130 
 PTPK BZ  P       113510.557                                   -0.31 2 98.4 328 
 BGLC BZ  P       113512.983                                    1.17 2  104 251 
 MCAR BZ  P    A  113515.428                                   -1.10 9  133 322 
 KIAG BN  S       113515.458                                   -0.35 2 71.4 319 
 VRDI BZ  P       113515.540                                   -1.67 3  137 310 
 BARN BN  S       113515.664                                    0.32 2 69.8 353 
 YUK8 HZ  P    A  113516.090                                   -0.63 5  133  44 
 SUCK BZ  P       113517.253                                    0.96 9  131 253 
 TGL  BN  S       113517.382                                   -1.12 3 80.4 296 
 PNL  BZ  P    A  113517.468                                   -0.61 8  144 125 
 BAL  BN  S       113518.302                                   -0.32 2 80.7 325 
 YAKA HZ  P       113518.335                                    0.32 3  144 134 
 PIN  BN  S       113518.875                                    0.84 2 78.8 118 
 GLB  BZ  P       113519.891                                   -1.25 2  167 312 
 YUK3 HZ  P       113520.842                                    0.67 2  159  20 
 BRWY HZ  P       113521.735                                    0.33 2  169  51 
 BMR  BZ  P       113521.822                                   -0.84 8  178 290 
 YUK7 HZ  P       113522.496                                   -1.12 5  184  85 
 YUK6 HZ  P       113522.949                                   -0.0710  180  70 
 RAG  BZ  P       113523.036                                    0.98 5  174 269 
 PTPK BE  S       113523.108                                   -0.82 2 98.4 328 
 YUK4 HZ  P       113525.793                                    0.84 7  194  53 
 N25K BZ  P       113526.263                                   -0.84 2  211 309 
 YUK5 HZ  P       113527.455                                    0.13 7  212  67 
 WASW SZ  P       113528.267                                    0.01 2  218 320 
 PS12 BZ  P       113528.840                                   -0.44 2  227 302 
 HYT  HZ  P    A  113529.220                                    0.59 7  222  77 
 WACK BZ  P       113529.484                                   -0.16 4  229 319 
 BVCY HZ  P       113530.695                                    2.10 4  222   8 
 DIV  BZ  P       113531.466                                    0.09 4  244 290 
 YUK8 HE  S       113532.787                                   -1.58 2  133  44 
 KLU  BZ  P    A  113534.588                                    0.47 4  265 298 
 HIN  BZ  P       113535.123                                   -0.04 4  274 271 
 FID  BZ  P       113535.809                                   -0.06 4  279 278 
 PNL  BN  S       113536.070                                   -0.72 2  144 125 
 PS11 BZ  P       113536.727                                    0.88 4  279 312 
 Q23K BZ  P       113537.625                                    0.34 2  291 249 
 YAKA HE  S       113537.966                                    1.27 2  144 134 
 HARP BZ  P       113538.827                                    1.42 4  291 319 
 PLBC HZ  P    A  113539.240                                    0.06 3  306 108 
 GLB  BN  S       113541.358                                   -0.9010  167 312 
 YUK3 HN  S       113541.367                                    0.84 2  159  20 
 P23K BZ  P    A  113542.500                                    0.42 3  329 264 
 BRWY HN  S       113542.599                                   -0.13 2  169  51 
 YUK6 HN  S       113544.025                                   -1.58 2  180  70 
 SCM  BZ  P       113545.391                                    0.75 3  348 298 
 PAX  BZ  P       113546.177                                    1.29 3  350 325 
 M23K BZ  P       113547.689                                    0.87 3  366 297 
 BAE  BZ  P       113547.766                                    0.85 3  367 285 
 DOT  BZ  P       113550.305                                    1.59 3  381 340 
 KNK  BZ  P       113551.503                                    0.74 2  390 289 
 SAW  BZ  P       113551.540                                    0.86 2  396 295 
 S31K BZ  P       113552.656                                    0.74 2  407 130 
 GHO  BZ  P       113554.900                                    0.24 2  425 293 
 DAWY HZ  P       113555.139                                    1.77 2  417  14 
 SWD  BZ  P       113555.277                                   -1.30 2  439 268 
 ATLI BZ  P       113555.456                                   -1.07 2  442  98 
 RC01 BZ  P       113558.066                                    0.35 2  452 282 
 K24K BZ  P       113558.265                                    2.73 2  435 331 
 SLK  BZ  P       1136 0.315                                   -0.56 1  477 274 
 WAT7 BZ  P       1136 0.546                                    0.52 2  470 307 
 BRSE BZ  P       1136 5.365                                   -0.03 1  517 265 
 RND  BZ  P       1136 5.575                                    0.97 1  506 313 
 CUT  BZ  P       1136 5.922                                   -0.01 1  514 298 
 L22K BZ  P       113610.219                                    0.98 1  543 299 
 CNP  BZ  P       113610.740                                    1.10 1  550 263 
 SKN  BZ  P       113612.201                                    0.50 0  562 292 
 HOM  BZ  P       113612.707                                    0.25 0  569 265 
 STLK BZ  P       113612.731                                    0.21 0  569 286 
 I27K BZ  P       113614.973                                    1.77 0  574 359 
 PPD  BZ  P       113617.325                                    0.94 0  600 342 
 ILCB BZ  P       113620.627                                   -0.55 0  640 268 
 BPAW BZ  P       113620.832                                    0.15 0  636 313 
 ILSW BZ  P       113620.889                                   -0.77 0  643 270 
 ILLG BZ  P       113620.898                                    0.55 0  633 271 
 CAST BZ  P       113621.942                                    0.35 0  644 305 
 ILS  BZ  P       113622.405                                    1.19 0  640 270 
 I23K BZ  P       113623.943                                    0.77 0  657 326 
 H24K BZ  P       113627.014                                    1.10 0  679 334 
 L19K BZ  P       113633.521                                    0.72 0  736 291 
 KAPH BZ  P       113635.656                                    1.11 0  751 259 
 G24K BZ  P       113636.685                                    1.64 0  755 339 
 KAHG BZ  P       113637.350                                    0.99 0  766 259 
 J20K BZ  P       113637.692                                    0.67 0  772 307 
 KARR BZ  P       113637.987                                    0.66 0  774 259 
 KEL  BZ  P       113645.074                                    0.66 0  832 260 
 P17K BZ  P       113646.784                                    1.11 0  844 267 
                                                                                

 2024 11 4  541 23.7 LQ 59.807-135.828 27.2   us 41 0.6 2.5L ak 2.7L us        1
 2024 11 4  541 23.797  59.80720 -135.82780   27.162  0.620                    H
 GAP=92     us  1.26       4.8     6.7  6.8  5.2743e+00                        E
 2024 11 4  541 25.9 LQ 59.831-135.912 23.3   ak 41 0.7                        1
 2024 11 4  541 25.980  59.83070 -135.91160   23.300  0.720                    H
 Action:ARG 26-01-05 11:50 OP:OBSP STATUS:               ID:20241104054123     I
 STAT SP IPHASW D HRMM SECON CODA AMPLIT PERI AZIMU VELO AIN AR TRES W  DIS CAZ7
 SKAG BZ  IAML     54133.580       149.6 0.16                   0.63 8 47.9 143 
 SKAG BN  IAML     54141.680       306.0 0.34                   2.50 0 47.9 143 
 WHY  HZ  IAML     54142.730       232.0 0.37                   0.9112  108  28 
 HYT  HZ  IAML     54142.840       101.5 0.69                  -3.72 0  146 321 
 BESE BZ  IAML     54147.130       111.8 0.50                   0.5212  147 157 
 R32K BZ  IAML     54151.970       109.9 0.58                   0.6112  186 155 
 S31K BZ  IAML     54154.090        51.3 0.76                   0.2511  207 186 
 S32K BZ  IAML     542 2.120        18.4 0.66                   0.4211  270 163 
 BESE BE  IAML     542 3.550       113.2 0.74                   0.13 8  147 157 
 SIT  BZ  IAML     542 5.900        21.6 1.14                  -0.4210  308 174 
 LOGN BZ  IAML     542 6.070        18.1 0.74                  -0.4310  308 293 
 EDCR BZ  Pn       542 6.980                                    0.9610  305 178 
 EDES BZ  Pn       542 7.160                                    0.8010  308 178 
 RKAV BZ  Pn       542 7.960                                    0.8910  312 282 
 MESA BZ  IAML     54210.040        36.0 1.12                  -0.9910  344 279 
 R32K BN  Sn       54211.520                                   -0.45 7  186 155 
 BARN BZ  Pn       54211.810                                    0.0610  350 295 
 DLBC HZ  Pn       54213.030                                   -0.5110  365 112 
 KIAG BZ  Pn       54215.850                                    0.2510  381 291 
 S31K BE  Sn       54216.530                                    0.10 6  207 186 
 BVCY HZ  Pn       54217.030                                   -0.4410  397 319 
 TGL  BZ  Pn       54217.330                                   -0.69 9  401 288 
 KHIT BZ  Pn       54220.220                                    0.09 9  419 282 
 MCAR BZ  IAML     54221.370        16.1 1.16                  -0.28 9  431 297 
 U33K BZ  IAML     54222.050         3.7 0.84                  -0.78 9  441 157 
 VRDI BZ  IAML     54223.390         8.4 1.20                  -0.42 9  448 293 
 GLB  BZ  IAML     54226.680         3.3 1.06                  -0.18 9  473 296 
 M26K BZ  IAML     54227.810         6.7 0.44                  -0.18 9  482 309 
 BMR  BZ  IAML     54229.820         6.1 1.16                  -0.43 9  501 288 
 S32K BE  IAML     54230.460        17.9 1.06                  -0.07 6  270 163 
 DAWY HZ  Pn       54231.670                                    0.28 9  510 340 
 L26K BZ  IAML     54235.140        13.1 0.90                   0.32 8  538 315 
 V35K BZ  IAML     54237.350         4.2 0.90                   0.00 8  559 151 
 DIV  BZ  IAML     54237.670         5.2 1.16                  -0.68 8  566 289 
 LOGN BN  IAML     54237.730        21.1 1.02                  -1.37 5  308 293 
 EDCR BN  Sn       54238.070                                   -0.20 0  305 178 
 RKAV BN  Sn       54239.020                                   -1.10 0  312 282 
 KLU  BZ  IAML     54239.980         2.6 1.06                  -0.42 8  583 293 
 DOT  BZ  Pn       54243.740                                    0.01 8  610 318 
 SCRK BZ  Pn       54246.640                                    0.14 8  632 320 
 RIDG BZ  Pn       54248.100                                   -0.12 8  646 316 
 I27K BZ  Pn       54255.830                                   -0.29 8  711 337 
 I26K BZ  Pn       54257.790                                    0.69 8  719 331 
 J25K BZ  Pn       54258.830                                    0.37 8  729 321 
 GHO  BZ  Pn       543 1.250                                    0.82 9  745 292 
 PPD  BZ  Pn       543 8.420                                    0.42 9  806 326 
 L22K BZ  Pn       54313.750                                   -0.51 9  858 297 
 TRF  BZ  Pn       54315.250                                   -0.11 9  866 304 
 STLK BZ  Pn       54318.730                                    0.00 9  894 289 
                                                                                

 2024  117  9 8 18.2 LQ 56.402-135.624 15.2   AK 55 0.9 3.6                    1
 2024  117  9 8 18.281  56.40170 -135.62380   15.200  0.870                    H
 GAP=                      0.5     0.6  0.5  1.7994e-01                        E
 Action:ARG 26-01-05 11:50 OP:OBSP STATUS:               ID:20240117090818     I
 STAT SP IPHASW D HRMM SECON CODA AMPLIT PERI AZIMU VELO AIN AR TRES W  DIS CAZ7
 SIT  BZ  P        9 830.580                                   -0.0410 75.1  13 
 EDCR BZ  P        9 830.720                                    0.09 2 74.6 356 
 S32K BZ  P        9 839.006                                    0.47 1  134  27 
 SIT  BE  S        9 839.984                                   -0.29 2 75.1  13 
 EDCR BE  S        9 840.904                                    0.60 1 74.6 356 
 U33K BZ  P        9 841.217                                   -0.33 1  157 100 
 S31K BZ  P        9 843.763                                   -0.31 1  177 348 
 R32K BZ  P        9 850.140                                    0.69 2  218  17 
 BESE BZ  P    A   9 853.488                                    0.45 0  246  10 
 S32K BN  S        9 854.552                                    0.18 0  134  27 
 V35K BZ  P        9 856.198                                   -0.62 0  277 113 
 U33K BN  S        9 858.260                                   -1.48 0  157 100 
 S31K BE  S        9 9 4.121                                   -0.12 0  177 348 
 SKAG BZ  P        9 9 4.520                                   -0.33 0  340   2 
 PLBC HZ  P        9 9 4.932                                   -0.17 0  342 352 
 DLBC HZ  P        9 913.360                                    0.48 0  403  53 
 PNL  BZ  P        9 914.717                                   -0.78 0  425 330 
 BESE BN  S        9 921.089                                    0.86 0  246  10 
 WHY  HZ  P        9 922.593                                    0.85 0  475   4 
 PIN  BZ  P        9 923.792                                    0.07 0  491 328 
 V35K BN  S        9 925.766                                   -1.19 0  277 113 
 SAMH BZ  P        9 927.271                                    0.99 0  512 326 
 RKAV BZ  P        9 929.395                                   -1.14 0  546 324 
 MESA BZ  P        9 931.569                                   -0.48 0  558 321 
 LOGN BZ  P        9 935.950                                    1.20 0  581 329 
 BRWY HZ  P        9 936.512                                    1.37 0  585 341 
 GRNC BZ  P        9 937.775                                    1.00 0  598 326 
 KHIT BZ  P        9 940.001                                   -0.61 0  631 318 
 BARN BZ  P        9 941.248                                    1.43 0  623 328 
 PLBC HN  S        9 941.424                                   -0.30 0  342 352 
 TGL  BZ  P        9 942.120                                    0.58 0  638 322 
 KIAG BZ  P        9 942.355                                    1.13 0  635 325 
 CRQ  BZ  P        9 943.193                                    0.44 0  648 321 
 BAL  BZ  P        9 943.439                                    1.18 0  644 325 
 YUK3 HZ  P        9 945.251                                    1.26 0  657 337 
 PTPK BZ  P        9 945.735                                    1.33 0  661 326 
 VRDI BZ  P        9 949.884                                    0.86 0  699 323 
 MCAR BZ  P        9 950.167                                    1.65 0  697 325 
 BMR  BZ  P        9 952.193                                    0.31 0  724 318 
 GLB  BZ  P        9 953.678                                    1.14 0  730 323 
 M27K BZ  P        9 956.839                                    1.80 0  750 334 
 HIN  BZ  P        9 956.928                                   -0.66 0  772 309 
 N25K BZ  P        9 958.261                                    0.60 0  772 322 
 PS12 BZ  P        9 959.044                                    0.10 0  783 319 
 FID  BZ  P        9 959.059                                   -1.36 0  796 311 
 P23K BZ  P        9 959.377                                   -1.00 0  796 305 
 WACK BZ  P        910 0.138                                   -0.18 0  793 325 
 KLU  BZ  P        910 2.627                                   -0.31 0  816 318 
 GLI  BZ  P        910 4.283                                    0.05 0  827 311 
 DAWY HZ  P        910 9.477                                   -0.69 0  876 347 
 SWD  BZ  P        91012.286                                   -1.24 0  905 302 
 SCM  BZ  P        91013.131                                    0.35 0  898 317 
 KNK  BZ  P        91015.885                                    0.37 0  921 312 
 SAW  BZ  P        91017.365                                   -0.35 0  939 314 
 BRSE BZ  P        91019.513                                   -0.74 0  960 298 
 GHO  BZ  P    A   91021.808                                    1.17 0  963 313 
 WAT6 BZ  P        91021.902                                    0.78 0  966 320 
 DHY  BZ  P        91026.082                                    2.25 0  989 323 
 Q20K BZ  P        91028.847                                    0.49 0 1028 290 
 RDT  BZ  P        91033.631                                   -0.57 0 1076 302 
 RDDF BZ  P        91035.205                                   -0.86 0 1091 302 
 STLK BZ  P        91035.289                                    0.07 0 1084 308 
 SKN  BZ  P        91035.493                                   -0.75 0 1093 311 
                                                                                

