 2024  720 1645 10.2 LQ 67.241-164.612  4.8   AK 23 0.8 2.6                    1
 2024  720 1645 10.292  67.24100 -164.61170    4.800  0.770                    H
 GAP=                      0.7     0.6  0.6 -1.6802e-01                        E
 Action:ARG 26-01-05 11:59 OP:OBSP STATUS:               ID:20240720164510     I
 STAT SP IPHASW D HRMM SECON CODA AMPLIT PERI AZIMU VELO AIN AR TRES W  DIS CAZ7
 D17K BZ  P       164524.575                                    0.2510 82.6  51 
 RDOG BZ  P       164529.326                                   -0.5810  115  37 
 C16K BZ  P       164530.593                                    0.1210  118 345 
 D17K BE  S       164534.752                                   -0.52 5 82.6  51 
 F15K BZ  P    A  164538.200                                    0.33 9  170 180 
 E18K BZ  P       164538.677                                    0.48 9  172  81 
 C18K BZ  P       164543.802                                    0.31 8  211  40 
 RDOG BN  S       164543.926                                   -1.28 2  115  37 
 C16K BE  S       164545.243                                   -0.98 2  118 345 
 F18K BZ  P    A  164546.200                                    0.65 7  227 105 
 TNA  BZ  P       164547.108                                    0.21 5  238 219 
 ANM  BZ  P       164554.434                                   -0.27 5  299 186 
 H16K BZ  P       164555.977                                    0.13 5  308 158 
 E19K BZ  P       164556.808                                   -0.08 1  316  82 
 H17K BZ  P       164559.068                                    0.22 5  332 138 
 E18K BE  S       1646 0.266                                    0.26 3  172  81 
 G19K BZ  P       1646 1.297                                   -0.12 3  352 106 
 F20K BZ  P       1646 4.967                                   -0.41 3  384  89 
 F18K BN  S       164612.903                                   -0.22 4  227 105 
 TNA  BE  S       164614.154                                   -1.36 2  238 219 
 C21K BZ  P       164614.858                                    0.14 2  457  57 
 H20K BZ  P       164616.324                                   -0.57 1  474 109 
 F21K BZ  P       164616.798                                   -0.55 1  478  85 
 A21K BZ  P       164625.025                                   -1.49 1  551  31 
 H21K BZ  P       164625.878                                   -0.84 2  552 103 
 E22K BZ  P       164625.898                                   -0.34 0  548  73 
 J19K BZ  P       164626.219                                    0.14 0  547 127 
 B22K BZ  P       164627.382                                   -0.96 1  565  47 
 ANM  BE  S       164627.584                                   -1.86 3  299 186 
 H16K BN  S       164629.611                                   -1.87 4  308 158 
 K13K BZ  P       164630.903                                   -0.52 0  590 180 
                                                                                

 2024 1123  741  5.4 LQ 66.713-170.882 12.7   AK 26 1.2 2.9                    1
 2024 1123  741  5.442  66.71280 -170.88160   12.700  1.210                    H
 GAP=                      2.9     5.2  3.3 -5.0230e+00                        E
 Action:ARG 26-01-05 11:59 OP:OBSP STATUS:               ID:20241123074105     I
 STAT SP IPHASW D HRMM SECON CODA AMPLIT PERI AZIMU VELO AIN AR TRES W  DIS CAZ7
 TNA  BZ  P        74134.941                                    0.84 8  184 132 
 F15K BZ  P        74148.321                                   -0.82 3  300 108 
 C16K BZ  P        74148.670                                    0.61 3  292  51 
 GAMB BZ  P        74152.711                                    0.08 3  328 187 
 D17K BZ  P        74153.620                                   -2.10 4  353  68 
 ANM  BZ  P        74155.085                                    0.06 5  347 130 
 RDOG BZ  P        74156.126                                   -1.99 2  371  62 
 TNA  BN  S        74156.358                                   -0.1510  184 132 
 C18K BZ  P        742 6.813                                   -2.71 1  461  57 
 H16K BZ  P        742 8.083                                   -0.87 1  457 116 
 F18K BZ  P        74212.058                                   -1.52 1  494  86 
 H17K BZ  P        74218.036                                   -0.89 1  536 106 
 C16K BN  S        74222.458                                    1.06 3  292  51 
 F15K BN  S        74222.903                                   -0.42 5  300 108 
 E19K BZ  P        74225.270                                   -1.03 0  595  75 
 G19K BZ  P        74226.885                                   -1.81 0  615  89 
 GAMB BE  S        74229.363                                   -0.18 4  328 187 
 ANM  BN  S        74232.617                                   -1.20 3  347 130 
 F20K BZ  P        74233.769                                   -0.41 0  661  79 
 K15K BZ  P        74233.806                                   -0.66 0  663 133 
 J17K BZ  P        74234.931                                    0.44 0  663 118 
 D17K BN  S        74235.633                                    0.57 3  353  68 
 C21K BZ  P        74239.731                                   -1.90 0  722  60 
 RDOG BN  S        74242.187                                    2.86 2  371  62 
 D22K BZ  P        74249.279                                   -1.50 1  798  64 
 H21K BZ  P        74252.463                                   -0.57 2  817  89 
 E22K BZ  P        74252.607                                   -1.50 0  825  70 
 J20K BZ  P        74253.931                                    0.56 2  820 102 
 TTA  BZ  P        74253.937                                    0.90 2  816 113 
 H16K BN  S        74258.780                                    0.14 1  457 116 
 C18K BN  S        74259.786                                    0.13 1  461  57 
 C23K BZ  P        743 0.601                                   -2.19 0  898  58 
 L19K BZ  P        743 6.060                                    1.19 1  915 115 
 F18K BN  S        743 8.346                                    1.46 1  494  86 
 E24K BZ  P        74310.233                                   -0.51 0  963  70 
 M20K BZ  P        74316.713                                    0.92 0 1005 113 
 H17K BN  S        74317.105                                    0.69 0  536 106 
 E19K BN  S        74330.027                                    0.53 0  595  75 
 G19K BN  S        74335.593                                    1.84 0  615  89 
 F20K BE  S        74342.338                                   -1.20 0  661  79 
 K15K BE  S        74344.259                                    0.21 0  663 133 
 J17K BN  S        74344.530                                    0.45 0  663 118 
                                                                                

 2024  9 2 1134 44.8 LQ 68.183-136.516 25.9   AK 34 0.7 3.4                    1
 2024  9 2 1134 44.835  68.18350 -136.51630   25.900  0.730                    H
 GAP=                      1.7     1.0  1.4 -4.7635e-01                        E
 Action:ARG 26-01-05 11:59 OP:OBSP STATUS:               ID:20240902113444     I
 STAT SP IPHASW D HRMM SECON CODA AMPLIT PERI AZIMU VELO AIN AR TRES W  DIS CAZ7
 INK  HZ  P       1135 2.848                                   -1.25 3  123  82 
 E27K BZ  P       113515.525                                   -0.12 8  209 272 
 INK  HN  S       113517.508                                   -1.65 3  123  82 
 G27K BZ  P       113523.092                                    0.25 8  266 237 
 C27K BZ  P       113531.551                                    0.81 5  329 302 
 I27K BZ  P       113534.850                                   -0.18 4  362 220 
 C26K BZ  P       113537.352                                   -0.41 1  385 303 
 E27K BE  S       113539.224                                   -0.51 3  209 272 
 D25K BZ  P       113541.876                                    0.07 3  416 292 
 DAWY HZ  P       113548.546                                   -0.78 2  475 197 
 PPD  BZ  P       113551.167                                   -0.31 1  492 237 
 E24K BZ  P       113552.305                                    0.52 1  495 274 
 J26L BZ  P       113553.686                                   -0.72 1  515 220 
 K27K BZ  P       113554.672                                   -0.87 1  524 211 
 TOLK BZ  P       113557.734                                    0.85 1  535 281 
 H24K BZ  P       113558.456                                   -1.15 0  556 247 
 J25K BZ  P       113559.442                                   -0.36 1  558 228 
 SCRK BZ  P       1136 1.645                                   -0.29 1  575 219 
 C23K BZ  P       1136 3.218                                   -0.20 0  589 294 
 DOT  BZ  P       1136 6.157                                    0.33 1  608 217 
 C27K BN  S       1136 6.408                                   -0.25 1  329 302 
 HDA  BZ  P       1136 7.260                                   -0.61 0  625 232 
 E22K BZ  P       1136 9.426                                    0.88 0  631 276 
 CCB  BZ  P       113610.015                                    0.90 0  636 237 
 K24K BZ  P       113610.620                                    0.88 0  641 225 
 WRH  BZ  P       113612.380                                    0.45 0  659 236 
 D22K BZ  P       113612.669                                    0.62 0  660 284 
 H22K BZ  P       113615.103                                   -0.63 0  690 255 
 MLY  BZ  P       113618.267                                   -0.64 0  716 247 
 F21K BZ  P       113619.007                                   -0.40 0  721 269 
 YUK3 HZ  P       113620.872                                   -0.47 0  735 196 
 C21K BZ  P       113622.750                                    0.66 0  743 286 
 DHY  BZ  P       113623.963                                    0.56 0  753 226 
 YUK8 HZ  P       113627.125                                    0.16 0  782 192 
 F20K BZ  P       113632.523                                    1.32 0  819 270 
 J20K BZ  P    A  113642.220                                    0.83 0  903 248 
 G19K BZ  P       113643.305                                    0.99 0  911 265 
                                                                                

 2024  724  433 22.3 LQ 67.649-162.366  3.9   AK 34 0.9 2.9                    1
 2024  724  433 22.304  67.64900 -162.36580    3.900  0.880                    H
 GAP=                      0.6     0.4  0.3  1.5833e-01                        E
 Action:ARG 26-01-05 11:59 OP:OBSP STATUS:               ID:20240724043322     I
 STAT SP IPHASW D HRMM SECON CODA AMPLIT PERI AZIMU VELO AIN AR TRES W  DIS CAZ7
 D17K BZ  P    A   43327.840                                    0.2710 30.8 280 
 RDOG BZ  P    A   43330.588                                   -0.3010 50.5 333 
 D17K BN  S        43332.385                                    0.71 4 30.8 280 
 E18K BZ  P        43335.783                                    0.06 9 79.1 107 
 RDOG BE  S        43337.022                                   -0.56 3 50.5 333 
 E18K BN  S        43345.214                                   -0.98 4 79.1 107 
 C16K BZ  P    A   43346.480                                    0.33 9  142 300 
 F18K BZ  P    A   43349.920                                    0.67 8  165 133 
 C19K BZ  P        43354.517                                    0.80 4  197  33 
 E19K BZ  P    A   43356.620                                    0.09 7  218  93 
 F15K BZ  P        43357.949                                   -1.09 6  238 206 
 C16K BE  S        434 4.240                                   -0.55 3  142 300 
 F20K BZ  P        434 5.404                                   -0.43 1  291 100 
 H17K BZ  P        434 8.947                                   -0.57 4  320 158 
 H16K BZ  P        43410.304                                   -0.97 4  334 178 
 F18K BE  S        43410.949                                    0.63 4  165 133 
 C21K BZ  P        43413.051                                   -0.46 4  352  58 
 H20K BZ  P        43419.635                                   -0.96 2  408 122 
 A21K BZ  P        43426.161                                   -1.61 2  465  26 
 H22K BZ  P        43433.026                                   -1.60 1  519 106 
 TOLK BZ  P        43436.338                                   -0.94 1  539  72 
 MLY  BZ  P        43442.816                                   -1.19 0  593 113 
 TTA  BZ  P        43444.498                                   -0.49 0  601 147 
 L17K BZ  P        43449.432                                   -0.40 0  642 160 
 BPAW BZ  P        43449.956                                   -0.72 0  648 122 
 H24K BZ  P        43451.356                                   -1.33 0  665 100 
 CAST BZ  P        43451.481                                   -1.23 0  665 130 
 NEA2 BZ  P        43453.806                                   -1.35 0  686 113 
 MDM  BZ  P        43456.384                                   -0.05 0  696 108 
 E25K BZ  P    A   43457.220                                    0.03 0  702  77 
 POKR BZ  P        43459.145                                   -0.09 0  719 105 
 WRH  BZ  P        435 0.547                                   -0.14 0  732 112 
 CCB  BZ  P        435 0.645                                   -0.07 0  732 110 
 C27K BZ  P    A   435 6.720                                   -0.15 0  783  65 
 L22K BZ  P    A   435 9.220                                    2.15 0  784 130 
 SKN  BZ  P    A   43511.788                                    1.67 0  810 135 
 J25K BZ  P    A   43514.200                                    1.35 0  832 105 
 N18K BZ  P    A   43514.220                                    1.11 0  834 155 
 E27K BZ  P    A   43516.780                                   -0.10 0  866  76 
                                                                                

 2024 10 1  051  1.2 LQ 68.490-144.275 16.9   AK 10 0.9 2.3                    1
 2024 10 1  051  1.238  68.48950 -144.27550   16.900  0.890                    H
 GAP=                      0.6     0.5  1.2  1.1360e-02                        E
 Action:ARG 26-01-05 11:59 OP:OBSP STATUS:               ID:20241001005101     I
 STAT SP IPHASW D HRMM SECON CODA AMPLIT PERI AZIMU VELO AIN AR TRES W  DIS CAZ7
 E27K BZ  P        05119.774                                   -0.34 2  115 105 
 D25K BZ  P        05121.106                                   -0.36 4  124 318 
 C27K BZ  P        05121.887                                    0.0010  128   9 
 C26K BZ  P        05128.031                                    1.79 1  160 351 
 E24K BZ  P        05129.429                                    0.62 2  179 257 
 D24K BZ  P        05133.332                                    2.18 1  196 294 
 E27K BN  S        05134.493                                   -0.38 0  115 105 
 TOLK BZ  P        05134.856                                    1.12 0  215 276 
 G27K BZ  P        05134.995                                    1.09 0  217 148 
 D25K BE  S        05136.002                                   -1.29 1  124 318 
 C27K BE  S        05138.119                                    0.09 1  128   9 
 COLD BZ  P        05143.233                                    0.75 0  285 243 
 C23K BZ  P        05143.454                                    0.18 0  291 303 
 C26K BE  S        05146.173                                    0.38 0  160 351 
 E24K BN  S        05150.135                                   -0.24 0  179 257 
 D24K BN  S        05154.999                                    0.45 1  196 294 
                                                                                

 2023  428 1136  0.3 LQ 66.060-174.126 20.9   AK 17 0.3 3.6                    1
 2023  428 1136  0.303  66.05990 -174.12600   20.900  0.320                    H
 GAP=                      6.6    14.5  7.2 -7.3041e+01                        E
 Action:ARG 26-01-05 11:59 OP:OBSP STATUS:               ID:20230428113600     I
 STAT SP IPHASW D HRMM SECON CODA AMPLIT PERI AZIMU VELO AIN AR TRES W  DIS CAZ7
 GAMB BZ  P       113639.938                                   -0.2410  278 154 
 F15K BZ  P       1137 0.037                                    0.38 7  431  90 
 ANM  BZ  P       1137 0.526                                    0.01 4  438 108 
 C16K BZ  P       1137 2.377                                    0.30 5  451  52 
 D17K BZ  P       1137 9.580                                   -0.52 3  514  64 
 GAMB BN  S       113711.518                                    0.1410  278 154 
 H16K BZ  P       113717.327                                   -0.05 3  572 100 
 G17K BZ  P       113722.101                                   -0.61 1  616  89 
 K13K BZ  P       113726.123                                   -0.56 1  649 130 
 A19K BZ  P       113733.439                                   -0.25 1  707  43 
 K15K BZ  P       113737.335                                   -0.01 1  737 118 
 M11K BZ  P       113737.989                                   -0.08 2  744 144 
 E19K BZ  P       113739.942                                    0.54 3  754  70 
 J17K BZ  P       113740.989                                   -0.33 1  770 105 
 L14K BZ  P       113741.183                                    0.24 1  768 127 
 F15K BN  S       113746.082                                   -0.02 7  431  90 
 ANM  BN  S       113747.359                                   -0.26 6  438 108 
 C16K BN  S       113750.212                                   -0.20 6  451  52 
 M14K BZ  P       113750.403                                    0.42 1  842 128 
 L16K BZ  P       113752.676                                    0.41 1  861 117 
 TTA  BZ  P       1138 0.482                                   -0.15 0  930 103 
 D17K BE  S       1138 4.656                                   -0.04 2  514  64 
                                                                                

