 2018  812 1518 37.8 LQ 69.499-144.739 10.2   AK 88 0.9 4.8                    1
 2018  812 1518 37.840  69.49900 -144.73930   10.200  0.870                    H
 GAP=                      0.2     0.2  0.2 -0.0000e+00                        E
 Action:ARG 26-01-05 11:59 OP:OBSP STATUS:               ID:20180812151837     I
 STAT SP IPHASW D HRMM SECON CODA AMPLIT PERI AZIMU VELO AIN AR TRES W  DIS CAZ7
 C27K BZ  P       151844.494                                   -0.11 0 42.4  70 
 C26K BZ  P    A  151845.650                                    0.27 2 47.0 351 
 D25K BZ  P       151848.974                                    0.20 1 66.9 253 
 C27K BE  S       151849.443                                   -0.63 0 42.4  70 
 C26K BE  S       151851.568                                    0.16 0 47.0 351 
 D25K BE  S       151858.046                                    0.78 0 66.9 253 
 D24K BZ  P       1519 5.407                                   -0.15 2  164 258 
 E27K BZ  P       1519 9.797                                    0.23 2  192 137 
 TOLK BZ  P       151911.328                                   -0.92 0  214 245 
 E24K BZ  P    A  151913.225                                    0.43 1  218 225 
 C23K BZ  P       151913.817                                   -0.32 1  229 282 
 D22K BZ  P       151925.151                                   -0.41 1  321 261 
 G27K BZ  P       151925.755                                   -0.34 4  325 155 
 G24K BZ  P       151926.333                                   -0.49 2  331 201 
 FYU  BZ  P       151926.626                                    0.39 2  326 183 
 D24K BE  S       151927.006                                    0.77 0  164 258 
 COLD BZ  P    A  151927.588                                   -0.01 1  337 224 
 B22K BZ  P       151927.667                                   -0.71 1  344 289 
 E27K BN  S       151932.362                                   -1.54 3  192 137 
 E21K BZ  P       151932.711                                   -1.02 1  386 256 
 G23K BZ  P       151933.131                                    0.25 1  379 217 
 A22K BZ  P       151936.194                                   -1.51 1  418 298 
 H24K BZ  P    A  151938.425                                   -0.56 0  428 199 
 F21K BZ  P       151939.577                                   -0.65 0  438 238 
 PPD  BZ  P       151940.732                                   -0.32 0  444 184 
 H23K BZ  P       151941.779                                   -0.65 0  455 208 
 I27K BZ  P    A  151942.100                                    0.01 0  452 161 
 INK  BZ  P       151942.966                                   -0.82 4  467 101 
 I26K BZ  P       151943.980                                   -0.31 1  471 171 
 B20K BZ  P       151944.502                                   -0.93 0  480 282 
 A21K BZ  P       151944.622                                   -1.50 3  485 300 
 D20K BZ  P       151944.737                                   -0.47 1  478 265 
 H22K BZ  P       151946.023                                   -0.48 1  488 218 
 POKR BZ  P       151947.564                                   -0.45 0  500 194 
 I23K BZ  P       151950.092                                   -0.61 0  522 204 
 MDM  BZ  P       151950.513                                   -0.73 0  526 198 
 F20K BZ  P       151950.973                                   -0.27 0  526 244 
 J25K BZ  P       151953.217                                   -0.27 1  543 183 
 E19K BZ  P       151953.993                                   -1.00 0  556 251 
 CCB  BZ  P       151954.340                                   -0.51 0  555 195 
 J26L BZ  P       151955.050                                   -0.21 0  558 174 
 HDA  BZ  P       151956.816                                   -0.36 0  573 190 
 WRH  BZ  P       151957.301                                   -0.30 0  577 196 
 C19K BZ  P       151957.683                                   -0.74 0  583 272 
 SCRK BZ  P       1520 2.177                                   -0.23 0  615 176 
 K27K BZ  P       1520 2.638                                   -0.22 0  619 167 
 A19K BZ  P       1520 2.743                                   -1.19 0  628 284 
 BWN  BZ  P       1520 2.979                                   -0.49 0  624 200 
 K24K BZ  P       1520 4.920                                    0.10 0  634 184 
 DAWY HZ  P       1520 5.803                                   -0.60 0  647 156 
 DOT  BZ  P       1520 6.342                                   -0.52 0  651 177 
 BPAW BZ  P       1520 6.942                                   -0.88 0  659 207 
 B18K BZ  P       1520 7.142                                   -1.33 1  664 276 
 MCK  BZ  P       1520 8.323                                   -0.51 0  667 198 
 F18K BZ  P       152011.597                                   -0.80 0  696 249 
 RND  BZ  P       152012.682                                   -0.49 0  701 197 
 CHUM BZ  P       152013.066                                   -0.67 0  706 211 
 KTH  BZ  P       152014.121                                   -0.75 1  714 205 
 J20K BZ  P       152014.575                                   -0.72 0  719 219 
 L26K BZ  P       152015.495                                   -0.26 1  722 174 
 PAX  BZ  P       152016.770                                    0.42 0  726 182 
 DHY  BZ  P       152016.850                                    0.81 0  723 190 
 GCSA BZ  P       152017.053                                   -1.11 0  742 230 
 D17K BZ  P       152018.592                                   -2.73 0  767 263 
 WAT1 HZ  P       152020.353                                   -0.20 0  760 194 
 WAT7 BZ  P       152021.054                                    0.11 0  763 195 
 J19K BZ  P       152021.074                                   -1.11 0  774 223 
 WAT6 BZ  P       152023.376                                    0.20 0  780 191 
 K20K BZ  P       152023.817                                   -1.27 0  797 215 
 M26K BZ  P       152024.737                                    0.12 0  793 173 
 G17K BZ  P       152024.998                                   -1.20 0  806 244 
 M27K BZ  P       152025.538                                   -0.56 0  804 169 
 PPLA BZ  P       152025.750                                   -0.48 1  805 207 
 C16K BZ  P       152026.439                                   -2.98 0  832 270 
 H17K BZ  P       152027.488                                   -0.86 1  823 239 
 WACK BZ  P       152029.656                                   -0.44 0  835 178 
 L20K BZ  P       152034.037                                   -1.57 0  881 212 
 YUK3 HZ  P       152035.867                                    0.19 0  880 165 
 H16K BZ  P       152039.544                                   -1.58 0  925 242 
 F15K BZ  P       152039.891                                   -2.67 0  937 252 
 L19K BZ  P       152040.571                                   -1.40 0  932 214 
 M20K BZ  P       152040.852                                   -0.66 0  928 208 
 PTPK BZ  P       152042.773                                    0.92 0  930 172 
 SSN  BZ  P       152043.034                                    0.70 0  934 200 
 M19K BZ  P       152043.371                                   -0.88 0  950 212 
 STLK BZ  P       152043.374                                   -0.41 0  946 203 
 BAL  BZ  P       152043.834                                   -0.12 0  947 172 
 BMR  BZ  P       152043.934                                   -0.12 0  948 179 
 CTG  BZ  P       152045.336                                   -0.43 0  961 168 
 L18K BZ  P       152045.586                                   -1.23 0  971 219 
 KIAG BZ  P       152046.256                                    0.70 0  959 172 
 LOGN BZ  P       152047.818                                   -0.23 0  979 168 
 ISLE BZ  P       152050.161                                    0.19 0  995 172 
                                                                                

 2019  5 1 1936 45.7 LQ 67.354-156.497  7.3   AK105 0.7 4.1                    1
 2019  5 1 1936 45.777  67.35420 -156.49730    7.300  0.690                    H
 GAP=                      0.3     0.3  0.3  0.0000e+00                        E
 Action:ARG 26-01-05 11:59 OP:OBSP STATUS:               ID:20190501193645     I
 STAT SP IPHASW D HRMM SECON CODA AMPLIT PERI AZIMU VELO AIN AR TRES W  DIS CAZ7
 E19K BZ  P       193652.266                                    0.68 1 33.4 290 
 F20K BZ  P       193653.808                                   -0.13 2 47.6 135 
 E19K BN  S       193656.820                                    0.70 2 33.4 290 
 F20K BE  S       193659.212                                   -1.09 2 47.6 135 
 F21K BZ  P    A  1937 7.175                                   -0.51 4  130  95 
 G19K BZ  P       1937 8.782                                    0.20 2  137 191 
 D20K BZ  P       193712.124                                    1.61 1  151 358 
 E21K BZ  P       193712.434                                    0.65 1  160  39 
 F18K BZ  P       193712.551                                    0.81 1  160 240 
 E18K BZ  P       193715.323                                    1.54 2  175 274 
 H20K BZ  P    A  193719.625                                   -0.06 3  219 160 
 C21K BZ  P       193720.024                                    1.25 2  212  18 
 E22K BZ  P       193720.749                                    1.54 3  215  64 
 D22K BZ  P    A  193722.750                                    1.40 3  231  41 
 F21K BE  S       193723.515                                   -1.28 2  130  95 
 C18K BZ  P    A  193723.625                                    0.85 2  242 308 
 H21K BZ  P    A  193723.650                                    0.04 3  249 137 
 G19K BE  S       193725.856                                   -0.56 1  137 191 
 G17K BZ  P    A  193726.350                                   -0.65 3  276 223 
 COLD BZ  P       193726.458                                    0.26 2  270  90 
 H22K BZ  P    A  193727.150                                   -0.06 2  278 123 
 D17K BZ  P    A  193728.050                                    0.34 3  282 280 
 RDOG BZ  P       193728.295                                    0.70 2  281 289 
 G23K BZ  P    A  193728.525                                   -0.18 2  289 101 
 GCSA BZ  P    A  193728.728                                    0.00 2  290 183 
 B20K BZ  P       193730.280                                    0.82 2  296 355 
 H17K BZ  P    A  193730.625                                   -0.54 2  309 211 
 D20K BE  S       193731.266                                    1.42 1  151 358 
 B18K BZ  P    A  193732.400                                    0.98 2  311 318 
 F18K BE  S       193732.491                                    0.45 1  160 240 
 E21K BE  S       193733.393                                    1.28 2  160  39 
 TOLK BZ  P    A  193733.675                                    0.91 2  321  60 
 H23K BZ  P    A  193736.075                                   -0.35 1  350 115 
 B22K BZ  P    A  193736.400                                   -0.38 1  354  18 
 E24K BZ  P    A  193737.400                                    1.45 1  346  72 
 MLY  BZ  P    A  193737.968                                   -0.28 1  365 132 
 C23K BZ  P    A  193737.975                                   -0.15 1  364  38 
 J20K BZ  P    A  193738.425                                   -0.29 1  369 162 
 A19K BZ  P       193738.842                                    0.53 3  366 331 
 J19K BZ  P    A  193739.350                                   -0.21 1  375 173 
 D24K BZ  P    A  193739.850                                    0.56 1  373  54 
 C16K BZ  P       193740.685                                    0.01 1  384 289 
 H16K BZ  P    A  193741.025                                   -1.33 1  398 223 
 G24K BZ  P       193741.560                                   -0.81 1  397  96 
 F15K BZ  P    A  193742.825                                   -0.34 1  404 246 
 A22K BZ  P       193742.965                                   -0.9010  410   7 
 I23K BZ  P    A  193743.125                                    0.21 1  402 124 
 H24K BZ  P    A  193743.975                                   -0.71 1  415 109 
 C21K BN  S       193746.158                                    1.58 1  212  18 
 BPAW BZ  P    A  193747.668                                   -0.11 1  440 142 
 A21K BZ  P       193747.747                                   -0.05 1  441 359 
 J17K BZ  P    A  193749.425                                   -0.27 1  455 196 
 NEA2 BZ  P    A  193749.640                                    0.07 1  454 128 
 K20K BZ  P    A  193749.725                                   -0.31 1  458 164 
 D25K BZ  P    A  193750.375                                   -1.00 1  468  57 
 E25K BZ  P    A  193751.650                                    0.44 1  467  74 
 POKR BZ  P       193751.976                                   -0.23 1  475 117 
 CAST BZ  P    A  193752.728                                   -0.39 1  482 152 
 BWN  BZ  P       193752.885                                   -0.14 1  482 133 
 CCB  BZ  P    A  193754.045                                   -0.53 1  494 123 
 KTH  BZ  P       193754.513                                   -0.16 1  494 146 
 WRH  BZ  P    A  193754.728                                   -0.23 1  497 126 
 ANM  BZ  P       193755.851                                   -0.32 0  507 236 
 PPD  BZ  P    A  193758.088                                   -0.85 0  527 107 
 TRF  BZ  P    A  193758.348                                    0.38 0  520 143 
 MCK  BZ  P    A  193759.368                                    0.06 0  531 135 
 PPLA BZ  P       193759.741                                   -0.07 0  534 155 
 HDA  BZ  P    A  1938 0.200                                   -0.48 0  542 122 
 TNA  BZ  P       1938 0.493                                   -0.38 0  544 253 
 C26K BZ  P    A  1938 1.525                                    0.22 0  547  53 
 L20K BZ  P    A  1938 2.225                                   -0.16 0  555 165 
 RND  BZ  P       1938 3.239                                   -0.09 0  563 137 
 L18K BZ  P    A  1938 3.900                                   -0.36 0  570 181 
 L19K BZ  P    A  1938 5.000                                   -0.47 0  580 171 
 C27K BZ  P    A  1938 5.475                                    0.34 0  577  58 
 J25K BZ  P    A  1938 5.575                                   -0.78 0  587 116 
 L17K BZ  P    A  1938 5.575                                   -0.61 0  586 189 
 K15K BZ  P       1938 9.163                                    0.09 0  610 205 
 M19K BZ  P    A  1938 9.350                                   -0.19 0  614 169 
 I26K BZ  P       193811.339                                   -0.82 0  636 104 
 E27K BZ  P    A  193811.550                                   -0.16 0  632  74 
 M20K BZ  P    A  193811.600                                    0.21 0  629 163 
 L16K BZ  P    A  193811.950                                   -1.06 0  643 194 
 SKN  BZ  P    A  193813.509                                    0.60 0  642 156 
 G27K BZ  P       193813.857                                    0.71 0  644  88 
 J26L BZ  P    A  193815.125                                   -0.63 0  665 112 
 SCRK BZ  P       193817.625                                   -0.35 0  683 117 
 I27K BZ  P    A  193817.875                                   -0.44 0  686  99 
 STLK BZ  P    A  193819.220                                    0.72 0  688 158 
 DOT  BZ  P       193820.095                                   -0.27 0  703 119 
 M16K BZ  P       193820.661                                   -0.89 0  713 190 
 PAX  BZ  P    A  193821.728                                    0.88 0  707 128 
 SPBG BZ  P       193821.805                                    1.13 0  705 161 
 SSN  BZ  P       193822.030                                    0.82 0  710 154 
 GHO  BZ  P       193822.352                                   -0.05 0  717 146 
 L14K BZ  P       193823.234                                   -0.34 0  730 206 
 SAW  BZ  P       193823.866                                    0.53 0  728 143 
 N19K BZ  P    A  193824.075                                    0.04 0  733 171 
 N18K BZ  P    A  193825.300                                    0.26 0  742 177 
 K27K BZ  P       193826.459                                    0.02 0  754 112 
 RDDF BZ  P    A  193829.720                                    0.80 0  774 164 
 M14K BZ  P       193829.967                                    0.48 0  780 202 
 RDT  BZ  P       193830.096                                    1.04 0  779 163 
 RDWB BZ  P       193830.844                                    0.72 0  783 165 
 RED  BZ  P    A  193831.880                                    1.26 0  791 165 
 N15K BZ  P       193833.870                                   -0.24 0  817 194 
 O18K BZ  P    A  193836.525                                    0.19 0  836 175 
 ILSW BZ  P       193836.896                                    0.53 0  835 167 
 P19K BZ  P    A  193841.925                                    1.36 0  871 167 
 M27K BZ  P       193842.411                                    0.36 0  882 122 
 P18K BZ  P       193842.846                                    0.32 0  887 175 
 P17K BZ  P       193844.780                                   -0.05 0  907 179 
 Q19K BZ  P       193850.858                                    1.10 0  947 170 
                                                                                

 2024 1121 1651 10.4 LQ 65.197-161.969  9.1   AK 10 1.0 1.8                    1
 2024 1121 1651 10.450  65.19670 -161.96860    9.100  0.970                    H
 GAP=                      0.8     0.5  0.4 -1.5246e-01                        E
 Action:ARG 26-01-05 11:59 OP:OBSP STATUS:               ID:20241121165110     I
 STAT SP IPHASW D HRMM SECON CODA AMPLIT PERI AZIMU VELO AIN AR TRES W  DIS CAZ7
 H16K BZ  P       165121.319                                    0.0010 63.4 191 
 H17K BZ  P       165128.007                                    0.43 0  100 105 
 H16K BE  S       165129.004                                   -0.79 0 63.4 191 
 F15K BZ  P       165133.377                                    0.42 0  136 295 
 F18K BZ  P       165139.375                                   -0.57 0  188  32 
 ANM  BZ  P       165139.618                                    1.37 0  175 247 
 H17K BN  S       165140.657                                   -0.28 0  100 105 
 G19K BZ  P       165146.432                                   -1.31 0  247  62 
 E18K BZ  P       165147.789                                   -0.92 0  254  13 
 J17K BZ  P       165147.800                                    0.47 0  243 143 
 F15K BE  S       165149.102                                   -1.45 0  136 295 
 K15K BZ  P       165157.265                                   -0.15 0  323 175 
 E19K BZ  P       165157.364                                   -0.67 0  328  37 
 ANM  BE  S       1652 0.043                                    0.06 0  175 247 
 F18K BN  S       1652 5.349                                    2.34 0  188  32 
                                                                                

