 2024 11 6  519 47.3 LQ 63.154-151.309  8.4   AK 66 0.8 2.4                    1
 2024 11 6  519 47.352  63.15380 -151.30930    8.400  0.750                    H
 GAP=                      0.1     0.2  0.1  9.3950e-03                        E
 Action:ARG 26-01-05 12:06 OP:OBSP STATUS:               ID:20241106051947     I
 STAT SP IPHASW D HRMM SECON CODA AMPLIT PERI AZIMU VELO AIN AR TRES W  DIS CAZ7
 CAST BZ  P        51955.415                                   -0.33 3 48.7 307 
 TRF  BZ  P        51957.908                                    0.13 5 60.7  56 
 L22K BZ  P        51959.876                                   -0.28 7 74.9 158 
 CAST BE  S        520 0.851                                   -1.44 1 48.7 307 
 CHUM BZ  P        520 3.902                                    0.3510 95.2 328 
 CUT  BZ  P        520 4.262                                   -0.30 9 98.7 146 
 BPAW BZ  P        520 5.543                                    0.10 5  106   8 
 TRF  BN  S        520 5.926                                    0.01 0 60.7  56 
 L22K BN  S        520 8.496                                   -1.65 1 74.9 158 
 RND  BZ  P        520 8.515                                   -0.04 3  125  76 
 SKN  BZ  P        520 8.966                                   -0.28 5  130 185 
 WAT7 BZ  P        520 9.158                                    0.08 3  129 104 
 MCK  BZ  P    A   52010.208                                    0.52 3  134  60 
 WAT1 HZ  P        52011.546                                    0.55 3  143 103 
 M20K BZ  P        52014.282                                   -0.22 8  169 214 
 CHUM BN  S        52015.212                                   -0.97 0 95.2 328 
 CUT  BN  S        52015.772                                   -2.23 1 98.7 146 
 J20K BZ  P        52016.223                                    0.34 3  180 310 
 STLK BZ  P        52017.156                                    0.43 2  186 188 
 WAT6 BZ  P        52017.345                                   -0.24 3  191 107 
 SSN  BZ  P        52018.362                                    1.05 6  190 170 
 BPAW BN  S        52018.422                                   -1.14 1  106   8 
 GHO  BZ  P        52018.549                                    0.04 3  196 140 
 SPBL BZ  P        52019.151                                    0.55 3  199 188 
 DHY  BZ  P        52019.201                                    0.80 3  197  90 
 L19K BZ  P        52019.997                                   -0.04 2  210 240 
 MLY  BZ  P        52020.021                                    0.01 4  210   7 
 PMR  BZ  P        52020.079                                    0.64 2  206 146 
 WRH  BZ  P        52020.148                                   -0.47 5  215  45 
 SAW  BZ  P        52020.622                                    0.13 2  214 133 
 I21K BZ  P        52022.584                                    0.34 4  227 352 
 CCB  BZ  P        52023.229                                   -0.38 3  238  44 
 TTA  BZ  P        52023.287                                   -0.39 5  238 266 
 I23K BZ  P        52023.566                                   -0.36 4  240  22 
 SKN  BE  S        52023.695                                   -2.67 1  130 185 
 KNK  BZ  P        52023.919                                   -1.19 3  243 141 
 RND  BE  S        52024.389                                   -0.74 1  125  76 
 WAT7 BN  S        52024.841                                   -1.23 2  129 104 
 SCM  BZ  P        52025.539                                    0.16 2  251 123 
 MCK  BE  S        52026.592                                   -0.56 2  134  60 
 WAT1 HE  S        52028.468                                   -1.01 1  143 103 
 BAE  BZ  P        52029.539                                    0.74 2  279 142 
 NSHR BZ  P        52030.316                                    0.46 4  287 143 
 BAT  BZ  P        52030.480                                    1.95 2  276 142 
 PAX  BZ  P        52031.096                                    0.26 2  294  91 
 RDDF BZ  P        52031.350                                    0.61 2  293 194 
 PWL  BZ  P        52031.425                                    0.15 6  298 147 
 SLK  BZ  P        52031.448                                    0.10 4  299 168 
 H22K BZ  P        52032.238                                    0.21 4  304 359 
 ESTR BZ  P        52032.685                                    1.51 4  298 143 
 H20K BZ  P        52032.716                                   -0.20 4  311 328 
 N19K BZ  P        52032.783                                    0.20 4  308 213 
 M20K BE  S        52033.789                                   -1.94 1  169 214 
 HARP BZ  P        52034.626                                    0.16 3  323 102 
 J25K BZ  P        52035.240                                   -0.39 3  332  58 
 KLU  BZ  P        52035.894                                    0.13 2  333 121 
 GLI  BZ  P        52036.117                                    0.27 2  334 137 
 H24K BZ  P        52036.388                                   -0.20 2  340  27 
 J20K BE  S        52037.798                                   -0.40 1  180 310 
 STLK BE  S        52038.989                                   -0.71 1  186 188 
 ILW  SZ  P        52039.120                                    0.29 2  357 196 
 N18K BZ  P        52039.479                                   -0.15 3  364 223 
 DIV  BZ  P        52039.610                                   -0.10 5  365 125 
 L17K BZ  P        52039.781                                   -1.05 3  374 255 
 FID  BZ  P        52039.861                                    0.18 2  365 135 
 SCRK BZ  P        52041.113                                    0.29 2  373  72 
 PPD  BZ  P        52041.475                                   -0.54 2  382  44 
 J17K BZ  P        52042.136                                   -0.56 2  389 277 
 N25K BZ  P        52042.385                                   -0.01 3  386 113 
 WASW SZ  P        52042.687                                   -0.34 2  390 107 
 G23K BZ  P        52043.886                                   -0.24 2  400   8 
 G19K BZ  P        52047.394                                   -0.62 2  431 322 
 L16K BZ  P        52049.685                                   -0.63 2  449 252 
 F21K BZ  P        52051.507                                   -0.63 1  463 348 
 H17K BZ  P        52051.845                                   -0.18 0  462 299 
 F20K BZ  P        52054.031                                   -0.09 2  479 336 
 E19K BZ  P        521 2.434                                   -0.81 1  551 332 
 F18K BZ  P        521 2.738                                   -0.12 1  548 317 
 BARN BZ  P        521 2.896                                   -0.63 1  552 110 
 E24K BZ  P        521 3.835                                   -0.82 0  562  12 
                                                                                

 2024  925  741 57.5 LQ 66.782-146.809 24.3   AK  8 0.5 2.3                    1
 2024  925  741 57.540  66.78220 -146.80880   24.300  0.460                    H
 GAP=                      0.4     0.6  0.9 -2.9237e-02                        E
 Action:ARG 26-01-05 12:06 OP:OBSP STATUS:               ID:20240925074157     I
 STAT SP IPHASW D HRMM SECON CODA AMPLIT PERI AZIMU VELO AIN AR TRES W  DIS CAZ7
 FYU  BZ  P        742 9.412                                   -0.08 1 73.4 108 
 H24K BZ  P        74215.742                                    0.50 2  115 204 
 G23K BZ  P        74218.897                                    0.16 1  141 268 
 FYU  BE  S        74219.632                                    0.42 1 73.4 108 
 COLD BZ  P        74220.094                                   -0.54 1  155 290 
 PPD  BZ  P        74220.250                                   -0.0110  152 157 
 E24K BZ  P        74221.008                                   -0.34 1  160 334 
 POKR BZ  P        74223.995                                   -0.93 0  187 188 
 MDM  BZ  P        74227.305                                   -0.99 1  212 198 
 H24K BN  S        74229.500                                    0.03 1  115 204 
 E24K BN  S        74240.492                                    0.14 1  160 334 
 MDM  BN  S        74252.358                                   -0.39 1  212 198 
                                                                                

 2024 1118 1031 39.1 LQ 64.101-148.152106.8   AK 31 0.6 1.7                    1
 2024 1118 1031 39.158  64.10130 -148.15210  106.800  0.550                    H
 GAP=                      0.2     0.3  0.3  2.1611e-02                        E
 Action:ARG 26-01-05 12:06 OP:OBSP STATUS:               ID:20241118103139     I
 STAT SP IPHASW D HRMM SECON CODA AMPLIT PERI AZIMU VELO AIN AR TRES W  DIS CAZ7
 WRH  BZ  P       103155.080                                    0.32 3 41.3   4 
 MCK  BZ  P       103155.868                                    0.24 3 56.3 223 
 CCB  BZ  P    A  103156.080                                    0.09 3 62.7  15 
 PS08 BZ  P    A  103157.388                                    0.06 3 80.7  51 
 MDM  BZ  P       103158.663                                    0.04 3 95.6 357 
 POKR BZ  P       1032 0.624                                   -0.05 6  118  16 
 K24K BZ  P    A  1032 1.020                                    0.07 3  120 104 
 TRF  BZ  P       1032 1.865                                    0.09 2  127 236 
 I23K BZ  P       1032 2.149                                    0.35 3  129 334 
 J25K BZ  P    A  1032 3.440                                   -0.07 3  145  65 
 WRH  BN  S       1032 7.145                                    0.19 2 41.3   4 
 PAX  BZ  P       1032 7.657                                    0.06 2  183 132 
 MCK  BE  S    A  1032 8.208                                   -0.29 1 56.3 223 
 CCB  BE  S       1032 8.831                                   -0.31 2 62.7  15 
 H24K BZ  P    A  1032 9.060                                    0.34 2  193   3 
 SCRK BZ  P    A  1032 9.268                                   -0.60 2  203  92 
 PPD  BZ  P       1032 9.565                                   -0.05 1  200  37 
 CAST BZ  P       1032 9.780                                   -0.52 1  207 250 
 CHUM BZ  P       1032 9.898                                    0.02 3  204 265 
 CUT  BZ  P       103210.883                                   -0.78 2  216 210 
 PS08 BN  S    A  103211.148                                   -0.37 1 80.7  51 
 L22K BZ  P    A  103211.200                                   -0.37 2  218 217 
 MDM  BN  S       103213.230                                   -0.60 1 95.6 357 
 H22K BZ  P       103215.220                                    0.01 2  250 324 
 SCM  BZ  P       103216.066                                    0.1610  255 170 
 SAW  BZ  P       103216.197                                    0.38 2  255 182 
 L26K BZ  P       103216.285                                   -0.79 1  266 114 
 GHO  BZ  P       103217.074                                    0.07 1  262 188 
 GRES HN  S    A  103217.620                                   -0.08 1  119  97 
 H21K BZ  P       103218.571                                   -0.05 3  279 310 
 SKN  BZ  P       103219.824                                   -0.15 2  290 217 
 J20K BZ  P       103219.836                                   -0.09 9  290 274 
 KNK  BZ  P       103221.102                                   -0.72 3  299 183 
 G23K BZ  P       103221.731                                    0.33 4  302 344 
 BAE  BZ  P       103224.035                                   -0.59 2  330 179 
 BAT  BZ  P       103224.211                                   -0.34 2  329 180 
 PAX  BN  S       103229.119                                   -0.70 1  183 132 
 H24K BN  S    A  103231.200                                   -0.62 1  193   3 
 PPD  BN  S    A  103231.928                                   -1.49 1  200  37 
 SCRK BN  S    A  103232.068                                   -1.80 1  203  92 
 SCM  BN  S       103245.734                                    1.11 0  255 170 
 L26K BN  S    A  103246.200                                   -0.50 0  266 114 
                                                                                

 2020 1221 1216 19.8 LQ 66.339-135.693 23.4   us 52 0.8 4.5L ak 4.3b us 4.2  us1
 2020 1221 1216 19.8 LQ                       us        4.2 pgc                1
 2020 1221 1216 19.890  66.33880 -135.69290   23.380  0.760                    H
 GAP=35     us  1.53       3.7     3.7  4.1 -1.6610e+00                        E
 2020 1221 1216 19.5 LQ 66.345-135.684 36.5   ak 52 0.9                        1
 2020 1221 1216 19.533  66.34470 -135.68360   36.500  0.910                    H
 2020 1221 1216 18.5 LQ 66.319-135.652 21.3      52 0.0                        1
 2020 1221 1216 18.500  66.31870 -135.65240   21.300  0.000                    H
 1970  1 1  0 0  0.0 LQ  0.000   0.000 30.0      52 0.0                        1
 1970  1 1  0 0  0.0     0.00000    0.00000   30.000  0.000                    H
 1970  1 1  0 0  0.0 LQ  0.000   0.000  0.0      52 0.0                        1
 1970  1 1  0 0  0.0     0.00000    0.00000    0.000  0.000                    H
 2020 1221 1216 19.7 LQ 66.340-135.710 29.0      52 0.0                        1
 2020 1221 1216 19.700  66.34000 -135.71000   29.000  0.000                    H
 Action:ARG 26-01-05 12:06 OP:OBSP STATUS:               ID:20201221121619     I
 STAT SP IPHASW D HRMM SECON CODA AMPLIT PERI AZIMU VELO AIN AR TRES W  DIS CAZ7
 INK  BZ  Pn      121653.160                              53   -0.2011  238  22 
 G27K BZ  Pn      121657.200                              53   -0.1011  270 283 
 I27K BZ  Pn      121658.660                              53   -0.1010  281 255 
 DAWY HZ  Pn      1217 1.330                              53   -0.6010  307 216 
 E27K BZ  Pn      1217 4.170                              53   -0.2010  327 311 
 I26K BZ  Pn      1217 7.690                              53   -0.70 0  360 254 
 K27K BZ  Pn      121711.760                              53   -0.90 0  394 232 
 FYU  BZ  Pn      121715.620                              53   -0.90 0  426 277 
 INK  BE  Sn      121718.300                              59   -0.90 6  238  22 
 PPD  BZ  Pn      121720.380                              53   -0.10 0  457 262 
 SCRK BZ  Pn      121721.340                              53   -0.70 0  470 239 
 J25K BZ  Pn      121723.470                              53   -0.70 0  488 251 
 DOT  BZ  Pn      121724.200                              53   -1.00 0  496 236 
 C27K BZ  Pn      121727.160                              53    1.90 0  497 321 
 RIDG BZ  Pn      121727.790                              53   -0.30 0  519 240 
 G24K BZ  Pn      121728.340                              53   -0.50 0  525 279 
 MENT BZ  Pn      121729.650                              53   -0.90 0  539 229 
 M27K BZ  Pn      121729.750                              53   -0.40 0  535 216 
 POKR BZ  Pn      121731.920                              53   -0.60 0  555 261 
 K24K BZ  Pn      121732.210                              53    0.10 0  552 243 
 HDA  BZ  Pn      121732.870                              53   -0.90 8  565 252 
 PAX  BZ  Pn      121738.220                              53    0.30 0  599 235 
 WRH  BZ  Pn      121738.620                              53   -0.80 0  612 255 
 YUK6 HZ  Pn      121740.380                              53    0.20 0  616 193 
 HYT  HZ  Pn      121741.350                              53    0.60 0  621 189 
 G23K BZ  Pn      121741.940                              53   -0.80 0  638 280 
 HARP BZ  Pn      121742.180                              53    0.10 0  633 230 
 I23K BZ  Pn      121742.230                              53   -0.70 0  640 264 
 WHY  HZ  Pn      121742.700                              53    0.30 0  635 175 
 WACK BZ  Pn      121742.780                              53   -0.50 0  641 224 
 NEA2 BZ  Pn      121743.300                              53   -0.80 0  649 258 
 BARN BZ  Pn      121744.300                              53   -1.00 0  658 209 
 TOLK BZ  Pn      121744.360                              53    0.70 0  645 299 
 MCAR BZ  Pn      121745.330                              53    0.00 0  659 216 
 DHY  BZ  Pn      121746.080                              53   -0.00 0  664 242 
 LOGN BZ  Pn      121746.650                              53   -0.00 0  669 205 
 GLB  BZ  Pn      121746.890                              53   -0.50 0  676 219 
 PS01 BZ  Pn      121749.150                              53    0.30 0  688 315 
 KIAG BZ  Pn      121749.310                              53    0.30 0  688 211 
 GRNC BZ  Pn      121750.310                              53    0.50 0  694 208 
 WAT1 HZ  Pn      121754.250                              53    0.40 0  728 243 
 WAT7 BZ  Pn      121755.850                              53    0.50 0  740 244 
 BMR  BZ  Pn      121756.400                              53    0.70 0  743 220 
 SCM  BZ  Pn      121757.610                              53    0.20 0  757 233 
 SAW  BZ  Pn      1218 2.420                              53    0.30 0  796 236 
 KNK  BZ  Pn      1218 6.540                              53   -0.10 0  832 234 
 PMR  BZ  Pn      1218 9.070                              53    1.20 0  843 237 
 PPLA BZ  Pn      121811.620                              53   -0.40 0  875 251 
 SKN  BZ  Pn      121815.770                              53   -0.20 0  908 245 
 J19K BZ  Pn      121822.260                              53   -0.90 0  967 263 
 L20K BZ  Pn      121823.430                              53   -0.60 0  973 252 
 M20K BZ  Pn      121825.480                              53    0.50 0  981 247 
 A21K BZ  Pn      121827.390                              53   -0.30 0 1004 312 
                                                                                

 2024  829  528 10.8 LQ 65.600-135.180  5.8   AK  7 0.7 2.8                    1
 2024  829  528 10.860  65.60000 -135.17990    5.800  0.660                    H
 GAP=                      1.2     1.7  2.0  1.6427e+00                        E
 Action:ARG 26-01-05 12:06 OP:OBSP STATUS:               ID:20240829052810     I
 STAT SP IPHASW D HRMM SECON CODA AMPLIT PERI AZIMU VELO AIN AR TRES W  DIS CAZ7
 DAWY HZ  P        52849.927                                    0.21 5  262 231 
 INK  HZ  P        52853.755                                   -1.84 1  309  12 
 I27K BZ  P        52854.404                                    0.48 3  295 273 
 G27K BZ  P        52856.598                                   -0.40 1  319 297 
 K27K BZ  P        529 2.727                                   -0.59 1  369 244 
 E27K BZ  P        529 6.953                                   -0.30 1  400 318 
 PPD  BZ  P        52916.259                                   -0.52 1  475 273 
 DAWY HN  S        52920.288                                   -0.42 1  262 231 
 I27K BN  S        52928.370                                    0.16 0  295 273 
                                                                                

