 2024 12 1  931 25.1 LQ 62.962-150.471 98.8   AK111 0.6 2.7                    1
 2024 12 1  931 25.163  62.96160 -150.47110   98.800  0.610                    H
 GAP=                      0.2     0.3  0.3 -1.2212e-02                        E
 Action:ARG 26-01-05 12:06 OP:OBSP STATUS:               ID:20241201093125     I
 STAT SP IPHASW D HRMM SECON CODA AMPLIT PERI AZIMU VELO AIN AR TRES W  DIS CAZ7
 L22K BZ  P        93140.939                                    0.45 8 50.8 197 
 TRF  BZ  P        93141.280                                    0.38 8 55.0   9 
 CUT  BZ  P        93141.713                                    0.06 8 62.7 170 
 WAT7 BZ  P    A   93143.208                                    0.23 4 83.5  99 
 CAST BZ  P        93143.962                                   -0.00 8 95.5 302 
 RND  BZ  P    A   93144.280                                    0.34 8 94.7  57 
 WAT1 HZ  P    A   93144.488                                    0.24 8 98.4  97 
 MCK  BZ  P    A   93146.088                                    0.27 8  114  41 
 SKN  BZ  P    A   93146.628                                    0.09 8  121 207 
 BPAW BZ  P    A   93147.348                                    0.07 8  129 348 
 CHUM BZ  P        93148.467                                    0.36 6  137 318 
 WAT6 BZ  P    A   93149.128                                    0.00 4  145 105 
 GHO  BZ  P    A   93150.608                                    0.20 7  154 148 
 DHY  BZ  P        93150.743                                    0.39 7  156  83 
 PMR  BZ  P        93151.259                                   -0.08 7  167 154 
 SAW  BZ  P        93151.602                                   -0.04 4  169 138 
 SSN  BZ  P        93151.773                                    0.29 6  167 185 
 STLK BZ  P    A   93152.540                                   -0.04 4  177 204 
 L22K BE  S        93152.607                                    0.13 2 50.8 197 
 M20K BZ  P        93152.977                                   -0.16 2  182 229 
 TRF  BN  S        93153.712                                    0.51 1 55.0   9 
 M23K BZ  P        93153.943                                   -0.27 4  192 131 
 NEA2 BZ  P        93154.105                                   -0.31 4  194  20 
 CUT  BE  S        93154.398                                   -0.15 3 62.7 170 
 KNK  BZ  P        93155.135                                   -0.99 4  201 147 
 WRH  BZ  P        93155.387                                   -0.24 4  204  33 
 SPCG BZ  P        93155.428                                   -0.07 4  202 204 
 SCM  BZ  P    A   93155.540                                   -0.19 4  204 126 
 RC01 BZ  P        93156.332                                   -0.11 4  211 169 
 SPU  BZ  P        93156.602                                   -0.26 4  214 203 
 WAT7 BN  S        93156.746                                   -0.1610 83.5  99 
 SPNN BZ  P        93156.821                                    0.27 4  211 214 
 SPCL BZ  P        93157.207                                   -0.21 4  219 207 
 SPWE BZ  P        93157.572                                    0.42 4  216 210 
 CAST BN  S        93157.691                                   -0.97 3 95.5 302 
 J20K BZ  P        93158.096                                   -0.07 4  226 308 
 CCB  BZ  P    A   93158.160                                   -0.21 4  228  33 
 MLY  BZ  P        93158.428                                   -0.25 4  230 356 
 RND  BE  S        93158.468                                   -0.15 3 94.7  57 
 BAT  BZ  P        93158.979                                   -0.27 4  235 148 
 WAT1 HE  S        93159.213                                    0.06 3 98.4  97 
 HDA  BZ  P    A   93159.248                                   -0.12 4  236  45 
 BAE  BZ  P        93159.308                                   -0.16 4  237 147 
 L19K BZ  P    A   93159.620                                   -0.24 4  240 250 
 MDM  BZ  P    A   932 0.600                                   -0.08 4  247  25 
 I23K BZ  P    A   932 0.720                                   -0.07 4  249  12 
 PS08 BZ  P    A   932 0.948                                   -0.10 4  251  43 
 MCK  BN  S        932 1.313                                   -0.65 3  114  41 
 PWL  BZ  P    A   932 1.528                                   -0.51 3  259 153 
 K24K BZ  P        932 1.732                                    0.56 4  251  66 
 PAX  BZ  P        932 1.773                                    0.43 4  252  87 
 I21K BZ  P    A   932 1.940                                    0.16 3  257 344 
 SKN  BN  S        932 2.984                                   -0.2610  121 207 
 CAPN BZ  P        932 3.390                                    2.92 1  246 188 
 BPAW BN  S        932 3.646                                   -0.91 5  129 348 
 SLK  BZ  P    A   932 3.868                                    0.22 3  272 177 
 PS11 BZ  P        932 4.307                                    0.49 3  274 108 
 TTA  BZ  P    A   932 4.440                                   -0.13 3  280 271 
 KLU  BZ  P    A   932 4.488                                   -0.86 3  286 122 
 POKR BZ  P        932 4.745                                    0.07 3  281  30 
 PS07 BZ  P    A   932 4.808                                    0.11 3  281  21 
 HARP BZ  P        932 4.838                                    0.54 3  278 100 
 RDT  BZ  P        932 5.030                                    0.44 3  284 201 
 CHUM BE  S        932 5.613                                   -0.42 3  137 318 
 NCT  BZ  P        932 7.033                                    0.74 3  296 206 
 RDWB BZ  P        932 7.089                                   -0.18 3  302 205 
 WAT6 BN  S        932 7.374                                   -0.48 3  145 105 
 J25K BZ  P    A   932 8.080                                   -0.10 3  310  51 
 PS12 BZ  P        932 8.459                                   -1.00 3  321 118 
 FID  BZ  P        932 8.518                                   -0.84 3  320 139 
 N19K BZ  P        932 9.235                                    0.12 5  318 223 
 SWD  BZ  P        932 9.269                                   -0.78 3  322 169 
 DHY  BE  S        932 9.732                                   -0.32 3  156  83 
 GHO  BE  S        932 9.934                                    0.44 5  154 148 
 H22K BZ  P        93210.154                                   -0.18 5  328 352 
 WACK BZ  P        93211.210                                    0.12 1  333 106 
 N25K BZ  P        93211.276                                   -0.31 3  338 113 
 PMR  BE  S        93211.499                                   -0.31 2  167 154 
 SCRK BZ  P        93211.500                                   -0.36 1  340  67 
 WAZA BZ  P        93211.823                                    0.09 1  338 104 
 H24K BZ  P        93211.888                                   -0.17 2  343  20 
 WASW SZ  P        93212.411                                    0.13 2  343 106 
 SAW  BN  S        93212.532                                    0.19 1  169 138 
 HIN  BZ  P        93212.544                                   -0.76 4  353 141 
 SSN  BE  S        93212.597                                    0.54 1  167 185 
 ILLG BZ  P        93212.756                                    0.09 3  348 203 
 H20K BZ  P        93213.150                                   -0.05 3  352 324 
 STLK BE  S        93213.565                                   -0.45 3  177 204 
 BRSE BZ  P        93213.791                                    0.48 2  358 182 
 BRLK BZ  P        93214.035                                    0.89 3  357 183 
 M20K BN  S        93214.111                                   -0.89 2  182 229 
 P23K BZ  P        93214.248                                   -0.67 2  367 152 
 EYAK BZ  P        93214.502                                   -0.16 2  365 135 
 L26K BZ  P        93214.564                                    0.55 1  359  85 
 PPD  BZ  P        93215.257                                   -0.25 2  371  37 
 GCSA BZ  P        93215.765                                    0.43 2  371 305 
 M23K BE  S        93216.559                                   -0.35 2  192 131 
 GLB  BZ  P        93216.584                                   -0.41 2  384 113 
 N18K BZ  P        93216.662                                    0.09 2  380 230 
 M26K BZ  P        93217.123                                   -0.12 1  386  95 
 CNP  BZ  P    A   93217.208                                    0.68 2  384 186 
 WRH  BE  S        93217.544                                   -1.89 2  204  33 
 GOAT BZ  P        93218.173                                   -0.88 1  401 128 
 KNK  BE  S        93218.483                                    0.21 1  201 147 
 VRDI BZ  P        93219.521                                   -1.01 2  412 114 
 RC01 BN  S        93220.157                                   -0.74 3  211 169 
 L17K BZ  P        93220.161                                   -0.02 2  411 260 
 RAG  BZ  P        93220.425                                   -0.68 1  418 130 
 G23K BZ  P        93221.302                                    0.33 2  417   2 
 MCAR BZ  P        93221.642                                   -0.10 2  424 111 
 J17K BZ  P        93222.319                                   -0.61 1  434 280 
 J20K BN  S        93222.525                                   -1.44 2  226 308 
 CRQ  BZ  P        93225.224                                   -0.69 0  458 119 
 PTPK BZ  P        93226.241                                   -0.07 1  460 111 
 KHIT BZ  P        93226.294                                   -1.29 0  472 123 
 TGL  BZ  P        93226.464                                   -0.83 1  469 118 
 BAL  BZ  P        93227.165                                   -0.76 1  474 113 
 KIAG BZ  P        93227.702                                   -0.97 1  480 114 
 GRIN BZ  P        93227.936                                   -0.65 1  480 125 
 COLD BZ  P        93228.234                                    0.44 1  474   1 
 Q20K BZ  P        93230.675                                    0.45 1  494 193 
 BARN BZ  P        93231.916                                    0.25 1  505 110 
 I27K BZ  P        93233.535                                    0.48 1  517  51 
 KAPH BZ  P        93235.360                                    0.98 1  528 205 
 LOGN BZ  P        93236.780                                   -0.15 0  549 111 
 KARR BZ  P        93237.591                                    1.07 1  546 206 
 RKAV BZ  P        93238.396                                   -0.42 0  564 117 
 KAWH BZ  P        93238.991                                    0.77 0  560 206 
 KVT  BZ  P        93240.649                                    1.01 0  572 209 
 KAKN BZ  P        93240.941                                    0.89 0  575 207 
 KEL  BZ  P        93241.841                                    1.48 0  578 212 
 KBM  BZ  P        93241.955                                    1.28 0  581 208 
 KABU BZ  P        93242.300                                    1.29 0  583 208 
 KAB2 BZ  P        93242.423                                    0.60 0  590 206 
 MGLS BZ  P        93243.011                                    0.74 0  594 207 
                                                                                

 2023 1023  149  0.8 LQ 66.278-140.914 10.0   us133 0.9 3.9b us 3.8 pgc 3.6L ak1
 2023 1023  149  0.8 LQ                       us        3.7L us                1
 2023 1023  149  0.835  66.27790 -140.91370   10.000  0.880                    H
 GAP=41     us  1.78       4.3     3.9  1.9 -7.8928e+00                        E
 2023 1023  149  0.8 LQ 66.293-140.986 13.6   ak133 1.0                        1
 2023 1023  149  0.888  66.29250 -140.98620   13.600  1.010                    H
 2023 1023  149  1.3 LQ 66.330-140.910  8.0     133 0.0                        1
 2023 1023  149  1.300  66.33000 -140.91000    8.000  0.000                    H
 2023 1023  149  0.8 LQ 66.281-140.937 10.0     133 0.0 3.6  us                1
 2023 1023  149  0.800  66.28110 -140.93720   10.000  0.000                    H
