 2024 1015  1 2 34.5 LQ 67.289-168.386 20.1   AK  9 0.8 2.2                    1
 2024 1015  1 2 34.522  67.28940 -168.38590   20.100  0.850                    H
 GAP=                      1.1     2.0  2.5 -2.1967e+00                        E
 Action:ARG 26-01-05 11:59 OP:OBSP STATUS:               ID:20241015010234     I
 STAT SP IPHASW D HRMM SECON CODA AMPLIT PERI AZIMU VELO AIN AR TRES W  DIS CAZ7
 C16K BZ  P        1 3 2.942                                    0.25 2  168  48 
 TNA  BZ  P        1 3 5.802                                   -0.0210  193 173 
 D17K BZ  P        1 310.377                                   -0.05 2  230  76 
 F15K BZ  P        1 311.871                                   -0.01 1  241 134 
 C16K BE  S        1 321.965                                   -1.85 1  168  48 
 ANM  BZ  P        1 323.196                                   -0.01 1  332 154 
 E18K BZ  P        1 323.532                                    0.20 3  333  83 
 C18K BZ  P        1 323.639                                   -0.04 7  335  59 
 TNA  BE  S        1 329.231                                   -0.14 1  193 173 
 F18K BZ  P        1 330.469                                    0.38 3  387  97 
 D17K BN  S        1 336.223                                   -1.34 1  230  76 
 F15K BE  S        1 342.101                                    1.96 0  241 134 
 D22K BZ  P        1 4 5.880                                    0.03 1  673  67 
                                                                                

 2024  724  3 8 13.1 LQ 67.873-160.829  2.8   AK 76 0.9 4.2     4.1            1
 2024  724  3 8 13.129  67.87300 -160.82900    2.800  0.870                    H
 GAP=                      0.5     0.4  0.4  4.2062e-02                        E
 Action:ARG 26-01-05 11:59 OP:OBSP STATUS:               ID:20240724030813     I
 STAT SP IPHASW D HRMM SECON CODA AMPLIT PERI AZIMU VELO AIN AR TRES W  DIS CAZ7
 E18K BZ  P        3 822.139                                    0.33 4 51.1 169 
 E18K BN  S        3 828.598                                    0.01 4 51.1 169 
 RDOG BZ  P        3 828.879                                    0.6510 89.1 284 
 D17K BZ  P        3 828.985                                   -0.5410 96.7 259 
 C19K BZ  P        3 838.213                                    0.57 2  145  19 
 F18K BZ  P        3 838.566                                    0.41 9  150 159 
 E19K BZ  P        3 839.784                                    0.43 9  158 105 
 RDOG BN  S        3 840.529                                    0.52 2 89.1 284 
 D17K BE  S        3 842.620                                    0.30 4 96.7 259 
 C16K BZ  P        3 844.526                                    0.65 8  192 285 
 F20K BZ  P        3 849.165                                   -0.53 8  235 110 
 C21K BZ  P        3 855.546                                   -0.31 5  284  57 
 F15K BZ  P        3 856.086                                   -0.87 5  293 216 
 E21K BZ  P        3 857.025                                    0.37 1  290  74 
 F18K BN  S        3 857.983                                    0.2710  150 159 
 E19K BN  S        3 9 0.353                                    0.51 5  158 105 
 H17K BZ  P    A   3 9 0.780                                   -0.72 4  329 172 
 D22K BZ  P        3 9 4.239                                   -0.16 4  351  67 
 H16K BZ  P        3 9 4.879                                   -1.18 4  365 190 
 H20K BZ  P    A   3 9 6.200                                   -0.76 3  372 132 
 E22K BZ  P        3 9 7.158                                   -0.37 3  376  81 
 C16K BE  S        3 9 7.829                                   -0.10 3  192 285 
 B22K BZ  P    A   3 9 9.680                                   -0.96 3  401  43 
 TNA  BZ  P        3 9 9.799                                   -1.15 3  403 233 
 A21K BZ  P        3 911.296                                   -1.25 2  416  21 
 ANM  BZ  P        3 912.161                                   -0.89 2  420 211 
 H21K BZ  P        3 913.123                                   -1.07 2  429 121 
 F20K BE  S        3 917.289                                   -1.00 2  235 110 
 COLD BZ  P        3 917.544                                   -0.04 1  456  94 
 H22K BZ  P        3 917.725                                   -1.26 2  467 113 
 C23K BZ  P        3 918.020                                   -0.48 2  463  57 
 TOLK BZ  P        3 918.659                                   -0.83 2  470  74 
 G23K BZ  P        3 918.873                                   -1.88 2  480 100 
 J19K BZ  P        3 921.110                                   -0.94 1  491 148 
 I21K BZ  P        3 921.373                                   -0.80 1  492 123 
 J17K BZ  P        3 923.328                                   -0.33 1  504 170 
 J20K BZ  P        3 924.083                                   -0.24 1  509 140 
 D24K BZ  P        3 924.353                                    0.16 1  508  68 
 E24K BZ  P        3 924.873                                   -0.14 1  514  81 
 MLY  BZ  P        3 927.756                                   -1.42 1  547 120 
 E21K BN  S        3 929.423                                   -1.27 1  290  74 
 TTA  BZ  P        3 934.522                                   -0.37 1  592 155 
 H24K BZ  P        3 934.616                                   -2.12 1  608 105 
 D25K BZ  P        3 934.772                                   -1.77 0  606  67 
 K15K BZ  P        3 936.759                                   -1.50 0  621 183 
 BPAW BZ  P        3 937.055                                    0.05 0  610 128 
 E25K BZ  P        3 939.214                                   -0.71 0  634  80 
 NEA2 BZ  P        3 939.770                                   -0.68 0  639 119 
 MDM  BZ  P        3 939.886                                   -1.34 0  645 114 
 CAST BZ  P    A   3 939.908                                   -0.17 0  636 136 
 L17K BZ  P        3 941.025                                   -0.58 0  648 168 
 POKR BZ  P        3 941.856                                   -1.89 0  666 111 
 L18K BZ  P        3 942.553                                   -0.09 0  657 160 
 D22K BE  S        3 942.911                                   -1.59 1  351  67 
 C26K BZ  P        3 944.119                                   -0.51 0  674  63 
 CCB  BZ  P    A   3 944.540                                   -1.11 0  682 115 
 WRH  BZ  P    A   3 944.828                                   -0.99 0  683 117 
 L16K BZ  P        3 945.360                                   -0.96 0  688 174 
 L19K BZ  P        3 946.799                                    0.03 0  691 153 
 H20K BN  S        3 947.759                                   -1.30 1  372 132 
 MCK  BZ  P        3 948.456                                   -0.44 0  709 124 
 C27K BZ  P        3 948.565                                   -0.91 0  714  66 
 PPD  BZ  P        3 949.007                                   -1.31 0  720 104 
 RND  BZ  P        3 953.113                                    0.68 0  738 126 
 M16K BZ  P        3 955.534                                   -0.30 0  766 172 
 L22K BZ  P        3 955.943                                    1.44 0  755 137 
 M14K BZ  P    A   3 958.600                                   -0.42 0  793 184 
 E27K BZ  P        3 958.777                                   -0.80 0  797  78 
 WAT7 BZ  P        3 959.056                                    0.74 0  786 129 
 SKN  BZ  P        3 959.251                                    1.04 0  786 141 
 WAT1 HZ  P        3 959.787                                    0.34 0  796 128 
 SPNN BZ  P        310 2.517                                    0.29 0  819 148 
 STLK BZ  P        310 3.428                                    0.40 0  826 144 
 SPWE BZ  P        310 4.258                                    0.50 0  831 147 
 N18K BZ  P    A   310 4.740                                    0.80 0  833 161 
 SPCL BZ  P        310 6.371                                    1.08 0  844 147 
 N15K BZ  P        310 7.429                                    0.67 0  857 177 
 I27K BZ  P        310 8.410                                   -0.71 0  876  97 
 GHO  BZ  P        310 9.234                                   -0.52 0  878 134 
 RDJH BZ  P        31012.164                                    0.61 0  896 150 
 SAW  BZ  P        31012.327                                    1.19 0  893 132 
 NCT  BZ  P        31012.501                                    1.17 0  896 151 
 O18K BZ  P        31015.864                                    0.07 0  932 160 
 P18K BZ  P        31022.370                                    0.58 0  981 161 
 P17K BZ  P        31023.629                                    1.10 0  988 165 
 KEL  BZ  P        31034.116                                    0.60 0 1078 164 
                                                                                

 2023 1027 2310 45.3 LQ 68.192-158.691  5.1   AK 48 0.7 3.0                    1
 2023 1027 2310 45.334  68.19250 -158.69130    5.100  0.650                    H
 GAP=                      0.4     0.5  0.4  4.0088e-02                        E
 Action:ARG 26-01-05 11:59 OP:OBSP STATUS:               ID:20231027231045     I
 STAT SP IPHASW D HRMM SECON CODA AMPLIT PERI AZIMU VELO AIN AR TRES W  DIS CAZ7
 E19K BZ  P    A  2311 2.300                                   -0.3710  102 142 
 D20K BZ  P    A  2311 2.560                                   -0.21 6  102  54 
 C19K BZ  P       2311 4.177                                    0.56 5  107 340 
 RDOG BZ  P       231113.634                                    0.09 5  175 266 
 B18K BZ  P       231114.390                                    0.15 5  180 317 
 F20K BZ  P       231114.982                                    1.01 5  178 133 
 F18K BZ  P       231115.079                                    0.71 9  181 193 
 D17K BZ  P       231115.263                                   -0.42 4  191 255 
 C21K BZ  P       231115.943                                    0.30 4  190  54 
 E19K BN  S       231116.343                                    0.14 2  102 142 
 D20K BN  S       231117.045                                    0.67 5  102  54 
 B20K BZ  P       231117.586                                   -0.71 3  210  16 
 C19K BN  S       231118.112                                    0.22 3  107 340 
 G19K BZ  P       231121.598                                   -0.34 4  238 162 
 A19K BZ  P       231122.041                                   -0.43 3  242 338 
 F21K BZ  P       231123.371                                    0.58 2  244 113 
 D22K BZ  P       231124.394                                    0.17 3  256  69 
 C16K BZ  P       231125.932                                   -0.56 1  274 274 
 E22K BZ  P       231127.591                                   -0.25 2  284  88 
 G17K BZ  P    A  231130.380                                   -0.81 4  311 196 
 A22K BZ  P       231133.849                                   -1.45 1  344  23 
 H20K BZ  P       231134.536                                   -0.72 3  343 149 
 RDOG BN  S       231135.968                                    0.37 5  175 266 
 B18K BN  S       231136.030                                   -0.81 3  180 317 
 F20K BE  S       231137.084                                    0.73 2  178 133 
 F18K BE  S       231137.741                                    0.67 3  181 193 
 C23K BZ  P    A  231138.060                                   -0.50 4  369  56 
 C21K BE  S       231138.856                                   -0.49 3  190  54 
 F15K BZ  P       231139.095                                   -0.63 2  378 225 
 COLD BZ  P       231139.186                                    0.15 4  373 102 
 D17K BE  S       231139.275                                   -0.14 9  191 255 
 H21K BZ  P    A  231139.540                                   -0.48 3  380 134 
 TOLK BZ  P    A  231139.560                                    0.13 4  375  78 
 H22K BZ  P    A  231142.940                                   -0.39 3  406 125 
 I21K BZ  P       231147.776                                   -0.47 2  446 135 
 H23K BZ  P       231151.214                                   -0.85 1  475 119 
 J19K BZ  P    A  231152.900                                   -0.52 1  486 162 
 J20K BZ  P       231153.383                                   -0.51 1  490 153 
 MLY  BZ  P    A  231154.088                                   -0.54 1  495 131 
 G24K BZ  P       231154.794                                   -1.00 1  505 103 
 D25K BZ  P       231155.296                                   -1.21 0  510  70 
 H24K BZ  P    A  231158.480                                   -1.29 1  536 114 
 J17K BZ  P       231158.857                                   -0.47 0  533 182 
 E25K BZ  P       231159.797                                   -0.64 1  541  84 
 BPAW BZ  P    A  2312 3.688                                   -0.43 0  571 139 
 CAST BZ  P    A  2312 8.488                                   -0.32 0  609 147 
 C27K BZ  P    A  2312 9.200                                   -0.66 0  618  68 
 CCB  BZ  P       2312 9.240                                   -1.16 0  623 124 
 WRH  BZ  P       2312 9.916                                   -0.97 0  627 126 
 MCK  BZ  P    A  231214.968                                   -0.26 0  662 133 
 PPLA BZ  P       231215.247                                    0.27 0  659 150 
 L22K BZ  P       231224.205                                    1.08 0  727 146 
 WAT7 BZ  P       231225.654                                    0.17 0  747 138 
 WAT1 HZ  P    A  231227.088                                    0.63 0  755 137 
 DHY  BZ  P    A  231228.888                                    0.85 0  767 132 
 SPNN BZ  P    A  231234.080                                    1.03 0  809 156 
 SPWE BZ  P       231235.196                                    0.72 0  821 156 
                                                                                

 2024  930 2257 28.4 LQ 68.469-144.242  0.4   AK 30 0.6 2.6                    1
 2024  930 2257 28.480  68.46940 -144.24200    0.400  0.550                    H
 GAP=                      0.8     0.8  1.0  3.1996e-01                        E
 Action:ARG 26-01-05 11:59 OP:OBSP STATUS:               ID:20240930225728     I
 STAT SP IPHASW D HRMM SECON CODA AMPLIT PERI AZIMU VELO AIN AR TRES W  DIS CAZ7
 E27K BZ  P       225747.903                                    0.68 2  113 104 
 D25K BZ  P       225749.505                                   -0.17 4  127 318 
 C27K BZ  P       225750.473                                    0.34 2  130   9 
 C26K BZ  P       225755.750                                    0.69 5  163 350 
 E24K BZ  P       225757.921                                    0.49 2  180 257 
 D24K BZ  P       2258 0.530                                    0.59 4  199 294 
 E27K BN  S       2258 1.956                                   -0.24 4  113 104 
 G27K BZ  P       2258 2.201                                    0.13 9  214 148 
 TOLK BZ  P       2258 2.910                                    0.45 4  217 277 
 D25K BN  S       2258 5.184                                   -1.36 3  127 318 
 C27K BE  S       2258 6.328                                   -1.04 2  130   9 
 C23K BZ  P       225812.266                                    0.01 7  294 304 
 G23K BZ  P       225814.392                                   -0.3510  313 234 
 E22K BZ  P       225814.729                                   -0.01 4  313 266 
 C26K BE  S       225815.656                                   -0.52 3  163 350 
 H24K BZ  P       225816.639                                   -0.48 3  332 209 
 PPD  BZ  P       225817.065                                   -0.24 5  332 190 
 I27K BZ  P       225817.554                                   -0.37 5  338 159 
 D22K BZ  P       225818.512                                   -0.10 4  344 281 
 E24K BE  S       225819.309                                   -1.08 3  180 257 
 D24K BN  S       225823.853                                   -1.02 3  199 294 
 E21K BZ  P       225825.626                                    0.31 5  396 274 
 POKR BZ  P       225825.847                                    0.41 7  397 202 
 G27K BE  S       225827.572                                   -1.10 2  214 148 
 H22K BZ  P       225828.556                                    0.34 3  419 230 
 J25K BZ  P       225829.272                                   -0.48 3  431 187 
 C21K BZ  P       225829.940                                    0.48 3  429 285 
 INK  HZ  P       225830.403                                   -0.13 5  438  87 
 J26L BZ  P       225831.340                                    0.23 4  442 175 
 CCB  BZ  P       225832.477                                    0.07 3  453 201 
 HDA  BZ  P       225834.491                                    0.32 5  467 196 
 WRH  BZ  P       225835.012                                   -0.28 3  476 202 
 MLY  BZ  P       225835.162                                   -0.26 6  476 219 
 K27K BZ  P       225838.849                                    0.09 1  503 167 
 SCRK BZ  P       225838.854                                    0.44 1  499 178 
 D20K BZ  P       225839.524                                    0.92 5  502 278 
 E19K BZ  P       225845.453                                    0.48 1  552 264 
                                                                                

