 2022  929 23 8 10.2 LQ 60.224-141.194 13.3   AK156 1.2 5.0     5.2            1
 2022  929 23 8 10.228  60.22350 -141.19370   13.300  1.170                    H
 GAP=                      0.3     0.2  0.1  1.5542e-02                        E
 Action:ARG 26-01-05 11:50 OP:OBSP STATUS:               ID:20220929230810     I
 STAT SP IPHASW D HRMM SECON CODA AMPLIT PERI AZIMU VELO AIN AR TRES W  DIS CAZ7
 RKAV BZ  P       23 813.700                                    0.23 8 12.0 314 
 SAMH BZ  P    A  23 815.368                                    0.25 8 25.0 114 
 TABL BZ  P       23 815.642                                    0.56 4 24.2   6 
 RKAV BN  S       23 816.587                                    0.58 3 12.0 314 
 MESA BZ  P    A  23 818.028                                    0.22 8 42.0 263 
 SAMH BN  S       23 819.653                                    0.71 5 25.0 114 
 TABL BE  S       23 819.830                                    0.95 1 24.2   6 
 BAGL BZ  P       23 820.573                                    0.27 3 57.6 301 
 GRNC BZ  P       23 821.544                                    0.10 7 64.4 331 
 LOGN BZ  P       23 822.065                                    0.11 7 67.6   8 
 ISLE BZ  P    A  23 823.228                                   -0.08 7 75.7 304 
 MESA BE  S       23 824.541                                    0.81 3 42.0 263 
 WAX  BZ  P    A  23 826.228                                   -0.23 7 94.6 286 
 BARN BZ  P    A  23 826.508                                   -0.26 7 96.4 344 
 KIAG BZ  P    A  23 827.028                                   -0.43 7  100 321 
 BAGL BN  S       23 827.778                                   -0.38 2 57.6 301 
 TGL  BZ  P    A  23 827.988                                   -0.50 7  107 304 
 BAL  BZ  P    A  23 828.368                                   -0.50 7  110 325 
 PNL  BZ  P    A  23 828.528                                   -1.26 7  117 121 
 YKU2 BZ  P    A  23 829.140                                   -0.41 7  116 132 
 KHIT BZ  P    A  23 829.268                                   -0.36 4  115 283 
 GRIN BZ  P    A  23 829.508                                   -0.30 7  117 274 
 GRNC BE  S       23 829.591                                   -0.60 2 64.4 331 
 CRQ  BZ  P    A  23 829.628                                   -0.52 7  119 300 
 BGLC BZ  P       23 829.630                                    0.07 2  116 265 
 LOGN BN  S       23 830.846                                   -0.2610 67.6   8 
 PTPK BZ  P    A  23 831.332                                    0.03 7  127 327 
 BERG BZ  P    A  23 832.628                                   -0.13 4  139 278 
 ISLE BE  S       23 832.974                                   -0.54 2 75.7 304 
 YUK8 HZ  P    A  23 833.750                                    0.55 4  141  32 
 SUCK BZ  P    A  23 833.948                                    0.57 4  144 264 
 NICH BZ  P    A  23 834.968                                    0.34 4  153 271 
 MCAR BZ  P    A  23 835.828                                   -0.07 4  162 323 
 VRDI BZ  P    A  23 836.128                                   -0.37 4  166 313 
 KAI  BZ  P    A  23 838.148                                   -0.33 4  181 260 
 BARN BE  S       23 838.196                                   -1.47 3 96.4 344 
 YUK7 HZ  P       23 838.675                                    1.47 2  171  77 
 YUK6 HZ  P    A  23 839.140                                    1.53 4  174  61 
 YUK3 HZ  P    A  23 839.400                                    1.40 4  177  12 
 KIAG BN  S       23 839.523                                   -1.39 2  100 321 
 RAG  BZ  P       23 839.902                                   -0.08 3  192 276 
 GLB  BZ  P    A  23 840.388                                   -0.07 4  196 314 
 GOAT BZ  P    A  23 840.588                                   -0.14 4  198 283 
 TGL  BN  S       23 841.374                                   -1.38 2  107 304 
 BMR  BZ  P    A  23 841.408                                   -0.07 4  203 295 
 BAL  BN  S       23 842.024                                   -1.41 2  110 325 
 HYT  HZ  P    A  23 843.290                                    0.57 4  212  70 
 PNL  BE  S       23 843.701                                   -1.38 2  117 121 
 YUK5 HZ  P       23 843.777                                    1.68 1  207  59 
 KHIT BN  S       23 843.949                                   -0.83 2  115 283 
 GRIN BN  S       23 844.725                                   -0.39 2  117 274 
 N25K BZ  P    A  23 846.250                                    0.06 3  239 311 
 EYAK BZ  P    A  23 847.028                                   -0.72 3  252 280 
 PTPK BE  S       23 847.402                                   -0.36 2  127 327 
 M27K BZ  P    A  23 847.700                                    1.41 3  240 351 
 PS12 BZ  P       23 848.289                                    0.19 4  255 304 
 WASW SZ  P       23 848.510                                    1.12 5  248 321 
 DIV  BZ  P    A  23 849.268                                   -0.61 3  268 293 
 WACK BZ  P    A  23 849.460                                    0.77 3  258 320 
 M26K BZ  P    A  23 849.660                                    0.85 3  260 339 
 BERG BN  S       23 850.898                                    0.53 2  139 278 
 PLBC HZ  P    A  23 851.460                                   -0.10 3  282 105 
 HIN  BZ  P    A  23 851.548                                   -1.33 3  292 276 
 YUK8 HN  S       23 852.379                                    1.23 1  141  32 
 KLU  BZ  P    A  23 852.508                                   -0.33 3  292 300 
 FID  BZ  P    A  23 852.528                                   -1.40 3  301 283 
 VMT  BZ  P    A  23 852.588                                   -0.82 3  297 290 
 Q23K BZ  P       23 852.633                                   -1.17 3  300 255 
 NICH BN  S       23 854.744                                    1.0310  153 271 
 PS11 BZ  P    A  23 855.788                                    0.95 3  308 313 
 GLI  BZ  P    A  23 856.488                                   -1.14 3  330 285 
 VRDI BN  S       23 856.564                                   -0.47 5  166 313 
 HARP BZ  P    A  23 857.200                                    0.75 3  321 320 
 SKAG BZ  P       23 857.790                                   -0.77 2  338 101 
 MENT BZ  P       23 857.843                                    0.26 1  330 337 
 L26K BZ  P       23 858.477                                    0.70 3  331 340 
 KAI  BE  S       23 859.552                                   -1.01 2  181 260 
 WHY  HZ  P       23 9 0.378                                    0.28 1  349  79 
 SCM  BZ  P    A  23 9 2.628                                   -0.75 2  375 301 
 S31K BZ  P       23 9 2.691                                   -0.98 2  378 129 
 GLB  BE  S       23 9 3.503                                   -0.59 1  196 314 
 PAX  BZ  P    A  23 9 3.588                                   -0.35 2  379 325 
 BAE  BZ  P    A  23 9 4.488                                   -0.72 2  390 287 
 M23K BZ  P       23 9 4.601                                   -0.90 2  392 299 
 BAT  BZ  P       23 9 4.677                                   -0.96 1  393 288 
 PWL  BZ  P    A  23 9 4.808                                   -1.18 2  396 283 
 BESE BZ  P       23 9 5.463                                   -1.30 2  402 114 
 SAW  BZ  P    A  23 9 8.168                                   -1.15 2  422 297 
 ATLI BZ  P    A  23 9 8.525                                   -0.79 2  422  96 
 R32K BZ  P       23 910.335                                   -0.72 0  436 116 
 WAT6 BZ  P       23 910.435                                   -0.63 1  435 309 
 JIS  BZ  P       23 910.570                                   -1.27 1  443 116 
 RIDG BZ  P       23 910.917                                    0.04 2  434 335 
 SCRK BZ  P    A  23 911.668                                   -0.14 1  441 342 
 GHO  BZ  P       23 911.980                                   -1.26 0  450 295 
 DAWY HZ  P       23 912.064                                    0.91 1  437  11 
 PMR  BZ  P       23 912.376                                   -0.95 0  455 292 
 DHY  BZ  P       23 913.257                                   -0.21 0  454 316 
 RC01 BZ  P       23 914.863                                   -1.05 0  475 285 
 K24K BZ  P       23 915.515                                    0.95 0  464 331 
 WAT1 HZ  P       23 916.476                                   -0.78 0  485 309 
 S32K BZ  P       23 917.019                                   -0.51 0  488 125 
 FIRE BZ  P       23 917.615                                   -1.58 0  501 285 
 WAT7 BZ  P       23 918.232                                   -0.71 0  498 308 
 J26L BZ  P       23 918.535                                    0.53 0  491 346 
 RND  BZ  P       23 922.085                                   -1.52 0  535 314 
 J25K BZ  P       23 922.318                                   -0.99 0  533 338 
 PS08 BZ  P       23 925.336                                   -1.38 0  560 331 
 MCK  BZ  P       23 925.938                                   -0.91 0  561 317 
 CNP  BZ  P       23 926.080                                   -0.82 0  565 266 
 L22K BZ  P       23 927.475                                   -0.50 0  570 300 
 I26K BZ  P       23 928.473                                    0.08 0  573 350 
 HOM  BZ  P       23 928.862                                   -0.89 0  585 268 
 SKN  BZ  P       23 928.949                                   -1.19 0  588 293 
 WRH  BZ  P       23 929.457                                   -0.98 0  590 326 
 CCB  BZ  P       23 930.053                                   -1.15 0  597 328 
 I27K BZ  P       23 932.229                                    0.79 0  598 358 
 NEA2 BZ  P       23 933.864                                   -1.55 0  632 323 
 KTH  BZ  P       23 934.708                                   -0.43 0  628 310 
 PPLA BZ  P       23 936.771                                   -1.26 0  652 301 
 ILCB BZ  P       23 938.121                                   -0.45 0  657 271 
 CAST BZ  P       23 939.320                                   -0.94 0  671 306 
 P19K BZ  P       23 940.019                                   -0.32 0  672 269 
 I23K BZ  P       23 941.491                                   -0.52 0  686 326 
 AU22 BZ  P       23 942.040                                    0.15 0  685 267 
 H24K BZ  P       23 943.689                                   -1.00 0  708 334 
 CHUM BZ  P       23 944.126                                   -0.26 0  706 309 
 Q19K BZ  P       23 944.869                                   -0.53 0  714 263 
 L20K BZ  P       23 945.018                                   -1.02 0  719 295 
 MLY  BZ  P       23 945.196                                   -1.18 0  722 321 
 M19K BZ  P       23 946.126                                   -1.46 0  732 290 
 G27K BZ  P       23 948.931                                    1.35 0  732 358 
 K20K BZ  P       23 949.631                                   -1.16 0  759 302 
 L19K BZ  P       23 949.727                                   -1.37 0  761 292 
 H23K BZ  P       23 950.060                                    0.33 0  750 329 
 KAPH BZ  P       23 950.957                                   -0.52 0  764 262 
 I21K BZ  P       23 951.905                                   -0.95 0  776 319 
 O18K BZ  P       23 951.933                                   -1.09 0  777 273 
 KAHG BZ  P       23 952.719                                   -0.54 0  779 261 
 P18K BZ  P       23 953.498                                   -0.86 0  788 269 
 V35K BZ  P       23 953.632                                   -0.23 0  785 129 
 G24K BZ  P       23 953.842                                    0.09 0  784 339 
 KARR BZ  P       23 953.852                                   -0.38 0  787 261 
 Q18K BZ  P       23 954.789                                   -0.86 0  798 263 
 J20K BZ  P       23 955.014                                   -0.71 0  800 308 
 N18K BZ  P       23 955.338                                   -1.05 0  805 279 
 H22K BZ  P       23 956.211                                   -0.79 0  810 325 
 KAVE BZ  P       23 957.134                                   -0.63 0  817 260 
 MGLS BZ  P       23 958.075                                   -0.90 0  827 259 
 KBM  BZ  P       23 958.253                                   -0.33 0  823 260 
 CAHL BZ  P       23 959.882                                   -0.47 0  838 259 
 ANCK BZ  P       2310 0.093                                   -0.80 0  842 260 
 G23K BZ  P       2310 0.418                                   -0.42 0  842 332 
 H21K BZ  P       2310 1.256                                    0.72 0  840 320 
 J19K BZ  P       2310 1.551                                   -0.99 0  856 305 
 KJL  BZ  P       2310 1.659                                   -0.47 0  853 259 
 P17K BZ  P       2310 3.005                                    0.05 0  860 269 
 PS05 BZ  P       2310 5.098                                    1.20 0  868 331 
 E27K BZ  P       2310 7.220                                    1.19 0  885 358 
 COLD BZ  P       2310 7.743                                    0.69 0  894 334 
 H20K BZ  P       2310 8.324                                   -0.05 0  905 316 
 PLK2 BZ  P       2310 8.400                                   -0.13 0  906 259 
 PLK3 BZ  P       2310 8.426                                   -0.16 0  906 258 
 R17L BZ  P       2310 9.283                                   -0.21 0  914 258 
 L17K BZ  P       231011.737                                   -0.59 0  938 290 
 PLBL BZ  P       231012.609                                    0.48 0  936 259 
 P16K BZ  P       231014.160                                    0.31 0  950 269 
 INK  HZ  P       231016.586                                    0.41 0  970  18 
 M16K BZ  P       231016.600                                    0.41 0  970 282 
 F21K BZ  P       231018.527                                    0.87 0  982 327 
 J17K BZ  P       231019.714                                   -0.01 0  999 298 
 N15K BZ  P       231024.893                                    0.15 0 1040 277 
 ANNW BZ  P       231025.146                                   -0.40 0 1047 257 
 ANPK BZ  P       231025.553                                   -0.21 0 1048 256 
 F20K BZ  P       231025.951                                    1.42 0 1039 322 
 ANPB BZ  P       231026.728                                   -0.24 0 1059 256 
 CHGN BZ  P       231031.352                                    0.32 0 1093 254 
 K15K BZ  P       231032.847                                    0.20 0 1106 290 
                                                                                

 2024 11 2  6 2 39.5 LQ 56.737-135.840 10.2   AK 11 0.4 2.3                    1
 2024 11 2  6 2 39.523  56.73680 -135.84040   10.200  0.400                    H
 GAP=                      1.2     2.1  0.7  1.3371e+00                        E
 Action:ARG 26-01-05 11:50 OP:OBSP STATUS:               ID:20241102060239     I
 STAT SP IPHASW D HRMM SECON CODA AMPLIT PERI AZIMU VELO AIN AR TRES W  DIS CAZ7
 EDSO BZ  P        6 245.490                                   -0.16 3 32.6   5 
 EDES BZ  P        6 246.058                                   -0.00 2 35.0  13 
 EDNW BZ  P        6 246.146                                   -0.14 5 36.5   5 
 EDCR BZ  P    A   6 246.800                                    0.2010 38.1  12 
 SIT  BZ  P    A   6 247.960                                   -0.0710 47.4  41 
 EDSO BN  S        6 249.836                                   -0.61 2 32.6   5 
 EDES BE  S        6 250.547                                   -0.63 2 35.0  13 
 EDNW BN  S        6 250.718                                   -0.86 2 36.5   5 
 EDCR BN  S        6 251.985                                   -0.15 2 38.1  12 
 S32K BZ  P        6 257.320                                    0.10 9  111  42 
 S31K BZ  P        6 259.958                                   -0.76 2  138 350 
 U33K BZ  P        6 3 6.154                                   -0.11 8  180 111 
 BESE BZ  P        6 310.308                                   -0.24 2  213  15 
 CRAG BZ  P        6 311.016                                   -0.27 1  219 128 
 S32K BE  S        6 311.661                                    0.58 1  111  42 
 V35K BZ  P        6 322.086                                   -0.07 0  305 119 
 U33K BN  S        6 327.743                                    0.57 1  180 111 
 BESE BN  S        6 335.106                                    0.30 1  213  15 
 CRAG BN  S        6 336.051                                   -0.07 1  219 128 
 V35K BN  S        6 355.720                                    0.21 0  305 119 
                                                                                

