 2024  618 13 3 39.7 LQ 60.124-140.917  8.5   AK 29 1.0 2.6                    1
 2024  618 13 3 39.709  60.12430 -140.91740    8.500  0.980                    H
 GAP=                      0.3     0.2  0.1  4.4013e-03                        E
 Action:ARG 26-01-05 11:50 OP:OBSP STATUS:               ID:20240618130339     I
 STAT SP IPHASW D HRMM SECON CODA AMPLIT PERI AZIMU VELO AIN AR TRES W  DIS CAZ7
 SAMH BZ  P       13 341.681                                   -0.1010 7.45  85 
 CHX  BZ  P       13 342.597                                    0.15 3 13.0 238 
 SAMH BN  S       13 343.791                                    0.40 1 7.45  85 
 CHX  BE  S       13 345.480                                    0.89 1 13.0 238 
 RKAV BZ  P    A  13 345.808                                    0.61 2 30.7 309 
 PIN  BZ  P    A  13 346.588                                    0.41 2 37.0  94 
 MESA BZ  P    A  13 350.708                                    1.10 2 57.5 276 
 PIN  BE  S       13 352.581                                    1.35 3 37.0  94 
 LOGN BZ  P    A  13 353.028                                   -0.00 2 77.9 356 
 PNL  BZ  P    A  13 355.108                                   -1.39 2 98.6 120 
 BARN BZ  P    A  13 358.148                                   -0.56 2  111 338 
 KIAG BZ  P    A  13 359.388                                   -0.54 2  118 318 
 MESA BN  S       13 359.812                                    2.49 1 57.5 276 
 TGL  BZ  P    A  13 4 0.488                                   -0.51 2  126 304 
 BAL  BZ  P    A  13 4 0.548                                   -0.70 2  127 323 
 BGLC BZ  P       13 4 1.683                                    0.14 3  131 270 
 CRQ  BZ  P       13 4 2.285                                   -0.37 4  138 301 
 PTPK BZ  P    A  13 4 3.068                                   -0.58 2  145 325 
 YUK8 HZ  P       13 4 3.083                                   -0.38 3  143  25 
 LOGN BN  S       13 4 3.562                                    0.14 1 77.9 356 
 YUK7 HZ  P       13 4 5.565                                   -0.01 3  159  72 
 SUCK BZ  P       13 4 5.974                                    0.65 2  158 269 
 PNL  BN  S       13 4 6.277                                   -3.33 1 98.6 120 
 YUK6 HZ  P       13 4 7.008                                    0.41 3  166  55 
 BRWY HZ  P       13 4 8.028                                    0.84 4  172  35 
 MCAR BZ  P       13 4 8.081                                   -0.23 2  180 321 
 VRDI BZ  P    A  13 4 8.448                                   -0.54 2  184 312 
 YUK3 HZ  P       13 4 9.670                                    0.59 2  185   7 
 YUK4 HZ  P    A  13 411.460                                    1.15 2  194  40 
 HYT  HZ  P    A  13 411.490                                    0.15 2  202  65 
 RAG  BZ  P       13 411.784                                   -0.42 2  209 279 
 GLB  BZ  P       13 412.416                                   -0.53 2  214 314 
 BARN BN  S       13 413.212                                   -0.33 1  111 338 
 BMR  BZ  P       13 413.733                                   -0.23 2  222 296 
 KIAG BN  S       13 414.364                                   -1.33 1  118 318 
 BAL  BE  S       13 416.736                                   -1.35 1  127 323 
 PTPK BN  S       13 421.566                                   -0.80 3  145 325 
 YUK8 HE  S       13 421.886                                   -0.15 1  143  25 
 WACK BZ  P       13 422.230                                    1.21 1  276 319 
 KLU  BZ  P       13 425.617                                    0.38 1  311 301 
 SUCK BE  S       13 427.368                                    2.01 1  158 269 
 YUK3 HN  S       13 433.153                                    1.11 1  185   7 
                                                                                

 2024 1125 1519 53.1 LQ 61.013-139.664  8.4   AK 26 1.2 2.2                    1
 2024 1125 1519 53.198  61.01280 -139.66440    8.400  1.160                    H
 GAP=                      0.7     0.8  0.2 -2.5455e-02                        E
 Action:ARG 26-01-05 11:50 OP:OBSP STATUS:               ID:20241125151953     I
 STAT SP IPHASW D HRMM SECON CODA AMPLIT PERI AZIMU VELO AIN AR TRES W  DIS CAZ7
 LOGN BZ  P    A  1520 6.228                                    0.1410 75.4 254 
 BARN BZ  P    A  152010.488                                   -1.0410  107 273 
 RKAV BZ  P    A  152014.168                                    0.35 9  121 229 
 LOGN BN  S       152014.767                                   -1.39 3 75.4 254 
 BAL  BZ  P    A  152016.468                                   -0.52 9  144 272 
 KIAG BZ  P    A  152016.748                                   -0.47 9  145 267 
 PTPK BZ  P       152017.949                                   -0.10 9  151 278 
 MESA BZ  P       152019.395                                    0.86 9  155 234 
 TGL  BZ  P       152021.141                                    0.22 3  173 261 
 MCAR BZ  P       152023.011                                    0.69 8  184 284 
 BARN BE  S       152023.247                                   -2.59 4  107 273 
 CRQ  BZ  P       152023.724                                    0.88 4  187 262 
 KHIT BZ  P       152026.152                                    1.00 8  205 253 
 VRDI BZ  P    A  152026.208                                    0.99 8  204 278 
 GRIN BZ  P       152026.657                                    0.17 3  215 249 
 GLB  BZ  P       152027.914                                   -0.17 4  227 283 
 RKAV BE  S       152028.304                                   -1.61 4  121 229 
 M26K BZ  P       152029.623                                    0.68 1  233 312 
 SUCK BZ  P       152030.971                                    0.27 1  248 246 
 BAL  BE  S       152032.630                                   -2.96 4  144 272 
 BMR  BZ  P       152033.859                                    0.79 1  266 271 
 KIAG BE  S       152033.866                                   -2.13 3  145 267 
 WAZA BZ  P       152033.868                                    0.73 6  265 298 
 WACK BZ  P       152034.186                                    0.49 1  270 295 
 PTPK BN  S       152034.834                                   -2.64 3  151 278 
 N25K BZ  P       152034.899                                    1.17 6  271 286 
 GOAT BZ  P       152035.367                                    0.72 4  278 262 
 RAG  BZ  P       152035.561                                    0.60 1  281 257 
 L26K BZ  P       152037.189                                    0.54 1  294 320 
 MESA BN  S       152038.768                                    0.42 2  155 234 
 TGL  BE  S       152040.435                                   -2.17 3  173 261 
 KLU  BZ  P       152043.155                                    0.91 4  338 281 
 MCAR BN  S       152043.970                                   -1.14 3  184 284 
 CRQ  BE  S       152044.110                                   -1.91 4  187 262 
 S31K BZ  P       152048.477                                   -0.22 1  390 148 
 VRDI BN  S       152049.274                                   -0.99 2  204 278 
 SCRK BZ  P       152049.545                                   -0.14 1  397 327 
 KHIT BN  S       152051.649                                    1.51 3  205 253 
 GRIN BN  S       152052.384                                   -0.14 3  215 249 
 GLB  BN  S       152055.162                                   -0.20 2  227 283 
 M26K BN  S       152057.196                                    0.30 1  233 312 
 BMR  BN  S       1521 2.988                                   -1.26 2  266 271 
 WAZA BN  S       1521 3.895                                   -0.49 1  265 298 
 WACK BE  S       1521 4.696                                   -0.67 1  270 295 
 RAG  BN  S       1521 7.156                                   -0.47 1  281 257 
 N25K BN  S       1521 7.322                                    1.89 2  271 286 
 KLU  BN  S       152122.475                                    1.86 1  338 281 
                                                                                

 2024  820 1750  8.5 LQ 59.029-134.564  2.0   AK 25 0.6 3.3                    1
 2024  820 1750  8.569  59.02940 -134.56440    2.000  0.620                    H
 GAP=                      0.2     0.6  0.2 -1.0612e-03                        E
 Action:ARG 26-01-05 11:50 OP:OBSP STATUS:               ID:20240820175008     I
 STAT SP IPHASW D HRMM SECON CODA AMPLIT PERI AZIMU VELO AIN AR TRES W  DIS CAZ7
 BESE BZ  P       175017.990                                    0.46 6 52.8 198 
 SKAG BZ  P       175019.489                                   -0.05 2 64.7 318 
 ATLI BZ  P       175022.210                                    0.28 6 78.8  37 
 R32K BZ  P    A  175022.760                                   -0.04 6 84.0 178 
 BESE BE  S       175024.471                                   -0.05 1 52.8 198 
 PLBC HZ  P    A  175026.980                                   -0.72 3  112 295 
 SKAG BN  S       175027.416                                   -0.68 1 64.7 318 
 ATLI BE  S       175031.332                                   -1.03 1 78.8  37 
 R32K BE  S       175032.628                                   -1.28 3 84.0 178 
 S31K BZ  P    A  175034.020                                   -0.05 5  153 219 
 S32K BZ  P       175036.855                                    0.04 5  173 180 
 WHY  HZ  P       175038.149                                    0.04 5  182 354 
 SIT  BZ  P       175043.368                                   -0.24 4  223 191 
 EDCR BZ  P       175043.965                                   -0.23 3  227 197 
 EDES BZ  P       175044.557                                   -0.0210  230 197 
 EDSO BZ  P       175044.578                                   -0.39 6  233 198 
 HYT  HZ  P       175048.558                                    0.34 4  258 321 
 PNL  BZ  P       175051.772                                    0.52 3  283 286 
 S31K BN  S       175052.142                                   -1.86 3  153 219 
 S32K BN  S       175057.567                                   -1.32 3  173 180 
 PIN  BZ  P       175058.997                                    0.32 2  341 292 
 WHY  HE  S       1751 0.432                                   -0.76 3  182 354 
 SAMH BZ  P       1751 2.855                                    0.46 4  370 291 
 YUK8 HZ  P       1751 3.649                                   -0.26 4  381 313 
 CRAG BZ  P       1751 6.015                                   -0.63 2  405 167 
 LOGN BZ  P       1751 7.488                                    0.01 3  410 301 
 MESA BZ  P       1751 9.964                                   -0.58 3  434 290 
 SIT  BE  S       175110.491                                   -0.52 1  223 191 
 EDCR BN  S       175112.399                                    0.34 6  227 197 
 EDES BE  S       175113.885                                    1.14 6  230 197 
 ISLE BZ  P       175114.946                                    0.17 4  468 295 
 WAX  BZ  P       175117.325                                   -0.17 1  490 292 
 PTPK BZ  P       175118.864                                    0.16 1  498 302 
 KHIT BZ  P       175119.735                                   -0.42 1  511 291 
 CRQ  BZ  P       175119.738                                   -0.62 1  512 295 
                                                                                

 2024 1025  649 27.2 LQ 55.514-135.151 19.0   AK 12 0.8 2.8                    1
 2024 1025  649 27.268  55.51370 -135.15080   19.000  0.800                    H
 GAP=                      1.7     1.4  1.5  1.9748e+00                        E
 Action:ARG 26-01-05 11:50 OP:OBSP STATUS:               ID:20241025064927     I
 STAT SP IPHASW D HRMM SECON CODA AMPLIT PERI AZIMU VELO AIN AR TRES W  DIS CAZ7
 CRAG BZ  P        64946.154                                   -0.25 5  127  91 
 U33K BZ  P        64948.460                                    0.0510  143  61 
 SIT  BZ  P        64952.037                                   -0.08 4  171 356 
 EDSO BZ  P        64952.300                                    0.02 1  172 347 
 EDES BZ  P        64952.421                                    0.05 1  173 348 
 EDCR BZ  P        64952.709                                   -0.10 2  176 349 
 S32K BZ  P        64958.451                                    0.12 1  220   8 
 V35K BZ  P        64958.879                                    0.06 3  224  93 
 CRAG BN  S        650 1.486                                    0.13 2  127  91 
 U33K BN  S        650 4.544                                   -0.39 2  143  61 
 S31K BZ  P        650 5.672                                   -0.23 1  280 346 
 R32K BZ  P        650 9.649                                   -0.01 1  309   6 
 SIT  BE  S        650 9.742                                   -1.80 1  171 356 
 EDSO BN  S        65011.904                                    0.07 2  172 347 
 EDES BN  S        65012.903                                    0.91 1  173 348 
 EDCR BE  S        65013.365                                    0.60 1  176 349 
 S32K BE  S    A   65022.400                                   -0.22 1  220   8 
 V35K BN  S        65024.240                                    0.75 1  224  93 
 PIN  BZ  P        65045.816                                    1.24 0  592 331 
 LOGN BZ  P        65057.996                                    2.43 0  682 332 
                                                                                

