 2024  221 2053 35.7 LQ 61.373-140.006  1.2   ak 62 0.8                        1
 2024  221 2053 35.757  61.37250 -140.00570    1.200  0.800                    H
 Action:ARG 26-01-05 11:50 OP:OBSP STATUS:               ID:20240221205335     I
 STAT SP IPHASW D HRMM SECON CODA AMPLIT PERI AZIMU VELO AIN AR TRES W  DIS CAZ7
 YUK8 HZ  Pg      205339.420                                    0.8436 16.1 129 
 BRWY HZ  Pg      205344.730                                    0.2324 51.5  90 
 YUK3 HZ  Pg      205344.840                                    0.4124 51.0 331 
 YUK4 HZ  Pg      205349.360                                    0.3319 77.8  84 
 LOGN BZ  Pg      205349.390                                   -0.4018 82.2 221 
 YUK3 HE  Sg      205350.930                                    0.5012 51.0 331 
 BRWY HE  Sg      205351.110                                    0.5712 51.5  90 
 BARN BZ  Pg      205351.510                                   -0.7116 96.4 249 
 YUK6 HZ  Pg      205352.390                                   -0.5316  100 118 
 YUK5 HZ  Pg      205355.250                                   -0.6914  118 102 
 BVCY HZ  Pg      205356.580                                   -0.4614  124 338 
 YUK7 HZ  Pn      205358.630                                   -1.1112  137 132 
 YUK4 HN  Sg      205358.670                                    0.5411 77.8  84 
 RKAV BZ  Pn      205358.970                                   -1.0912  140 212 
 LOGN BE  Sg      205359.440                                    0.0411 82.2 221 
 HYT  HZ  Pn      205359.710                                   -1.1612  147 113 
 SAMH BZ  IAML    205359.910       417.5 0.96                  -0.6712  145 197 
 M27K BZ  Pn      2054 0.080                                   -0.8312  147 318 
 PIN  BZ  Pg      2054 0.160                                   -0.1612  143 185 
 MCAR BZ  IAML    2054 2.380      1104.2 0.72                  -0.1612  162 271 
 TGL  BZ  IAML    2054 2.770       436.1 0.70                  -0.6212  168 246 
 BARN BE  IAML    2054 3.610      1170.6 0.42                   0.1310 96.4 249 
 VRDI BZ  Pn      2054 5.710                                   -0.0012  186 266 
 YUK6 HE  Sg      2054 5.860                                    1.2110  100 118 
 PNL  BZ  Pn      2054 6.490                                    0.0612  193 170 
 GLB  BZ  Pn      2054 8.390                                    0.5912  204 273 
 YUK5 HN  Sg      2054 9.480                                   -0.2410  118 102 
 BVCY HE  Sg      205412.610                                    1.04 0  124 338 
 BAL  BE  Sn      205414.300                                   -1.21 0  132 254 
 WACK BZ  Pn      205414.570                                    2.23 0  239 288 
 KIAG BE  Sg      205414.870                                   -0.37 0  137 249 
 MENT BZ  IAML    205415.230       187.5 0.40                   0.4311  261 313 
 BMR  BZ  Pn      205415.480                                    1.7311  252 261 
 YUK7 HE  Sn      205415.780                                   -1.16 0  137 132 
 SUCK BZ  Pn      205415.860                                    2.12 0  252 236 
 RKAV BN  Sn      205415.940                                   -1.58 0  140 212 
 PIN  BE  IAML    205417.280      1061.2 0.42                   0.22 9  143 185 
 HYT  HN  IAML    205417.490       275.1 0.45                  -0.79 9  147 113 
 WHY  HZ  Pn      205418.020                                   -0.1911  288 103 
 M27K BE  IAML    205418.190       489.9 0.38                  -0.12 9  147 318 
 DAWY HZ  Pn      205420.360                                    0.5310  301   5 
 PLBC HZ  Pn      205420.520                                    1.80 0  293 135 
 DIV  BZ  Pn      205421.770                                    0.6810  311 267 
 DOT  BZ  Pn      205423.460                                    0.2510  329 322 
 EYAK BZ  Pn      205423.970                                    1.3010  325 256 
 KLU  BZ  Pn      205424.060                                    2.32 0  316 274 
 SKAG BZ  Pn      205424.100                                    0.30 0  334 127 
 PAX  BZ  Pn      205424.490                                    0.34 0  336 304 
 SCRK BZ  Pn      205426.860                                    0.36 0  355 326 
 RIDG BZ  Pn      205427.540                                    0.11 0  363 318 
 PNL  BN  Sn      205428.980                                    0.00 7  193 170 
 FID  BZ  Pn      205429.050                                    1.53 0  364 261 
 HIN  BZ  Pn      205429.780                                    1.51 0  370 255 
 GLI  BZ  Pn      205432.000                                    1.69 0  386 264 
 K24K BZ  Pn      205433.430                                    1.21 0  402 314 
 SAW  BZ  Pn      205438.270                                    0.68 0  445 279 
 BAE  BZ  Pn      205438.850                                    2.29 0  437 270 
 PWL  BZ  Pn      205438.910                                    0.37 0  453 266 
 WACK BE  Sn      205440.730                                    1.19 0  239 288 
 HDA  BZ  Pn      205441.710                                   -1.25 0  489 316 
 GHO  BZ  Pn      205443.530                                    2.06 0  476 279 
 I27K BZ  Pn      205444.030                                    2.34 0  478 351 
 PMR  BZ  Pn      205445.330                                    2.63 0  487 276 
 RND  BZ  Pn      205447.550                                    1.81 0  511 300 
 CCB  BZ  Pn      205448.710                                   -0.21 0  537 316 
 MCK  BZ  Pn      205449.090                                    1.13 0  529 303 
 PPD  BZ  Pn      205449.960                                    0.86 0  538 331 
 PLBC HE  Sn      205452.540                                    1.49 0  293 135 
 L22K BZ  Pn      205456.350                                    2.18 0  579 287 
 H24K BZ  Pn      2055 1.530                                    0.86 0  632 325 
 FYU  BZ  Pn      2055 1.860                                    1.19 0  633 338 
 BPAW BZ  Pn      2055 3.460                                    2.09 0  638 303 
 G24K BZ  Pn      2055 9.350                                    0.78 0  697 331 
 E27K BZ  Pn      205518.130                                    1.27 0  764 355 
 E25K BZ  Pn      205522.580                                    1.57 0  797 343 
 INK  HZ  Pn      205526.410                                    1.30 0  831  18 
 E24K BZ  Pn      205528.980                                    1.64 0  849 335 
 J19K BZ  Pn      205529.130                                    1.66 0  850 296 
                                                                                

 2016 1116 1425 35.1 LQ 59.613-137.648  1.5   us114 0.6 4.9L us 4.8b us 4.8L ak1
 2016 1116 1425 35.1 LQ                       us        4.6 pgc 4.5  us        1
 2016 1116 1425 35.140  59.61310 -137.64810    1.520  0.590                    H
 GAP=      pgc  1.20       4.6     3.3  4.2 -1.4904e+00                        E
 2016 1116 1425 33.8 LQ 59.614-137.607 15.2   ak114 0.7                        1
 2016 1116 1425 33.870  59.61390 -137.60680   15.200  0.710                    H
 2016 1116 1425 35.7 LQ 59.636-137.628 10.0   us114 0.6                        1
 2016 1116 1425 35.740  59.63640 -137.62830   10.000  0.640                    H
 2016 1116 1425 36.5 LQ 59.610-137.650  6.0     114 0.0                        1
 2016 1116 1425 36.500  59.61000 -137.65000    6.000  0.000                    H
 2016 1116 1425 35.5 LQ 59.632-137.619 12.0     114 0.0                        1
 2016 1116 1425 35.500  59.63200 -137.61860   12.000  0.000                    H
 Action:ARG 26-01-05 11:50 OP:OBSP STATUS:               ID:20161116142535     I
 STAT SP IPHASW D HRMM SECON CODA AMPLIT PERI AZIMU VELO AIN AR TRES W  DIS CAZ7
 PNL  BZ  Pg      142551.430                              89   -0.8016 99.3 274 
 BCP  BZ  IAML    142553.990     51392.3 0.30             89   -1.5014  118 289 
 YKU2 BZ  IAML    142554.840      12.2e4 0.60             89   -0.1015  115 265 
 SKAG BZ  IAML    142556.270      8377.5 1.10             89   -1.7013  132  96 
 HYT  HZ  IAML    142556.380     72696.7 0.70             89   -2.1013  135   3 
 PIN  BZ  Pn      142559.990                              45   -1.8012  155 291 
 PNL  BE  Sg      1426 2.560                              89   -1.3010 99.3 274 
 SAMH BZ  Pn      1426 5.070                              45   -0.3012  185 289 
 WHY  BZ  IAML    1426 5.430      5327.1 0.90             45   -1.0012  193  51 
 BESE BZ  Pn      1426 5.540                              45   -1.4012  197 124 
 BCP  BE  Sg      1426 7.900                              89   -1.4010  118 289 
 TABL BZ  IAML    1426 8.260     27959.8 0.66             45   -1.1012  215 296 
 YKU2 BE  Sg      142610.300                              89    1.9010  115 265 
 JIS  BZ  IAML    142610.600      4155.1 0.80             45   -1.5011  240 127 
 YAH  BZ  IAML    142612.160     10969.9 1.34             45   -0.6011  243 291 
 MESA BZ  IAML    142612.720     11472.7 0.92             45   -0.7011  249 286 
 HYT  HN  Sg      142612.960                              89   -1.30 9  135   3 
 BARN BZ  IAML    142614.680      9225.4 0.64             45   -1.8011  274 307 
 BAGL BZ  Pn      142615.110                              45   -0.4011  266 293 
 CYK  BZ  Pn      142616.160                              45   -0.4011  276 282 
 BARK BZ  Pn      142617.290                              45   -0.4011  284 290 
 ISLE BZ  Pn      142617.320                              45   -0.3011  283 294 
 KIAG BZ  Pn      142618.610                              45   -1.0011  299 301 
 SSP  BZ  IAML    142618.870      4968.5 0.88             45   -0.4011  297 284 
 BAL  BZ  Pn      142619.190                              45   -1.0011  304 303 
 WAX  BZ  IAML    142619.310     11674.7 0.82             45   -0.9010  305 290 
 PIN  BE  Sg      142620.090                              89    0.10 9  155 291 
 BGLC BZ  Pn      142622.120                              45    0.0010  321 282 
 KHIT BZ  Pn      142622.210                              45   -0.6010  326 288 
 GRIN BZ  Pn      142622.400                              45   -0.4010  325 285 
 BERG BZ  IAML    142624.920     11698.8 0.68             45   -0.7010  349 287 
 MCAR BZ  IAML    142625.720      6183.8 0.72             45   -0.7010  355 306 
 SUCK BZ  IAML    142625.770      2811.7 0.76             45    0.3010  347 281 
 NICH BZ  Pn      142626.510                              45   -0.5010  360 283 
 VRDI BZ  IAML    142627.770      1053.0 1.26             45   -0.2010  367 301 
 SAMH BN  Sn      142627.860                              50    0.50 8  185 289 
 HMT  BZ  IAML    142628.710     10378.0 0.72             45   -0.5010  378 285 
 KAI  BZ  IAML    142629.260      2716.5 1.02             45   -0.4010  382 278 
 M27K BZ  Pn      142629.260                              45   -0.6010  382 325 
 BESE BE  Sn      142629.780                              50   -0.30 7  197 124 
 GLB  BZ  IAML    142630.740       942.1 1.06             45   -0.6010  395 303 
 GOAT BZ  Pn      142632.330                              45   -0.7010  408 288 
 RAG  BZ  IAML    142633.060      5044.2 0.74             45    0.9010  401 285 
 TABL BE  Sn      142634.100                              50   -0.30 7  215 296 
 M26K BZ  Pn      142634.930                              45   -0.1010  424 319 
 SGA  BZ  Pn      142635.730                              45   -0.30 9  433 286 
 N25K BZ  Pn      142636.500                              45   -0.50 9  440 303 
 DLBC BZ  Pn      142637.650                              45   -1.30 9  457 103 
 EYAK BZ  Pn      142638.820                              45   -0.80 9  463 286 
 JIS  BE  Sn      142639.040                              50   -0.30 6  240 127 
 DIV  BZ  Pn      142641.270                              45   -0.50 9  479 294 
 MESA BN  Sn      142641.480                              50   -0.30 6  249 286 
 L26K BZ  Pn      142642.310                              45   -0.40 9  487 323 
 MENT BZ  Pn      142642.860                              45   -0.60 9  493 321 
 Q23K BZ  IAML    142643.520       610.8 1.95             45    0.30 9  492 271 
 KLU  BZ  IAML    142643.660      1199.8 0.72             45   -0.60 9  500 298 
 HIN  BZ  IAML    142643.790      1144.2 1.14             45   -0.70 9  502 283 
 DAWY BZ  Pn      142644.730                              45   -0.20 9  505 350 
 CYK  BN  Sn      142647.960                              50    0.50 6  276 282 
 CRAG BZ  IAML    142648.310       659.2 1.26             45   -0.20 9  535 147 
 K27K BZ  Pn      142649.520                              45   -0.30 9  545 336 
 DOT  BZ  Pn      142651.200                              45   -1.00 8  564 325 
 PAX  BZ  Pn      142651.430                              45   -0.50 8  562 315 
 SSP  BN  Sn      142653.130                              50    0.90 6  297 284 
 SCM  BZ  Pn      142653.950                              45   -0.60 8  583 299 
 SCRK BZ  Pn      142654.240                              45   -1.20 8  590 328 
 RIDG BZ  Pn      142655.480                              45   -0.80 8  597 323 
 PWL  BZ  Pn      142657.160                              45   -0.40 8  608 287 
 SAW  BZ  Pn      142659.800                              45   -0.80 8  632 297 
 KNK  BZ  Pn      142659.910                              45    0.00 8  626 293 
 J26L BZ  Pn      1427 0.030                              45    0.10 8  626 332 
 WAT6 BZ  Pn      1427 0.390                              45   -0.80 8  636 305 
 DHY  BZ  Pn      1427 2.090                              45   -0.50 8  647 310 
 SWD  BZ  Pn      1427 3.170                              45   -1.20 8  663 279 
 GHO  BZ  Pn      1427 3.640                              45   -0.50 8  661 296 
 PMR  BZ  Pn      1427 4.800                              45    0.10 8  666 294 
 WAT1 HZ  Pn      1427 6.480                              45   -0.70 8  686 306 
 J25K BZ  Pn      1427 6.710                              45   -0.70 8  687 327 
 RC01 BZ  Pn      1427 6.940                              45   -0.40 8  687 289 
 WAT7 BZ  Pn      1427 8.150                              45   -0.80 8  700 305 
 SLK  BZ  Pn      1427 8.560                              45   -1.20 8  707 283 
 I26K BZ  Pn      1427 8.820                              45    0.50 8  695 338 
 HDA  BZ  Pn      1427 9.770                              45   -1.90 8  722 321 
 RND  BZ  Pn      142712.700                              45    0.00 8  730 310 
 BRSE BZ  Pn      142713.100                              45   -0.40 8  737 276 
 BRLK BZ  Pn      142713.900                              45   -0.70 8  746 276 
 SSN  BZ  Pn      142714.380                              45   -0.50 8  747 291 
 CUT  BZ  Pn      142715.770                              45    0.80 8  749 299 
 MCK  BZ  Pn      142715.980                              45    0.60 8  753 312 
 CCB  BZ  Pn      142716.930                              45   -0.70 9  771 321 
 CNP  BZ  Pn      142717.180                              45   -0.10 9  767 275 
 PPD  BZ  Pn      142717.610                              45   -0.30 9  772 331 
 WRH  BZ  Pn      142717.720                              45    0.40 9  768 319 
 HOM  BZ  Pn      142719.870                              45    0.00 9  789 276 
 BWN  BZ  Pn      142720.500                              45   -0.10 9  795 314 
 TRF  BZ  Pn      142721.180                              45    0.30 9  796 307 
 SKN  BZ  Pn      142721.190                              45    0.00 9  799 295 
 MDM  BZ  Pn      142721.440                              45   -1.00 9  809 321 
 NEA2 BZ  Pn      142722.960                              45    0.10 9  813 317 
 KTH  BZ  Pn      142725.000                              45    0.10 9  829 307 
 RSO  EZ  Pn      142726.190                              45   -0.90 9  846 282 
 FYU  BZ  Pn      142728.660                              45   -0.40 9  864 337 
 PPLA BZ  Pn      142728.840                              45    0.00 9  860 301 
 ILSW BZ  Pn      142729.350                              45   -0.60 9  870 279 
 H24K BZ  Pn      142729.390                              45   -0.20 9  868 327 
 CAST BZ  Pn      142730.260                              45   -0.30 9  876 305 
 P19K BZ  Pn      142730.950                              45    0.10 9  878 277 
 MLY  BZ  Pn      142733.750                              45   -0.60 9  906 317 
 Q19K BZ  Pn      142735.250                              45    0.00 9  914 272 
 H23K BZ  Pn      142735.540                              45   -0.50 9  920 323 
 O19K BZ  Pn      142736.680                              45   -1.00 9  934 281 
 OHAK BZ  Pn      142738.170                              45   -1.50 9  950 260 
 N19K BZ  Pn      142738.320                              45   -0.40 9  941 285 
 M19K BZ  Pn      142739.030                              45   -0.20 9  946 292 
 K20K BZ  Pn      142740.760                              45   -1.00 9  967 302 
 L19K BZ  Pn      142742.000                              45   -0.7010  974 294 
 INK  BZ  Pn      142743.280                              45   -1.4010  990   9 
 O18K BZ  Pn      142743.580                              45   -0.6010  986 279 
 J20K BZ  Pn      142745.020                              45   -1.1010 1002 307 
 N18K BZ  Pn      142747.370                              45   -0.7010 1018 284 
 H21K BZ  Pn      142749.680                              45    0.7010 1025 317 
 TTA  BZ  Pn      142750.460                              45   -1.5010 1049 298 
 COLD BZ  Pn      142752.040                              45   -0.3010 1052 329 
 TOLK BZ  Pn      1428 6.840                              45    1.40 9 1159 335 
 CHN  BZ  Pn      142837.220                              45   -0.40 7 1421 257 
 UNV  BZ  P       142932.060                              35   -0.90 6 1863 262 
                                                                                

 2024  816 1857 28.1 LQ 60.940-138.282  8.8   us 34 0.9 2.5L us 2.3L ak        1
 2024  816 1857 28.119  60.93990 -138.28180    8.779  0.940                    H
 GAP=106    us  1.91       3.9     2.8  2.6  5.0783e+00                        E
