 2024  7 1  2 7 42.5 LQ 66.084-148.783 14.6   AK 65 0.8 3.1                    1
 2024  7 1  2 7 42.559  66.08360 -148.78310   14.600  0.790                    H
 GAP=                      0.3     0.4  0.3  2.4610e-02                        E
 Action:ARG 26-01-05 12:06 OP:OBSP STATUS:               ID:20240701020742     I
 STAT SP IPHASW D HRMM SECON CODA AMPLIT PERI AZIMU VELO AIN AR TRES W  DIS CAZ7
 H23K BZ  P    A   2 750.760                                    0.1710 44.8 230 
 H24K BZ  P    A   2 751.420                                    0.1010 49.3 123 
 H23K BN  S    A   2 756.160                                   -0.69 5 44.8 230 
 H24K BN  S    A   2 757.650                                   -0.50 5 49.3 123 
 G24K BZ  P    A   2 757.860                                   -0.1610 90.0  39 
 G23K BZ  P    A   2 757.940                                    0.0810 89.0 322 
 PS07 BZ  P    A   2 758.608                                    0.7610 89.0 164 
 I23K BZ  P    A   2 8 1.460                                    0.8810  107 194 
 H22K BZ  P    A   2 8 2.620                                    0.3910  119 260 
 PS05 BZ  P    A   2 8 2.768                                    0.9410  116 315 
 MDM  BZ  P    A   2 8 3.928                                    0.5810  127 168 
 COLD BZ  P    A   2 8 6.008                                    0.7410  141 334 
 MLY  BZ  P    A   2 8 6.368                                    0.2510  147 218 
 PPD  BZ  P    A   2 8 8.088                                    0.0810  161 111 
 G23K BE  S        2 8 8.147                                   -1.65 5 89.0 322 
 NEA2 BZ  P    A   2 8 8.528                                   -0.0510  166 184 
 CCB  BZ  P    A   2 8 8.660                                    0.1210  166 163 
 PS07 BN  S        2 8 8.717                                   -1.07 5 89.0 164 
 G24K BE  S        2 8 9.005                                   -1.08 5 90.0  39 
 I21K BZ  P    A   2 8 9.880                                   -0.2310  177 237 
 WRH  BZ  P    A   2 810.688                                   -0.0110  182 169 
 H21K BZ  P    A   2 811.200                                   -0.43 9  188 257 
 PS08 BZ  P    A   2 812.368                                    0.05 9  194 151 
 I23K BN  S    A   2 813.520                                   -1.15 5  107 194 
 HDA  BZ  P        2 813.608                                   -0.17 9  204 154 
 E24K BZ  P        2 815.969                                   -0.11 9  221   3 
 H22K BN  S        2 816.519                                   -1.09 1  119 260 
 PS05 BN  S        2 816.859                                   -0.04 5  116 315 
 BPAW BZ  P        2 818.140                                   -0.66 8  243 206 
 MDM  BE  S        2 818.405                                   -1.19 3  127 168 
 F21K BZ  P    A   2 818.580                                   -0.11 8  242 303 
 MCK  BZ  P        2 820.902                                   -0.19 8  261 181 
 E25K BZ  P    A   2 821.200                                   -0.42 8  265  30 
 E22K BZ  P    A   2 821.900                                    0.62 8  262 331 
 COLD BE  S        2 822.175                                   -0.84 3  141 334 
 H20K BZ  P    A   2 823.260                                   -0.86 7  285 259 
 K24K BZ  P    A   2 824.600                                   -0.13 7  290 149 
 J26L BZ  P    A   2 825.260                                   -0.69 7  299 123 
 TOLK BZ  P    A   2 825.500                                    1.26 7  286 353 
 RND  BZ  P        2 825.770                                    0.05 7  297 180 
 PPD  BE  S        2 826.466                                   -1.44 4  161 111 
 RIDG BZ  P        2 827.917                                   -0.57 6  319 142 
 J20K BZ  P    A   2 828.400                                   -1.09 6  328 232 
 F20K BZ  P    A   2 828.680                                   -0.38 6  325 292 
 CCB  BN  S        2 829.113                                    0.25 3  166 163 
 NEA2 BN  S        2 829.519                                    0.60 5  166 184 
 CAST BZ  P    A   2 829.548                                   -0.84 6  335 209 
 DHY  BZ  P    A   2 831.988                                    0.71 6  341 168 
 I21K BN  S    A   2 832.410                                    0.74 5  177 237 
 D22K BZ  P    A   2 833.280                                    0.71 6  352 333 
 G19K BZ  P    A   2 834.260                                   -0.99 5  373 274 
 WAT7 BZ  P    A   2 834.308                                    0.51 6  361 180 
 D25K BZ  P        2 835.993                                    0.65 5  374  14 
 PAX  BZ  P        2 836.044                                   -0.17 5  380 153 
 E27K BZ  P        2 836.070                                   -1.07 5  388  49 
 J19K BZ  P        2 836.381                                   -1.68 5  395 237 
 K27K BZ  P    A   2 836.440                                   -0.71 5  388 122 
 E19K BZ  P        2 838.137                                   -0.50 5  400 296 
 L22K BZ  P        2 839.535                                    0.02 4  406 194 
 MENT BZ  P        2 840.866                                   -0.95 2  425 142 
 C21K BZ  P    A   2 842.360                                    0.56 4  425 326 
 C23K BZ  P        2 842.400                                    0.79 4  424 350 
 HARP BZ  P        2 844.520                                    0.16 2  445 155 
 D20K BZ  P        2 844.593                                    0.44 1  443 314 
 C27K BZ  P        2 845.025                                    0.46 2  447  26 
 C26K BZ  P        2 845.429                                   -0.16 2  455  18 
 TTA  BZ  P        2 848.730                                   -1.57 2  492 227 
 M20K BZ  P        2 852.147                                   -0.79 2  512 206 
 L19K BZ  P        2 852.828                                   -1.47 2  523 216 
 H17K BZ  P        2 853.747                                   -1.02 2  527 261 
 E18K BZ  P        2 855.505                                   -0.63 1  538 291 
 B20K BZ  P        2 857.483                                   -0.97 1  557 325 
 BVCY HZ  P        2 857.563                                   -1.14 1  558 133 
 C19K BZ  P    A   2 859.020                                   -0.70 1  566 311 
 L18K BZ  P        2 859.214                                   -1.48 1  574 225 
 C18K BZ  P        2 9 2.614                                   -1.32 1  601 303 
 A22K BZ  P        2 9 2.996                                   -0.86 1  601 338 
 H16K BZ  P        2 9 7.637                                   -1.23 1  642 261 
 A19K BZ  P        2 913.207                                   -0.41 0  682 317 
                                                                                

 2024  628  813 13.2 LQ 65.773-135.435 11.7   AK 36 0.7 3.6                    1
 2024  628  813 13.246  65.77260 -135.43470   11.700  0.700                    H
 GAP=                      1.6     2.7  1.7  2.3517e+00                        E
 Action:ARG 26-01-05 12:06 OP:OBSP STATUS:               ID:20240628081313     I
 STAT SP IPHASW D HRMM SECON CODA AMPLIT PERI AZIMU VELO AIN AR TRES W  DIS CAZ7
 DAWY HZ  P        81353.036                                    0.34 9  266 226 
 I27K BZ  P    A   81355.720                                    0.82 9  283 269 
 I26K BZ  P        814 4.439                                    0.04 6  358 265 
 E27K BZ  P        814 6.432                                   -0.52 6  378 317 
 J26L BZ  P        814 9.944                                   -0.39 4  405 253 
 BVCY HZ  P    A   81416.320                                   -0.50 4  456 217 
 PPD  BZ  P    A   81417.288                                   -0.42 4  463 271 
 DAWY HN  S        81422.311                                   -1.25 4  266 226 
 MENT BZ  P        81422.651                                   -0.60 2  507 235 
 YUK3 HZ  P        81423.094                                   -0.38 3  508 211 
 YUK4 HZ  P        81423.265                                    0.05 3  506 199 
 E25K BZ  P        81423.799                                    0.02 2  511 305 
 YUK8 HZ  P        81427.600                                   -0.33 2  542 205 
 PS08 BZ  P        81427.678                                   -0.70 2  548 260 
 YUK6 HZ  P        81428.535                                   -1.06 1  556 196 
 C27K BZ  P        81428.866                                    0.05 1  551 324 
 HDA  BZ  P        81429.060                                   -0.70 1  559 259 
 WHY  HZ  P        81429.200                                   -1.92 1  569 176 
 HYT  HZ  P        81429.267                                   -0.64 1  559 191 
 INK  HE  S        81430.074                                    0.46 2  293  15 
 H24K BZ  P        81430.101                                   -0.58 1  566 276 
 PAX  BZ  P        81430.694                                   -0.96 1  573 241 
 CCB  BZ  P        81432.292                                   -1.14 1  589 263 
 MDM  BZ  P    A   81433.668                                   -0.98 1  598 267 
 WRH  BZ  P        81434.915                                   -0.84 1  608 262 
 I23K BZ  P        81439.370                                   -0.85 1  645 270 
 NEA2 BZ  P    A   81439.668                                   -0.93 1  648 264 
 DHY  BZ  P        81439.837                                   -0.56 1  645 247 
 PIN  BZ  P        81443.833                                   -0.18 1  676 203 
 ATLI BZ  P        81444.153                                   -1.87 1  692 171 
 MCK  BZ  P        81444.212                                    0.04 1  677 256 
 I26K BE  S        81444.574                                    0.17 2  358 265 
 TOLK BZ  P        81445.384                                    0.29 1  685 304 
 RND  BZ  P        81446.242                                    0.46 1  690 253 
 MLY  BZ  P    A   81447.368                                   -0.90 1  711 270 
 E27K BN  S        81449.607                                    0.64 3  378 317 
 BPAW BZ  P        81452.587                                   -0.74 1  753 262 
 J26L BN  S        81454.218                                   -0.77 2  405 253 
 H20K BZ  P        815 9.308                                   -0.34 0  889 276 
 J20K BZ  P        81510.017                                   -0.23 0  894 267 
                                                                                

 2024 1224 2316 20.8 LQ 65.707-155.044  6.2   AK 11 0.6 1.7                    1
 2024 1224 2316 20.837  65.70720 -155.04360    6.200  0.570                    H
 GAP=                      0.5     0.5  0.3 -4.5000e-02                        E
 Action:ARG 26-01-05 12:06 OP:OBSP STATUS:               ID:20241224231620     I
 STAT SP IPHASW D HRMM SECON CODA AMPLIT PERI AZIMU VELO AIN AR TRES W  DIS CAZ7
 H20K BZ  P       231625.326                                    0.1010 25.0 162 
 H20K BE  S       231628.693                                    0.04 3 25.0 162 
 G19K BZ  P       231638.348                                   -0.25 5  104 298 
 GCSA BZ  P       231643.701                                    0.01 3  136 219 
 I21K BZ  P       231646.475                                    0.56 1  153 111 
 F20K BZ  P       231646.546                                    0.77 5  152 348 
 H22K BZ  P       231648.095                                    0.09 3  168  81 
 F21K BZ  P       231650.250                                    0.38 4  182  21 
 G19K BN  S       231650.849                                   -1.61 2  104 298 
 E19K BZ  P       231654.847                                    0.25 2  217 334 
 F18K BZ  P       231656.385                                    0.18 5  229 297 
 H17K BZ  P       231657.657                                   -0.11 5  241 251 
 G23K BZ  P       231658.788                                   -0.23 3  251  61 
 GCSA BN  S       2317 0.688                                   -0.87 3  136 219 
 F20K BE  S       2317 4.628                                   -0.65 3  152 348 
 I21K BN  S       2317 4.750                                   -0.76 4  153 111 
 H22K BN  S       2317 9.939                                    0.69 2  168  81 
 F21K BE  S       231712.521                                   -0.04 4  182  21 
 H17K BN  S       231726.145                                   -0.50 1  241 251 
                                                                                

 2024 1120  2 1 57.3 LQ 65.921-150.604  6.4   AK 45 0.7 2.8                    1
 2024 1120  2 1 57.355  65.92130 -150.60370    6.400  0.730                    H
 GAP=                      0.1     0.2  0.1  3.3028e-03                        E
 Action:ARG 26-01-05 12:06 OP:OBSP STATUS:               ID:20241120020157     I
 STAT SP IPHASW D HRMM SECON CODA AMPLIT PERI AZIMU VELO AIN AR TRES W  DIS CAZ7
 H22K BZ  P    A   2 2 4.900                                    1.46 1 35.2 265 
 H22K BN  S        2 2 9.518                                    1.32 1 35.2 265 
 G23K BZ  P        2 214.280                                    1.36 0 91.5  16 
 PS05 BZ  P        2 215.441                                    1.23 1 99.2 358 
 I23K BZ  P    A   2 216.460                                    1.56 1  103 145 
 H21K BE  P        2 216.575                                    1.46 1  104 254 
 H24K BZ  P    A   2 219.200                                    0.76 1  124  93 
 PS07 BZ  P    A   2 219.848                                    1.03 1  126 121 
 COLD BZ  P    A   2 222.468                                    0.96 1  146   6 
 MDM  BZ  P        2 222.796                                    0.35 1  153 133 
 G23K BE  S        2 225.018                                   -0.0410 91.5  16 
 POKR BZ  P    A   2 225.340                                    0.45 1  171 120 
 PS05 BE  S        2 227.552                                    0.19 0 99.2 358 
 CCB  BZ  P        2 227.800                                    0.07 1  192 136 
 F21K BZ  P        2 227.977                                    0.19 1  192 319 
 I23K BN  S        2 228.472                                   -0.12 3  103 145 
 WRH  BZ  P    A   2 228.948                                    0.30 1  199 142 
 H20K BZ  P    A   2 229.200                                    0.24 1  201 258 
 H21K BE  S        2 229.730                                    0.75 0  104 254 
 PPD  BZ  P    A   2 233.088                                   -0.64 1  236  98 
 H24K BE  S        2 234.226                                   -0.67 1  124  93 
 PS07 BN  S        2 235.658                                    0.09 0  126 121 
 J20K BZ  P    A   2 235.720                                   -0.27 0  255 222 
 MCK  BZ  P        2 236.536                                    0.45 1  255 161 
 E22K BZ  P        2 236.848                                    1.28 1  251 348 
 TRF  BZ  P        2 238.684                                    0.03 1  275 176 
 J25K BZ  P    A   2 239.280                                   -0.34 0  283 118 
 CAST BZ  P        2 239.675                                   -0.36 4  286 194 
 COLD BE  S        2 240.553                                    0.17 1  146   6 
 G19K BZ  P        2 240.614                                   -0.24 1  293 277 
 MDM  BE  S        2 241.889                                   -0.17 0  153 133 
 E25K BZ  P        2 245.003                                   -0.20 0  327  39 
 POKR BE  S        2 246.424                                    0.01 1  171 120 
 D22K BZ  P        2 246.430                                   -0.39 0  340 345 
 E19K BZ  P        2 246.613                                    0.18 0  337 303 
 J26L BZ  P        2 249.388                                   -0.44 0  363 112 
 SCRK BZ  P        2 251.508                                   -0.23 0  378 121 
 CCB  BN  S        2 251.576                                    0.10 1  192 136 
 F21K BE  S        2 251.641                                    0.06 0  192 319 
 L22K BZ  P    A   2 252.640                                    1.11 0  377 181 
 I27K BZ  P        2 253.816                                   -2.00 0  411  90 
 F18K BZ  P        2 256.153                                    0.42 0  411 284 
 PAX  BZ  P    A   2 256.188                                    0.53 0  409 140 
 TTA  BZ  P    A   2 256.540                                   -0.57 0  421 220 
 H17K BZ  P    A   2 3 0.340                                    0.51 0  443 260 
 L19K BZ  P    A   2 3 1.580                                   -0.88 0  464 208 
 M20K BZ  P        2 3 2.528                                   -0.18 0  465 196 
 GHO  BZ  P        2 3 3.574                                    0.14 0  468 169 
 SAW  BZ  P        2 3 3.697                                    0.39 1  470 165 
 J17K BZ  P        2 3 5.490                                   -0.30 0  490 239 
 STLK BZ  P        2 3 6.768                                    0.31 0  495 187 
 C27K BZ  P        2 3 7.607                                    0.25 0  503  31 
 SPBL BZ  P        2 3 8.824                                    0.62 0  509 187 
 KNK  BZ  P        2 3 9.412                                    0.02 0  512 167 
 SPNN BZ  P        2 3 9.423                                    0.23 0  516 192 
 H16K BZ  P        2 313.456                                   -0.91 0  558 260 
 L17K BZ  P        2 313.936                                   -0.98 0  562 225 
                                                                                

