 2021  126  730 33.8 LQ 64.273-159.312  3.7   AK 53 0.7 2.5                    1
 2021  126  730 33.871  64.27320 -159.31190    3.700  0.660                    H
 GAP=                      0.1     0.2  0.1  5.3706e-03                        E
 Action:ARG 26-01-05 12:06 OP:OBSP STATUS:               ID:20210126073033     I
 STAT SP IPHASW D HRMM SECON CODA AMPLIT PERI AZIMU VELO AIN AR TRES W  DIS CAZ7
 H17K BZ  P        73048.409                                    1.10 1 79.2 339 
 J17K BZ  P        73050.609                                    0.0910 98.2 173 
 GCSA BZ  P    A   73055.108                                   -0.42 2  127  64 
 H17K BN  S        73057.479                                   -0.31 1 79.2 339 
 H16K BZ  P    A   73058.640                                    0.40 2  146 287 
 J17K BE  S        731 2.490                                   -1.02 0 98.2 173 
 J19K BZ  P        731 3.764                                    0.69 1  181  98 
 G19K BZ  P        731 9.880                                   -0.02 4  232  25 
 L17K BZ  P    A   73110.800                                   -0.47 2  243 167 
 H20K BZ  P        73111.428                                   -0.61 1  249  55 
 GCSA BN  S        73111.955                                   -0.47 2  127  64 
 J20K BZ  P    A   73112.220                                    0.11 2  249  90 
 F18K BZ  P        73113.612                                    0.35 0  259 356 
 L18K BZ  P        73113.953                                    0.13 1  263 148 
 K20K BZ  P        73115.473                                   -0.04 0  276 109 
 L16K BZ  P        73115.625                                   -0.93 2  285 181 
 ANM  BZ  P        73117.387                                   -0.14 0  292 279 
 F15K BZ  P        73117.875                                   -0.22 2  297 304 
 L20K BZ  P        73122.748                                   -0.32 2  336 123 
 H21K BZ  P        73123.403                                   -0.45 2  342  60 
 CHUM BZ  P        73123.644                                   -0.20 2  342  94 
 F20K BZ  P        73124.549                                   -0.15 0  349  26 
 I21K BZ  P        73124.724                                   -1.57 0  362  70 
 M16K BZ  P        73125.177                                   -1.12 0  361 176 
 E18K BZ  P        73125.352                                   -0.05 0  354 351 
 K13K BZ  P        73126.156                                   -1.64 1  373 228 
 J19K BE  S        73126.184                                    0.28 2  181  98 
 L14K BZ  P        73126.706                                   -0.34 1  368 209 
 CAST BZ  P        73126.790                                   -0.12 1  366 101 
 PPLA BZ  P        73128.749                                   -0.46 0  383 110 
 BPAW BZ  P        73130.523                                   -1.03 1  403  88 
 MLY  BZ  P        73131.365                                   -1.84 1  416  74 
 H22K BZ  P        73131.607                                   -1.14 1  412  60 
 M14K BZ  P        73132.433                                   -0.47 0  414 200 
 M20K BZ  P        73132.528                                    0.20 1  408 127 
 F21K BZ  P        73133.229                                   -0.70 0  421  36 
 TNA  BZ  P        73134.569                                   -0.33 1  430 293 
 N18K BZ  P        73135.443                                   -0.30 0  436 154 
 G19K BE  S        73137.363                                   -0.71 1  232  25 
 N15K BZ  P        73137.560                                   -0.93 1  458 185 
 TRF  BZ  P        73137.707                                   -0.01 0  451  97 
 N19K BZ  P        73137.825                                   -0.62 1  457 145 
 SPNN BZ  P        73139.107                                   -0.47 1  465 130 
 I23K BZ  P        73140.579                                   -0.90 0  482  73 
 NEA2 BZ  P        73141.967                                   -0.84 0  492  81 
 G23K BZ  P        73143.983                                   -0.62 0  506  53 
 MCK  BZ  P        73144.356                                   -0.54 0  508  92 
 D20K BZ  P        73144.894                                    0.10 1  507  12 
 RND  BZ  P        73146.289                                   -0.18 0  520  95 
 MDM  BZ  P        73146.844                                   -1.13 0  532  76 
 E21K BZ  P    A   73146.860                                    0.44 0  520  24 
 WRH  BZ  P        73147.906                                   -0.85 0  539  82 
 RDT  BZ  P        73148.790                                   -0.02 0  543 136 
 CCB  BZ  P        73149.144                                   -1.25 0  552  80 
 P16K BZ  P        73154.019                                   -0.70 0  586 172 
 D22K BZ  P        73155.525                                    0.46 0  589  26 
 G24K BZ  P        73156.103                                   -1.19 0  607  58 
 PAX  BZ  P        732 9.010                                    0.83 0  697  95 
                                                                                

 2024 1110 12 3 28.9 LQ 65.399-135.226 29.3   AK  6 1.0 2.1                    1
 2024 1110 12 3 28.915  65.39860 -135.22580   29.300  0.970                    H
 GAP=                      2.7     5.2  5.3  1.0664e+01                        E
 Action:ARG 26-01-05 12:06 OP:OBSP STATUS:               ID:20241110120328     I
 STAT SP IPHASW D HRMM SECON CODA AMPLIT PERI AZIMU VELO AIN AR TRES W  DIS CAZ7
 I27K BZ  P       12 411.803                                    1.39 8  295 277 
 J26L BZ  P       12 423.395                                   -0.89 7  404 259 
 E27K BN  P       12 423.492                                   -2.25 4  416 320 
 SCRK BZ  P       12 428.181                                   -1.26 3  445 253 
 PPD  BZ  P       12 433.681                                    0.42 3  475 276 
 J25K BZ  P       12 433.944                                   -0.35 3  483 264 
 I27K BN  S       12 443.806                                    0.93 5  295 277 
 J26L BN  S       12 5 7.561                                   -0.04 3  404 259 
 E27K BN  S       12 5 9.931                                   -0.28 6  416 320 
                                                                                

 2024 1114 1421 19.3 LQ 63.034-149.976 89.5   AK101 0.6 2.9                    1
 2024 1114 1421 19.358  63.03380 -149.97550   89.500  0.610                    H
 GAP=                      0.3     0.4  0.4 -2.2600e-02                        E
 Action:ARG 26-01-05 12:06 OP:OBSP STATUS:               ID:20241114142119     I
 STAT SP IPHASW D HRMM SECON CODA AMPLIT PERI AZIMU VELO AIN AR TRES W  DIS CAZ7
 TRF  BZ  P    A  142134.368                                    0.6210 48.9 341 
 L22K BZ  P    A  142135.200                                    0.0610 69.5 215 
 CUT  BZ  P    A  142135.280                                   -0.3910 71.4 191 
 MCK  BZ  P    A  142137.488                                    0.24 9 93.3  33 
 CAST BZ  P       142139.328                                    0.00 9  113 293 
 SKN  BZ  P       142142.099                                   -0.23 9  141 214 
 CHUM BZ  P       142143.417                                    0.25 9  149 310 
 GHO  BZ  P       142143.871                                    0.16 9  150 158 
 SAW  BZ  P       142144.618                                    0.15 9  160 147 
 PMR  BZ  P    A  142145.100                                    0.08 9  166 164 
 TRF  BE  S       142145.333                                    0.33 1 48.9 341 
 M23K BZ  P       142146.608                                   -0.09 8  180 138 
 L22K BE  S       142146.618                                   -0.85 1 69.5 215 
 WRH  BZ  P       142146.910                                   -0.29 8  184  29 
 SSN  BZ  P    A  142147.048                                    0.38 5  179 193 
 CUT  BE  S       142147.408                                   -1.01 1 71.4 191 
 SCM  BZ  P    A  142148.120                                    0.13 8  190 133 
 STLK BZ  P    A  142148.620                                    0.03 8  195 210 
 KNK  BZ  P    A  142148.728                                   -0.74 8  196 155 
 CCB  BZ  P    A  142149.660                                   -0.30 7  208  29 
 M20K BZ  P    A  142149.780                                   -0.09 8  206 233 
 SPBL BZ  P       142150.227                                    0.06 6  209 209 
 MCK  BE  S       142150.740                                   -0.49 4 93.3  33 
 SPCG BZ  P       142151.497                                   -0.09 7  220 209 
 K24K BZ  P       142151.856                                   -0.21 7  225  65 
 PS08 BZ  P       142152.095                                   -0.23 7  228  41 
 SPCP BZ  P       142152.389                                    0.07 7  226 210 
 MDM  BZ  P       142152.392                                   -0.23 7  230  20 
 BAT  BZ  P       142152.515                                   -0.14 7  230 155 
 BAE  BZ  P       142152.684                                   -0.17 7  232 154 
 SPU  BZ  P       142152.763                                   -0.19 7  232 208 
 GREN HZ  P       142152.802                                   -0.53 1  236  61 
 PAX  BZ  P       142152.959                                    0.62 7  227  89 
 GRES HZ  P       142153.057                                    0.06 1  233  62 
 DORN BZ  P       142153.417                                   -0.04 3  238 155 
 SPNN BZ  P       142153.436                                    0.43 7  233 218 
 I23K BZ  P       142153.466                                    0.12 4  236   6 
 SPCL BZ  P       142153.654                                   -0.01 4  238 212 
 CAST BE  S       142153.745                                   -1.19 4  113 293 
 NSHR BZ  P       142153.747                                   -0.20 5  242 155 
 SPWE BZ  P       142153.990                                    0.47 4  237 215 
 J20K BZ  P       142154.281                                    0.30 4  242 303 
 ESTR BZ  P       142154.986                                   -0.25 3  252 155 
 PWL  BZ  P       142155.397                                   -0.34 2  256 159 
 PS11 BZ  P       142155.421                                    0.04 7  253 112 
 HARP BZ  P       142156.313                                    0.71 7  255 103 
 POKR BZ  P       142156.447                                    0.01 2  262  26 
 L19K BZ  P       142156.668                                   -0.31 4  266 251 
 PS07 BZ  P       142157.088                                    0.25 3  266  17 
 GLI  BZ  P    A  142158.108                                   -0.76 4  282 146 
 CAPN BZ  P       142158.824                                    2.82 1  259 194 
 J25K BZ  P    A  142159.100                                   -0.20 4  285  50 
 SKN  BE  S       142159.340                                   -0.95 2  141 214 
 SLK  BZ  P       142159.632                                    1.00 4  280 182 
 CHUM BE  S       1422 1.133                                   -0.65 4  149 310 
 RDT  BZ  P       1422 1.341                                    0.61 4  302 206 
 TTA  BZ  P       1422 1.510                                   -0.08 4  305 270 
 RDDF BZ  P       1422 1.763                                   -0.04 4  306 208 
 FID  BZ  P    A  1422 1.788                                   -0.52 4  311 143 
 GHO  BN  S       1422 1.955                                   -0.16 2  150 158 
 RDJH BZ  P       1422 2.171                                   -0.02 4  309 209 
 SCRK BZ  P       1422 2.587                                   -0.21 3  314  67 
 NCT  BZ  P       1422 2.827                                    0.19 3  315 210 
 SAW  BE  S       1422 3.328                                   -0.76 2  160 147 
 RDWB BZ  P       1422 3.337                                   -0.23 3  320 209 
 N25K BZ  P       1422 3.567                                    0.19 3  319 117 
 RDSO BZ  P       1422 3.833                                    0.17 3  321 208 
 PMR  BE  S       1422 3.922                                   -1.16 2  166 164 
 WAZA BZ  P       1422 3.978                                    0.80 6  316 107 
 SWD  BZ  P       1422 4.123                                   -0.56 3  326 174 
 H22K BZ  P       1422 4.182                                    0.24 3  325 348 
 H24K BZ  P       1422 4.401                                    0.13 4  327  16 
 HIN  BZ  P       1422 5.749                                   -0.67 3  345 146 
 PPD  BZ  P    A  1422 6.868                                   -0.15 3  349  35 
 EYAK BZ  P       1422 7.031                                   -0.39 2  354 139 
 WRH  BE  S       1422 7.080                                   -1.89 2  184  29 
 P23K BZ  P       1422 7.661                                   -0.94 2  364 156 
 J26L BZ  P       1422 7.812                                    0.24 3  354  59 
 ILLG BZ  P       1422 8.183                                   -0.73 1  365 207 
 GLB  BZ  P       1422 8.466                                   -0.30 3  364 116 
 ILNE BZ  P       1422 8.671                                   -0.71 1  369 207 
 H20K BZ  P       1422 8.841                                    0.52 3  361 321 
 BRLK BZ  P       1422 8.945                                    0.43 1  368 188 
 BRSE BZ  P       1422 8.970                                    0.36 3  368 186 
 STLK BE  S       142210.336                                   -1.10 2  195 210 
 SCM  BE  S       142210.675                                    0.30 2  190 133 
 GOAT BZ  P       142210.946                                   -0.56 1  387 132 
 VRDI BZ  P       142211.618                                   -0.75 1  393 117 
 HOM  BZ  P       142212.348                                    1.12 2  385 194 
 M20K BE  S       142212.600                                   -1.11 2  206 233 
 CNP  BZ  P       142212.700                                    0.67 2  395 190 
 RAG  BZ  P       142212.792                                   -0.85 1  405 134 
 MCAR BZ  P       142213.418                                   -0.03 1  404 113 
 N18K BZ  P       142213.712                                    0.08 1  405 232 
 SPCG BE  S       142216.781                                    0.01 1  220 209 
 CRQ  BZ  P       142217.119                                   -0.82 1  440 122 
 L17K BZ  P       142217.746                                    0.32 2  437 260 
 SPCP BE  S       142218.009                                   -0.08 1  226 210 
 PTPK BZ  P       142218.091                                    0.05 1  440 114 
 TGL  BZ  P       142218.455                                   -0.82 1  451 120 
 PAX  BN  S       142218.604                                    0.49 1  227  89 
 KAI  BZ  P       142218.612                                   -0.82 1  454 137 
 BAL  BZ  P       142218.893                                   -0.81 3  455 115 
 KHIT BZ  P       142219.284                                   -0.50 3  456 126 
 O18K BZ  P       142219.395                                    0.47 1  449 220 
 KIAG BZ  P       142219.489                                   -1.02 3  461 117 
 BARN BZ  P       142223.638                                    0.27 1  485 113 
 F21K BZ  P       142224.990                                    0.75 1  493 342 
 I27K BZ  P       142225.129                                    0.89 1  493  50 
 L16K BZ  P       142226.448                                    0.16 1  510 257 
 Q20K BZ  P       142226.487                                    0.43 6  509 195 
 M16K BZ  P       142227.292                                    0.06 1  518 248 
 F20K BZ  P       142228.354                                    0.85 1  521 331 
 MESA BZ  P       142228.650                                   -0.07 1  529 123 
 LOGN BZ  P       142228.794                                    0.13 0  529 113 
 RKAV BZ  P       142231.500                                    0.72 1  546 119 
 KAPH BZ  P       142231.925                                    1.20 1  547 207 
 KAHG BZ  P       142233.351                                    0.80 0  562 208 
                                                                                

 2024  618 1841 10.3 LQ 65.828-135.093 28.6   AK 11 0.4 2.6                    1
 2024  618 1841 10.378  65.82780 -135.09340   28.600  0.420                    H
 GAP=                      0.8     1.2  2.8 -2.8067e-01                        E
 Action:ARG 26-01-05 12:06 OP:OBSP STATUS:               ID:20240618184110     I
 STAT SP IPHASW D HRMM SECON CODA AMPLIT PERI AZIMU VELO AIN AR TRES W  DIS CAZ7
 INK  HZ  P       184150.332                                   -0.0310  283  13 
 DAWY HZ  P       184150.351                                    0.18 5  281 227 
 I27K BZ  P       184152.578                                    0.19 3  299 268 
 E27K BZ  P       1842 3.671                                    0.44 1  385 315 
 J26L BZ  P       1842 8.067                                    0.12 1  421 253 
 YUK4 HZ  P       184220.282                                    0.17 1  517 200 
 YUK3 HZ  P       184220.445                                   -0.23 0  521 212 
 DAWY HN  S       184221.125                                   -0.18 3  281 227 
 INK  HZ  S       184222.014                                    0.38 2  283  13 
 I27K BN  S       184225.341                                    0.09 2  299 268 
 HYT  HZ  P       184226.164                                   -0.32 0  568 193 
 YUK6 HZ  P       184226.526                                    0.19 0  566 198 
 WHY  HZ  P       184227.556                                    0.38 0  574 178 
 D25K BZ  P       184232.381                                    0.43 0  614 314 
 E27K BE  S       184243.733                                   -0.85 1  385 315 
 J26L BE  S       184252.359                                   -0.62 2  421 253 
 YUK3 HE  S       184314.586                                   -1.09 1  521 212 
                                                                                

