 2016  7 9  835  2.8 LQ 65.701-166.130 27.4   AK 89 1.0 4.8                    1
 2016  7 9  835  2.850  65.70050 -166.12950   27.400  0.970                    H
 GAP=                      1.4     2.9  1.8 -2.8582e+00                        E
 Action:ARG 26-01-05 11:59 OP:OBSP STATUS:               ID:20160709083502     I
 STAT SP IPHASW D HRMM SECON CODA AMPLIT PERI AZIMU VELO AIN AR TRES W  DIS CAZ7
 TNA  BZ  P        83517.359                                    0.0510 84.0 260 
 ANM  BZ  P    A   83524.828                                    0.06 9  131 164 
 TNA  BN  S        83527.899                                   -0.47 4 84.0 260 
 KOTZ BZ  P        83534.259                                    0.15 7  206  48 
 ANM  BN  S        83541.272                                   -0.44 2  131 164 
 GAMB BZ  P        83550.042                                   -0.80 2  340 233 
 KOTZ BE  S        83558.390                                    0.07 1  206  48 
 GCSA BZ  P        836 3.495                                   -0.28 2  443  99 
 F21K BZ  P        83620.043                                   -1.53 0  585  67 
 TTA  BZ  P    A   83620.760                                    0.34 0  575 117 
 J20K BZ  P        83621.261                                   -0.64 0  588 101 
 H21K BZ  P    A   83622.925                                   -1.60 0  609  84 
 K20K BZ  P    A   83627.525                                    0.19 1  631 108 
 I21K BZ  P    A   83629.175                                   -1.06 1  655  88 
 H22K BZ  P        83631.712                                   -0.60 0  671  81 
 E22K BZ  P        83632.474                                   -0.73 0  678  60 
 L19K BZ  P    A   83632.700                                    0.03 1  674 120 
 CHUM BZ  P    A   83633.668                                   -0.08 1  683 100 
 L20K BZ  P    A   83634.750                                   -0.28 1  692 115 
 MLY  BZ  P    A   83636.268                                   -1.55 1  715  88 
 CAST BZ  P        83637.590                                   -0.23 0  715 104 
 M19K BZ  P        83637.837                                    0.38 0  712 120 
 A21K BZ  P        83638.920                                   -1.11 0  733  27 
 BPAW BZ  P    A   83639.488                                   -0.68 0  734  97 
 SVW2 BZ  P    A   83640.780                                    1.23 1  729 129 
 PPLA BZ  P    A   83640.948                                    0.07 1  739 108 
 H23K BZ  P    A   83641.950                                   -0.83 1  755  81 
 KTH  BZ  P    A   83642.808                                   -0.74 1  760 101 
 I23K BZ  P    A   83643.850                                   -1.45 1  775  86 
 N18K BZ  P    A   83644.000                                    1.01 1  756 132 
 M20K BZ  P        83644.571                                    0.56 0  764 117 
 TOLK BZ  P    A   83645.550                                   -0.67 1  782  57 
 C23K BZ  P    A   83646.375                                   -1.34 1  794  47 
 TRF  BZ  P    A   83647.488                                   -0.29 1  794 101 
 NEA2 BZ  P        83647.503                                   -1.40 1  804  90 
 BWN  BZ  P    A   83648.488                                   -0.90 1  808  94 
 N19K BZ  P        83648.560                                    0.77 1  794 127 
 E24K BZ  P        83649.191                                   -0.58 0  810  63 
 MDM  BZ  P        83650.878                                   -1.51 1  831  87 
 D24K BZ  P        83650.932                                   -1.00 0  828  54 
 H24K BZ  P        83650.984                                   -1.21 1  830  80 
 SKN  BZ  P        83651.419                                    0.05 0  823 113 
 MCK  BZ  P    A   83652.988                                   -0.71 1  842  97 
 WRH  BZ  P        83653.298                                   -1.68 1  852  90 
 SPBG BZ  P        83654.395                                    0.94 1  839 119 
 CCB  BZ  P        83654.431                                   -1.48 1  860  89 
 STLK EZ  P    A   83654.480                                    0.50 1  844 116 
 POKR BZ  P        83654.635                                   -1.79 0  864  85 
 N20K BZ  P        83655.326                                    0.52 1  850 119 
 SPCG BZ  P        83655.470                                    0.53 1  851 118 
 O18K BZ  P        83655.547                                    0.56 0  852 134 
 CUT  BZ  P        83655.648                                    0.83 1  851 108 
 RND  BZ  P    A   83655.708                                   -0.30 1  860  99 
 P16K BZ  P        83655.836                                    1.17 0  850 146 
 NCT  BZ  P        83657.863                                    0.34 1  872 124 
 RDJH BZ  P        83658.601                                    0.75 1  874 124 
 P17K BZ  P    A   83658.875                                    0.99 1  876 141 
 RDDF BZ  P    A   83659.120                                    0.75 1  879 123 
 RDWB BZ  P        83659.159                                    0.42 1  881 124 
 RDSO BZ  P        83659.745                                    0.20 0  888 124 
 WAT7 BZ  P    A   83659.928                                    0.24 1  889 102 
 RED  BZ  P        83659.986                                    0.30 1  889 125 
 SSN  BZ  P        837 0.481                                    0.55 0  891 114 
 P18K BZ  P        837 0.570                                    0.38 0  894 136 
 WAT1 HZ  P        837 1.137                                   -0.17 1  903 102 
 D25K BZ  P        837 1.393                                   -2.80 1  926  55 
 ILSW BZ  P        837 2.705                                    0.15 1  912 128 
 IVE  BZ  P        837 2.940                                    0.20 1  914 127 
 O20K BZ  P        837 3.881                                    0.04 1  923 126 
 DHY  BZ  P    A   837 6.208                                   -0.23 1  943  99 
 P19K BZ  P        837 6.241                                    0.62 1  937 129 
 WAT6 BZ  P    A   837 7.208                                   -0.40 1  952 102 
 PMR  BZ  P        837 8.169                                    0.94 1  951 110 
 J25K BZ  P        837 8.624                                   -1.42 1  972  87 
 RC01 BZ  P        837 8.802                                    0.47 1  959 114 
 SPIA BZ  P        837 9.564                                   -0.31 0  972 194 
 SAW  BZ  P        837 9.951                                    0.04 1  971 108 
 K24K BZ  P    A   83710.075                                   -1.25 1  983  92 
 C26K BZ  P        83711.569                                   -1.74 1  999  52 
 Q19K BZ  P        83712.322                                    0.43 1  987 133 
 RIDG BZ  P        83715.496                                   -1.50 0 1028  92 
 C27K BZ  P        83715.828                                   -1.95 1 1035  55 
 SCM  BZ  P        83715.870                                    0.65 1 1014 106 
 BRLK BZ  P        83715.929                                    0.69 1 1014 123 
 BRSE BZ  P        83716.235                                    0.10 1 1021 123 
 CNP  BZ  P    A   83716.668                                    0.65 1 1020 125 
 PAX  BZ  P        83717.411                                   -0.41 1 1034  97 
 PWL  BZ  P    A   83717.928                                    0.20 1 1034 113 
 I26K BZ  P        83718.145                                   -2.01 0 1054  81 
 SCRK BZ  P        83719.235                                   -1.54 1 1058  90 
 J26L BZ  P        83719.304                                   -1.53 1 1058  86 
 TTA  BE  S        83720.276                                   -0.37 0  575 117 
 Q20K BZ  P        83720.974                                    0.28 0 1058 131 
                                                                                

 2022  123 2022 33.2 LQ 68.008-144.311 20.6   AK 68 0.7 3.6                    1
 2022  123 2022 33.275  68.00770 -144.31070   20.600  0.710                    H
 GAP=                      0.3     0.3  0.4  0.0000e+00                        E
 Action:ARG 26-01-05 11:59 OP:OBSP STATUS:               ID:20220123202233     I
 STAT SP IPHASW D HRMM SECON CODA AMPLIT PERI AZIMU VELO AIN AR TRES W  DIS CAZ7
 E27K BZ  P       202251.952                                    0.27 3  114  78 
 E24K BZ  P       202259.887                                    0.1510  173 274 
 C27K BZ  P       2023 0.646                                   -0.09 5  181   7 
 G27K BZ  P       2023 0.850                                    0.97 1  175 138 
 G24K BZ  P       2023 3.266                                    0.20 2  198 224 
 PS04 BZ  P       2023 4.857                                   -0.18 0  213 284 
 E27K BE  S       2023 5.107                                   -0.97 2  114  78 
 TOLK BZ  P       2023 6.744                                   -0.05 0  227 290 
 COLD BZ  P    A  202311.288                                   -0.14 2  264 253 
 H24K BZ  P       202314.248                                   -0.12 1  286 214 
 I27K BZ  P       202315.128                                    0.09 1  292 154 
 PS01 BZ  P       202315.539                                   -0.72 0  302 327 
 PS05 BZ  P       202316.321                                    0.11 0  302 246 
 E22K BZ  P       202317.278                                   -0.21 1  311 276 
 E24K BE  S       202319.524                                   -0.90 1  173 274 
 PS06 BZ  P       202319.963                                   -0.58 1  336 227 
 G27K BN  S       202321.282                                    0.58 2  175 138 
 C27K BE  S       202322.273                                    0.05 2  181   7 
 POKR BZ  P       202322.488                                    0.21 1  349 204 
 D22K BZ  P       202322.667                                   -0.30 1  355 289 
 J25K BZ  P       202326.616                                    0.41 1  380 187 
 I23K BZ  P       202326.812                                   -0.30 1  388 217 
 CCB  BZ  P       202329.316                                    0.08 1  404 204 
 PS04 BN  S       202329.495                                   -0.38 0  213 284 
 HDA  BZ  P       202331.466                                    0.66 1  417 197 
 WRH  BZ  P       202332.246                                    0.09 1  427 205 
 NEA2 BZ  P       202332.529                                   -0.53 1  434 211 
 TOLK BN  S       202332.785                                   -0.23 1  227 290 
 C21K BZ  P       202333.588                                   -0.53 0  443 291 
 INK  HZ  P       202333.918                                   -0.60 0  446  80 
 H21K BZ  P       202334.887                                   -0.55 4  453 238 
 GRES HZ  P       202335.429                                   -0.32 1  456 188 
 K27K BZ  P       202335.524                                    0.06 2  453 166 
 COLD BN  S       202340.266                                   -1.02 1  264 253 
 MCK  BZ  P       202343.523                                   -0.27 0  519 205 
 BPAW BZ  P       202343.738                                   -1.14 0  528 217 
 H20K BZ  P       202345.711                                   -0.74 0  540 243 
 I27K BE  S       202346.695                                   -1.01 0  292 154 
 RND  BZ  P       202348.084                                    0.14 0  552 204 
 L26K BZ  P       202348.265                                   -0.11 0  555 174 
 PS01 BE  S       202348.596                                   -1.29 0  302 327 
 MENT BZ  P       202349.844                                    0.38 1  564 176 
 PAX  BZ  P       202350.273                                    0.97 0  562 185 
 DHY  BZ  P       202350.390                                    0.60 0  566 195 
 G19K BZ  P       202350.712                                   -1.76 0  589 255 
 CHUM BZ  P       202350.847                                   -0.92 0  583 222 
 KTH  BZ  P       202350.896                                   -0.43 0  579 214 
 A21K BZ  P       202352.717                                   -0.94 0  599 313 
 J20K BZ  P       202354.415                                   -0.93 0  613 230 
 WAT1 HZ  P       202355.491                                    0.77 0  607 200 
 CAST BZ  P       202355.532                                   -0.75 0  620 218 
 WAT7 BZ  P       202355.783                                    0.50 0  612 202 
 C19K BZ  P       202356.730                                   -0.80 0  631 288 
 WAT6 BZ  P       202357.439                                    0.67 0  623 196 
 HARP BZ  P       202357.494                                    0.73 0  624 184 
 M27K BZ  P       202359.057                                    0.57 0  638 168 
 BVCY HZ  P       202359.581                                    0.72 0  642 163 
 J19K BZ  P       2024 2.265                                   -0.76 0  677 234 
 K20K BZ  P       2024 2.787                                   -0.84 0  681 225 
 WASW SN  P       2024 2.951                                   -0.17 0  676 179 
 L22K BZ  P       2024 3.155                                   -0.13 0  678 209 
 B18K BZ  P       2024 6.744                                   -1.46 0  720 290 
 GHO  BZ  P       2024 9.147                                   -0.27 0  726 199 
 YUK3 HZ  P       2024 9.234                                    1.30 0  716 163 
 MCAR BZ  P       202412.163                                    1.65 0  739 174 
 SKN  BZ  P       202412.813                                    0.95 0  750 210 
 RDOG BZ  P       202413.836                                   -0.49 0  770 279 
 H17K BZ  P       202413.855                                   -0.29 0  769 251 
 G17K BZ  P       202413.859                                    0.04 0  766 256 
 KNK  BZ  P       202414.039                                    0.27 0  758 196 
 TTA  BZ  P       202414.768                                   -0.62 0  778 229 
 D17K BZ  P       202414.820                                   -1.15 0  784 276 
 YUK4 HZ  P       202416.984                                    1.39 0  779 156 
 STLK BZ  P       202419.353                                    0.75 0  805 209 
 J17K BZ  P       202422.998                                   -0.24 0  844 239 
 L18K BZ  P       202425.440                                    0.02 0  862 227 
 C16K BZ  P       202425.512                                   -0.40 0  867 281 
                                                                                

 2024  123 1153 42.3 LQ 65.112-174.482 10.1   AK 12 0.5 3.0                    1
 2024  123 1153 42.369  65.11170 -174.48160   10.100  0.490                    H
 GAP=                      3.1     5.8  3.1  1.5582e+01                        E
 Action:ARG 26-01-05 11:59 OP:OBSP STATUS:               ID:20240123115342     I
 STAT SP IPHASW D HRMM SECON CODA AMPLIT PERI AZIMU VELO AIN AR TRES W  DIS CAZ7
 TNA  BZ  P       115427.641                                    0.42 0  308  77 
 ANM  BZ  P       115443.033                                   -0.23 1  434  93 
 F15K BZ  P       115446.396                                   -0.0110  459  77 
 C16K BZ  P       115455.745                                    0.02 2  533  44 
 H16K BZ  P       1155 0.735                                   -0.83 0  579  89 
 D17K BZ  P       1155 2.028                                    0.17 1  581  55 
 TNA  BN  S       1155 3.023                                    0.71 0  308  77 
 K13K BZ  P       1155 3.369                                   -0.77 0  600 121 
 M11K BZ  P       115512.686                                   -0.10 0  672 137 
 H17K BZ  P       115514.485                                    0.43 1  682  85 
 K15K BZ  P       115517.572                                    0.36 0  709 110 
 B18K BZ  P       115517.676                                   -0.78 0  719  43 
 J17K BZ  P       115524.835                                    0.76 0  765  97 
 ANM  BE  S       115530.942                                    0.05 0  434  93 
 F15K BN  S       115536.490                                   -0.01 8  459  77 
                                                                                

