 2019  7 4 1251 36.3 LQ 55.448-135.121  0.4   AK 59 1.0 4.3                    1
 2019  7 4 1251 36.385  55.44770 -135.12060    0.400  0.990                    H
 GAP=                      0.8     1.0  0.9  2.9929e-01                        E
 Action:ARG 26-01-05 11:50 OP:OBSP STATUS:               ID:20190704125136     I
 STAT SP IPHASW D HRMM SECON CODA AMPLIT PERI AZIMU VELO AIN AR TRES W  DIS CAZ7
 CRAG BZ  P       125156.849                                    0.71 7  125  88 
 U33K BZ  P       125158.865                                   -0.2610  145  58 
 SIT  BZ  P       1252 3.319                                   -0.72 2  179 356 
 V35K BZ  P       1252 9.247                                   -0.23 7  221  92 
 S32K BZ  P       1252 9.856                                   -0.31 3  227   8 
 CRAG BN  S       125211.027                                   -0.15 3  125  88 
 U33K BN  S       125215.831                                   -0.60 4  145  58 
 S31K BZ  P    A  125217.600                                   -0.32 6  287 346 
 JIS  BZ  P    A  125221.488                                   -0.27 5  317   7 
 R32K BZ  P       125221.583                                   -0.06 5  316   6 
 SIT  BN  S       125225.748                                    0.67 3  179 356 
 S32K BE  S       125234.992                                   -0.88 1  227   8 
 SKAG BZ  P       125238.567                                    0.51 2  446 358 
 PLBC HZ  P       125239.373                                    0.63 2  451 351 
 PNL  BZ  P       125249.128                                    0.22 1  533 333 
 BCP  BZ  P       125254.116                                    1.01 1  568 333 
 WHY  HZ  P       125254.813                                    0.18 0  579   1 
 YUK7 HZ  P       125257.230                                    0.96 0  592 343 
 PIN  BZ  P       125258.772                                    1.74 1  599 331 
 HYT  HZ  P       1253 0.198                                    1.29 1  614 347 
 SAMH BZ  P       1253 1.208                                    1.75 1  618 329 
 CHX  BZ  P       1253 1.490                                    1.41 1  623 327 
 RKAV BZ  P       1253 5.173                                    1.51 0  652 328 
 TABL BZ  P       1253 5.915                                    1.46 0  658 329 
 MESA BZ  P    A  1253 6.148                                    1.19 0  662 325 
 YAH  BZ  P       1253 8.004                                    1.97 0  671 327 
 LOGN BZ  P       125310.192                                    1.93 0  689 332 
 BAGL BZ  P       125310.412                                    1.60 0  694 326 
 BARK BZ  P    A  125310.608                                    0.94 0  701 324 
 BGLC BZ  P       125311.194                                    0.72 0  709 320 
 WAX  BZ  P       125312.177                                    0.46 0  718 323 
 GRNC BZ  P       125312.191                                    2.08 0  704 329 
 ISLE BZ  P       125312.501                                    1.43 0  712 326 
 GRIN BZ  P       125312.858                                    0.61 0  722 321 
 SUCK BZ  P       125312.912                                    0.34 0  725 318 
 CTG  BZ  P       125313.520                                    2.43 0  712 331 
 KHIT BZ  P       125313.582                                    0.05 0  732 322 
 KAI  BZ  P       125314.891                                    0.22 0  742 315 
 NICH BZ  P    A  125315.368                                    0.32 0  745 319 
 BARN BZ  P       125315.607                                    2.23 0  731 331 
 BERG BZ  P       125315.712                                    0.54 0  746 320 
 CRQ  BZ  P       125317.044                                    1.11 0  752 324 
 HMT  BZ  P    A  125317.268                                   -0.18 0  765 318 
 RAG  BZ  P       125319.942                                   -0.12 0  786 318 
 PTPK BZ  P       125320.175                                    2.23 0  768 329 
 Q23K BZ  P       125320.794                                   -1.25 0  802 308 
 GOAT BZ  P       125321.928                                   -0.15 0  802 319 
 VRDI BZ  P    A  125324.048                                    1.57 0  804 326 
 BMR  BZ  P       125325.021                                   -0.02 0  826 321 
 GLB  BZ  P       125327.123                                    0.99 0  835 326 
 HIN  BZ  P       125329.965                                   -0.03 0  866 314 
 P23K BZ  P    A  125331.225                                   -1.06 0  885 309 
 N25K BZ  P       125332.637                                    1.36 0  876 325 
 FID  BZ  P       125332.852                                   -0.28 0  892 315 
 WAZA BZ  P       125333.656                                   -0.73 0  900 328 
 GLI  BZ  P       125336.639                                   -0.40 0  923 315 
 PWL  BZ  P       125343.199                                   -0.57 0  978 313 
 SLK  BZ  P    A  125351.648                                   -0.96 0 1049 308 
 RC01 BZ  P       125352.994                                   -0.42 0 1056 312 
 CNP  BZ  P    A  125353.488                                   -0.50 0 1061 301 
 PMR  BZ  P       125354.244                                    0.61 0 1058 315 
 GHO  BZ  P       125354.930                                    0.91 0 1060 317 
 Q20K BZ  P       125358.690                                    0.03 0 1099 295 
                                                                                

 2023 10 1  722 35.5 LQ 59.187-136.901  8.2   AK 47 0.6 3.6                    1
 2023 10 1  722 35.542  59.18660 -136.90150    8.200  0.610                    H
 GAP=                      0.4     0.5  0.4  1.3305e-01                        E
 Action:ARG 26-01-05 11:50 OP:OBSP STATUS:               ID:20231001072235     I
 STAT SP IPHASW D HRMM SECON CODA AMPLIT PERI AZIMU VELO AIN AR TRES W  DIS CAZ7
 PLBC HZ  P    A   72243.120                                    0.2210 42.6  45 
 PLBC HN  S        72248.396                                   -0.25 3 42.6  45 
 SKAG BZ  P    A   72251.420                                   -0.16 9 94.3  70 
 BESE BZ  P        72258.157                                    0.05 2  135 119 
 S31K BZ  P    A   72259.200                                    0.36 9  141 163 
 PNL  BZ  P        72259.223                                   -0.96 3  151 291 
 YUK7 HZ  P        723 2.238                                    0.09 2  164 335 
 R32K BZ  P        723 2.760                                   -0.07 2  170 125 
 SKAG BE  S        723 2.926                                   -1.16 2 94.3  70 
 BCP  BZ  P        723 3.452                                   -0.08 2  176 300 
 JIS  BZ  P    A   723 3.488                                   -0.14 8  177 123 
 HYT  HZ  P    A   723 5.020                                    0.12 8  185 349 
 ATLI BZ  P    A   723 5.075                                    0.17 8  185  74 
 WHY  HZ  P        723 7.833                                    1.16 4  198  33 
 YUK6 HZ  P    A   723 8.550                                    0.05 7  211 338 
 PIN  BZ  P    A   723 8.768                                    0.09 7  213 299 
 S32K BZ  P        72310.759                                   -0.52 7  234 143 
 EDCR BZ  P        72312.899                                    0.14 2  245 162 
 SIT  BZ  P        72313.408                                   -0.39 4  254 157 
 YUK4 HZ  P        72315.016                                   -0.48 3  265 340 
 BESE BE  S        72315.225                                   -0.52 2  135 119 
 BRWY HZ  P        72315.730                                   -0.12 2  269 335 
 TABL BZ  P        72316.399                                   -0.26 7  275 302 
 RKAV BZ  P        72317.230                                    0.23 4  278 298 
 S31K BN  S        72317.484                                    0.43 2  141 163 
 YUK8 HZ  P    A   72317.800                                    0.25 4  281 327 
 LOGN BZ  P        72318.922                                    0.19 4  291 310 
 MESA BZ  P        72319.803                                   -0.50 1  304 293 
 YUK7 HN  S        72322.855                                   -0.10 4  164 335 
 BAGL BZ  P        72323.170                                    0.38 3  324 298 
 BARN BZ  P        72324.571                                    0.25 1  335 310 
 R32K BN  S        72324.746                                    0.58 2  170 125 
 YUK3 HZ  P    A   72325.770                                   -0.07 3  347 327 
 JIS  BE  S        72326.196                                    0.61 3  177 123 
 HYT  HN  S        72326.689                                   -1.16 3  185 349 
 KIAG BZ  P        72327.458                                    0.19 1  359 304 
 WAX  BZ  P        72327.675                                    0.26 3  360 295 
 ATLI BN  S        72327.987                                    0.13 3  185  74 
 BAL  BZ  P        72328.166                                    0.21 1  364 306 
 TGL  BZ  P        72328.777                                   -0.18 2  372 300 
 KHIT BZ  P        72329.965                                   -0.04 2  381 294 
 WHY  HE  S        72331.324                                    0.30 2  198  33 
 DLBC HZ  P        72332.226                                   -0.66 4  404  98 
 U33K BZ  P        72332.315                                   -1.05 4  408 145 
 YUK6 HE  S        72333.516                                   -0.76 2  211 338 
 M27K BZ  P    A   72337.740                                   -0.25 2  444 324 
 S32K BE  S        72340.228                                    1.00 3  234 143 
 BMR  BZ  P        72340.984                                   -0.29 1  470 298 
 EDCR BE  S        72343.738                                    1.86 2  245 162 
 V35K BZ  P        72348.670                                   -0.51 1  533 141 
 MENT BZ  P        72351.526                                   -0.41 0  554 321 
 KLU  BZ  P        72351.736                                   -0.64 1  558 301 
 PWL  BZ  P        724 4.055                                   -0.77 0  660 291 
 J26L BZ  P        724 7.460                                   -0.45 0  685 332 
 SWD  BZ  P        724 9.760                                   -1.69 0  711 283 
 J25K BZ  P    A   72414.580                                   -0.75 0  747 327 
 BRSE BZ  P        72418.864                                   -0.14 0  782 280 
 BRLK BZ  P        72420.117                                    0.09 0  792 280 
 Q20K BZ  P        72431.389                                   -1.06 0  890 272 
 J20K BZ  P        72453.942                                    0.94 0 1060 308 
                                                                                

 2023 1125 1911 30.2 LQ 60.480-143.624  7.1   AK 79 0.9 3.1                    1
 2023 1125 1911 30.252  60.48000 -143.62350    7.100  0.860                    H
 GAP=                      0.2     0.2  0.1 -0.0000e+00                        E
 Action:ARG 26-01-05 11:50 OP:OBSP STATUS:               ID:20231125191130     I
 STAT SP IPHASW D HRMM SECON CODA AMPLIT PERI AZIMU VELO AIN AR TRES W  DIS CAZ7
 BERG BZ  P       191132.240                                   -0.42 5 10.6 203 
 KHIT BZ  P    A  191134.308                                   -0.07 5 20.8 101 
 BERG BN  S       191134.780                                    0.23 2 10.6 203 
 GRIN BZ  P    A  191134.888                                   -0.65 5 27.7 143 
 WAX  BZ  P    A  191137.868                                   -0.29 5 42.4  94 
 CRQ  BZ  P    A  191137.948                                   -0.14 5 41.9  43 
 KHIT BE  S       191138.250                                    0.64 5 20.8 101 
 SUCK BZ  P    A  191138.348                                   -0.45 5 46.1 190 
 BGLC BZ  P       191138.449                                    0.05 2 44.1 154 
 GRIN BE  S       191139.466                                   -0.21 5 27.7 143 
 TGL  BZ  P    A  191139.648                                   -0.35 5 52.9  54 
 BARK BZ  P    A  191141.168                                   -0.39 5 62.6  97 
 ISLE BZ  P    A  191142.528                                   -0.37 5 71.5  78 
 BMR  BZ  P    A  191142.668                                   -0.83 5 76.1 315 
 CRQ  BE  S       191144.018                                   -0.22 1 41.9  43 
 BAGL BZ  P    A  191144.088                                   -0.62 5 84.0  88 
 VRDI BZ  P    A  191144.308                                   -0.41 5 83.6   6 
 KIAG BZ  P    A  191144.488                                   -0.35 5 84.5  53 
 WAX  BE  S       191144.585                                    0.24 2 42.4  94 
 BAL  BZ  P    A  191145.588                                   -0.36 5 93.0  47 
 SUCK BN  S       191145.810                                    0.3210 46.1 190 
 BGLC BN  S       191146.028                                    1.24 2 44.1 154 
 MESA BZ  P    A  191146.068                                   -0.65 5 98.1 109 
 PTPK BZ  P    A  191146.888                                   -0.17 5  100  38 
 TGL  BN  S       191147.071                                   -0.55 2 52.9  54 
 GRNC BZ  P    A  191147.148                                   -0.64 5  105  73 
 MCAR BZ  P    A  191147.468                                   -0.08 5  105  17 
 GLB  BZ  P    A  191147.628                                   -0.22 5  107 354 
 EYAK BZ  P    A  191148.808                                   -0.19 5  116 274 
 BARK BN  S       191150.338                                   -0.07 3 62.6  97 
 BARN BZ  P    A  191150.528                                    0.27 4  124  57 
 RKAV BZ  P    A  191150.668                                    0.13 4  126  98 
 DIV  BZ  P    A  191151.728                                   -0.08 4  137 302 
 N25K BZ  P    A  191152.000                                    0.36 4  135 337 
 PS12 BZ  P       191152.012                                    0.18 3  137 324 
 ISLE BE  S       191152.180                                   -0.63 1 71.5  78 
 BMR  BN  S       191152.851                                   -1.03 3 76.1 315 
 LOGN BZ  P    A  191153.108                                   -0.17 4  147  73 
 HIN  BZ  P    A  191154.368                                   -0.13 3  158 267 
 VMT  BZ  P       191155.204                                    0.11 2  163 295 
 BAGL BN  S       191155.342                                   -0.70 3 84.0  88 
 FID  BZ  P    A  191155.508                                    0.19 3  164 280 
 SAMH BZ  P       191155.664                                    0.70 2  161 102 
 KIAG BN  S       191155.751                                   -0.51 2 84.5  53 
 WASW SZ  P       191155.777                                    0.36 3  163 349 
 KLU  BZ  P    A  191156.188                                    0.43 3  167 313 
 WACK BZ  P    A  191157.240                                    0.77 3  171 347 
 Q23K BZ  P       191157.737                                   -0.95 1  191 233 
 BAL  BE  S       191157.882                                   -0.37 3 93.0  47 
 GLI  BZ  P       191158.963                                   -0.18 2  194 284 
 PIN  BZ  P    A  191159.148                                    0.40 2  190 101 
 MESA BN  S       191159.185                                   -0.44 3 98.1 109 
 PTPK BN  S       1912 0.338                                    0.12 1  100  38 
 P23K BZ  P       1912 0.753                                   -1.12 2  215 257 
 PS11 BZ  P       1912 1.475                                    1.14 2  203 331 
 HARP BZ  P    A  1912 5.200                                    1.64 2  228 339 
 YUK3 HZ  P    A  1912 5.270                                    2.21 2  222  48 
 YUK8 HZ  P       1912 5.484                                    1.82 2  227  65 
 PNL  BZ  P    A  1912 5.488                                   -0.94 2  250 109 
 M27K BZ  P       1912 5.702                                    1.99 2  228  23 
 SCM  BZ  P    A  1912 6.660                                    0.40 2  249 308 
 BAE  BZ  P       1912 6.692                                   -0.18 2  254 288 
 PWL  BZ  P       1912 7.491                                   -0.06 2  259 281 
 BAT  BZ  P       1912 7.494                                    0.18 2  257 288 
 M23K BZ  P       1912 8.502                                    0.41 2  264 305 
 BVCY HZ  P       1912 9.917                                    2.29 4  260  33 
 BRWY HZ  P       191210.479                                    2.00 2  266  66 
 MENT BZ  P       191211.058                                    1.78 2  273 358 
 KNK  BZ  P       191211.200                                    0.99 2  280 293 
 SAW  BZ  P    A  191212.540                                    0.83 2  292 302 
 PAX  BZ  P    A  191212.548                                    0.67 2  293 341 
 YUK6 HZ  P    A  191212.920                                    1.24 2  290  77 
 YUK7 HZ  P       191213.568                                    0.72 1  300  86 
 YUK4 HZ  P       191213.936                                    1.89 2  293  66 
 SWD  BZ  P       191214.619                                   -0.96 1  323 265 
 WAT6 BZ  P    A  191215.748                                    0.49 2  319 318 
 GHO  BZ  P       191215.998                                    0.93 1  318 299 
 YUK5 HZ  P       191216.826                                    1.42 2  320  74 
 RC01 BZ  P       191217.031                                   -0.46 2  338 284 
 HYT  HZ  P    A  191218.180                                    0.96 2  335  80 
 SLK  BZ  P       191218.727                                   -1.67 2  361 273 
 DHY  BZ  P    A  191220.028                                    0.99 2  349 327 
 RIDG BZ  P       191221.643                                    0.36 1  368 350 
 WAT1 HZ  P       191221.982                                    0.66 1  368 317 
 WAT7 BZ  P    A  191223.508                                    0.68 1  379 315 
 SCRK BZ  P    A  191225.048                                    1.06 1  389 357 
 PLBC HZ  P       191227.463                                   -0.10 1  419 102 
 CNP  BZ  P       191228.711                                   -0.96 2  436 259 
 RND  BZ  P       191229.055                                    0.70 1  424 322 
 STLK BZ  P       191231.525                                   -0.74 1  456 287 
 L22K BZ  P    A  191231.560                                    1.16 1  441 304 
 SKN  BZ  P       191232.490                                    0.55 1  454 294 
 MCK  BZ  P       191232.648                                    0.66 1  454 324 
 DAWY HZ  P    A  191233.500                                    1.53 1  454  26 
 BPAW BZ  P    A  191244.948                                    0.86 0  553 319 
                                                                                

 2022  1 8  816 42.9 LQ 60.390-140.533 37.8   us156 0.7 5.2  us 5.2L ak 5.2  us1
 2022  1 8  816 42.9 LQ                       us        5.3L us 5.2b us 5.2 pgc1
 2022  1 8  816 42.950  60.38990 -140.53340   37.780  0.730                    H
 GAP=51     us  1.49       4.3     4.5  4.2  4.6899e+00                        E
 2022  1 8  816 43.5 LQ 60.430-140.471 19.8   ak156 0.9                        1
 2022  1 8  816 43.560  60.42990 -140.47100   19.800  0.940                    H
 2022  1 8  816 39.9 LQ 60.401-140.378 10.0     156 0.0                        1
 2022  1 8  816 39.900  60.40130 -140.37840   10.000  0.000                    H
