 2024 1223  8 0 56.2 LQ 62.611-143.386  3.8   AK 67 0.8 3.0                    1
 2024 1223  8 0 56.215  62.61120 -143.38610    3.800  0.770                    H
 GAP=                      0.3     0.3  0.2  0.0000e+00                        E
 Action:ARG 26-01-05 12:06 OP:OBSP STATUS:               ID:20241223080056     I
 STAT SP IPHASW D HRMM SECON CODA AMPLIT PERI AZIMU VELO AIN AR TRES W  DIS CAZ7
 M26K BZ  P        8 1 1.979                                    0.49 7 30.8 139 
 L26K BZ  P        8 1 4.544                                    0.48 7 46.1   2 
 M26K BE  S        8 1 6.281                                    0.68 6 30.8 139 
 WAZA BZ  P        8 1 8.994                                    0.59 7 71.6 213 
 L26K BE  S        8 110.302                                    0.12 4 46.1   2 
 WACK BZ  P        8 110.671                                    0.02 7 85.0 215 
 WASW SZ  P        8 110.910                                    0.04 7 86.3 208 
 HARP BZ  P    A   8 112.280                                    0.13 7 94.0 256 
 PAX  BZ  P    A   8 114.348                                   -1.07 7  113 291 
 DOT  BZ  P    A   8 116.488                                   -0.14 7  120 343 
 N25K BZ  P    A   8 117.125                                   -0.85 7  128 209 
 PS11 BZ  P    A   8 117.228                                    0.16 7  122 242 
 GLB  BZ  P    A   8 118.008                                   -0.58 7  131 189 
 WAZA BE  S        8 118.158                                    0.24 9 71.6 213 
 MCAR BZ  P    A   8 118.888                                   -0.60 7  137 171 
 RIDG BZ  P        8 120.285                                   -0.26 7  145 330 
 WACK BN  S        8 120.826                                   -1.09 1 85.0 215 
 PS12 BZ  P        8 121.417                                   -0.56 5  156 216 
 WASW SE  S        8 121.477                                   -0.83 4 86.3 208 
 VRDI BZ  P        8 121.660                                   -0.15 7  153 181 
 SCRK BZ  P    A   8 121.788                                   -0.08 7  154 349 
 PTPK BZ  P        8 123.231                                   -0.15 7  165 162 
 HARP BN  S        8 124.231                                   -0.35 9 94.0 256 
 KLU  BZ  P    A   8 125.308                                   -0.14 7  181 227 
 K24K BZ  P        8 125.715                                    0.67 7  178 318 
 BAL  BZ  P        8 126.086                                    0.34 7  183 162 
 BMR  BZ  P        8 126.488                                   -0.58 7  193 199 
 GRES HZ  P        8 126.751                                    0.36 7  188 322 
 GREN HZ  P        8 126.809                                    0.22 7  190 323 
 BARN BZ  P    A   8 127.748                                    0.43 7  194 151 
 KIAG BZ  P        8 127.925                                    0.54 7  195 163 
 DIV  BZ  P        8 128.720                                   -0.16 7  206 218 
 J26L BZ  P        8 129.033                                   -0.33 4  210 357 
 TGL  BZ  P        8 129.142                                    0.01 7  208 171 
 CRQ  BZ  P        8 129.418                                    0.45 3  207 175 
 DHY  BZ  P    A   8 129.628                                    0.41 7  208 286 
 WAT6 BZ  P        8 130.904                                   -0.19 6  222 271 
 SCM  BZ  P        8 131.122                                    0.21 3  221 248 
 GRNC BZ  P        8 132.005                                    0.43 2  226 156 
 J25K BZ  P    A   8 132.920                                   -0.75 6  243 337 
 PS11 BE  S        8 133.360                                    0.02 4  122 242 
 LOGN BZ  P        8 133.474                                    0.76 6  234 146 
 GOAT BZ  P        8 133.989                                    1.14 6  236 198 
 GLB  BE  S        8 134.034                                   -2.01 4  131 189 
 HDA  BZ  P        8 136.105                                   -0.49 6  266 320 
 MCAR BE  S        8 136.134                                   -1.54 4  137 171 
 YAH  BZ  P        8 136.884                                    0.31 3  265 160 
 WAT1 HZ  P        8 137.150                                    0.84 6  264 277 
 EYAK BZ  P        8 137.535                                    1.68 2  261 209 
 FID  BZ  P        8 137.646                                    0.71 3  269 220 
 SAW  BZ  P        8 138.284                                    1.0510  271 252 
 RKAV BZ  P        8 139.102                                    0.83 2  278 156 
 WAT7 BZ  P        8 139.374                                    1.10 2  279 277 
 MESA BZ  P        8 139.737                                    1.16 2  281 163 
 VRDI BE  S        8 140.220                                   -1.60 3  153 181 
 RND  BZ  P        8 140.250                                    0.66 9  289 290 
 BAT  BZ  P        8 140.271                                   -0.53 8  299 239 
 PS12 BE  S        8 140.348                                   -1.76 3  156 216 
 BAE  BZ  P        8 140.714                                    0.18 8  297 238 
 SAMH BZ  P        8 141.035                                   -0.96 4  308 152 
 KNK  BZ  P        8 141.262                                    0.07 9  296 245 
 HIN  BZ  P        8 141.287                                    0.89 2  296 215 
 WRH  BZ  P        8 141.513                                   -0.74 8  311 313 
 GHO  BZ  P        8 142.218                                    0.72 2  302 254 
 MCK  BZ  P        8 142.351                                    0.89 9  305 296 
 PWL  BZ  P        8 145.066                                    1.06 2  325 235 
 POKR BZ  P        8 145.145                                   -0.96 6  341 326 
 PPD  BZ  P    A   8 145.348                                   -0.57 4  339 343 
 I27K BZ  P        8 146.157                                   -0.22 2  343  13 
 MDM  BZ  P        8 146.175                                   -1.38 5  353 319 
 GRES HE  S        8 150.380                                    0.39 2  188 322 
 BARN BN  S        8 150.642                                   -0.99 6  194 151 
 DIV  BE  S        8 153.614                                   -0.81 3  206 218 
 DHY  BN  S        8 154.035                                   -0.98 3  208 286 
 H24K BZ  P        8 154.926                                   -1.00 3  419 330 
 TGL  BE  S        8 155.627                                    0.75 4  208 171 
 E25K BZ  P        8 220.603                                   -0.60 1  620 351 
 E24K BZ  P        8 224.795                                   -0.13 1  651 341 
 E22K BZ  P        8 234.521                                    0.57 1  726 331 
 TOLK BZ  P        8 234.973                                    0.92 1  727 339 
 D25K BZ  P        8 238.346                                    0.56 0  758 351 
 C27K BZ  P        8 241.214                                    0.82 0  780 359 
 C23K BZ  P        8 251.462                                    0.88 0  864 341 
                                                                                

 2024 1121  9 2 58.7 LQ 65.279-143.259 10.0   AK 13 0.9 1.9                    1
 2024 1121  9 2 58.776  65.27950 -143.25930   10.000  0.860                    H
 GAP=                      0.5     0.5  0.3  0.0000e+00                        E
 Action:ARG 26-01-05 12:06 OP:OBSP STATUS:               ID:20241121090258     I
 STAT SP IPHASW D HRMM SECON CODA AMPLIT PERI AZIMU VELO AIN AR TRES W  DIS CAZ7
 I27K BZ  P        9 313.245                                    0.10 0 84.1  63 
 J26L BZ  P        9 313.510                                   -0.26 0 87.7 189 
 PPD  BZ  P        9 317.376                                    0.17 0  108 285 
 J25K BZ  P        9 320.047                                    0.46 0  123 234 
 J26L BE  S        9 323.584                                   -1.87 0 87.7 189 
 SCRK BZ  P        9 323.722                                    0.70 0  149 193 
 I27K BE  S        9 323.947                                   -0.41 0 84.1  63 
 DOT  BZ  P        9 328.405                                    0.54 0  185 192 
 PS08 BN  P        9 328.419                                    0.39 0  186 245 
 GRES HZ  P        9 329.420                                    1.05 0  189 219 
 POKR BZ  P        9 329.981                                    0.77 0  195 266 
 K24K BZ  P        9 330.611                                    0.29 0  203 217 
 PPD  BE  S        9 330.649                                   -0.94 0  108 285 
 CCB  BZ  P        9 332.895                                   -0.28 0  225 253 
 J25K BE  S        9 334.359                                   -1.50 0  123 234 
 WRH  BZ  P        9 335.704                                   -0.0010  245 250 
 SCRK BE  S        9 340.586                                   -1.39 0  149 193 
 DOT  BE  S        9 350.274                                   -0.34 0  185 192 
 GREN HE  S        9 351.295                                    0.63 0  185 219 
 PS08 BE  S        9 351.992                                    1.09 0  186 245 
 GRES HE  S        9 352.331                                    0.81 0  189 219 
 POKR BN  S        9 354.791                                    1.78 0  195 266 
                                                                                

 2024 1127 1315 12.1 LQ 65.521-148.463 10.2   AK 29 0.5 1.8                    1
 2024 1127 1315 12.169  65.52100 -148.46300   10.200  0.450                    H
 GAP=                      0.3     0.3  0.2  0.0000e+00                        E
 Action:ARG 26-01-05 12:06 OP:OBSP STATUS:               ID:20241127131512     I
 STAT SP IPHASW D HRMM SECON CODA AMPLIT PERI AZIMU VELO AIN AR TRES W  DIS CAZ7
 PS07 BZ  P       131516.703                                   -0.0410 24.9 159 
 PS07 BE  S       131519.871                                   -0.44 5 24.9 159 
 H24K BZ  P       131519.960                                    0.07 5 44.1  37 
 I23K BZ  P    A  131522.320                                    0.0410 58.8 225 
 MDM  BZ  P    A  131523.120                                    0.0710 63.3 170 
 POKR BZ  P    A  131523.520                                    0.0910 65.6 132 
 H24K BE  S       131525.560                                   -0.35 4 44.1  37 
 CCB  BZ  P    A  131529.560                                   -0.01 9  102 162 
 I23K BN  S       131530.390                                    0.22 5 58.8 225 
 NEA2 BZ  P       131530.466                                    0.06 9  107 195 
 MDM  BN  S       131531.434                                   -0.10 5 63.3 170 
 POKR BE  S       131531.463                                   -0.75 2 65.6 132 
 MLY  BZ  P       131532.077                                   -0.25 9  119 243 
 WRH  BZ  P       131532.242                                    0.14 9  117 171 
 PS08 BZ  P       131534.433                                    0.26 9  133 143 
 PPD  BZ  P    A  131534.768                                    0.20 5  135  88 
 H22K BZ  P       131535.198                                    0.15 5  139 288 
 HDA  BZ  P       131535.629                                    0.18 9  142 149 
 G23K BZ  P       131536.503                                    0.06 6  149 332 
 I21K BZ  P       131538.793                                    0.01 8  167 258 
 J25K BZ  P       131539.856                                   -0.23 8  176 123 
 CCB  BE  S       131542.661                                   -0.48 3  102 162 
 BPAW BZ  P       131542.669                                   -0.28 2  198 218 
 H21K BZ  P       131542.757                                   -0.45 2  200 276 
 MCK  BZ  P       131543.045                                   -0.20 5  200 186 
 COLD BZ  P       131543.641                                   -0.23 7  205 338 
 NEA2 BN  S       131544.043                                   -0.58 3  107 195 
 GREN HZ  P       131545.451                                    0.05 3  216 141 
 WRH  BN  S       131546.916                                   -0.76 3  117 171 
 MLY  BN  S       131547.856                                   -0.22 2  119 243 
 RND  BZ  P       131548.012                                    0.01 2  235 184 
 TRF  BZ  P       131549.000                                   -0.39 1  246 201 
 PS08 BN  S       131550.255                                   -1.11 2  133 143 
 J26L BZ  P       131550.639                                    0.03 5  256 113 
 RIDG BZ  P       131551.262                                   -0.07 2  262 137 
 PPD  BN  S       131552.009                                   -0.07 2  135  88 
 SCRK BZ  P       131552.438                                   -0.28 1  272 126 
 H22K BN  S       131552.528                                   -0.40 3  139 288 
 HDA  BN  S       131552.786                                   -0.86 3  142 149 
 DHY  BZ  P       131553.180                                   -0.08 5  276 168 
 E24K BZ  P       131554.033                                   -0.03 1  283 359 
 G23K BE  S       131555.584                                    0.17 3  149 332 
 I21K BN  S       1316 0.364                                    0.77 3  167 258 
 J25K BN  S       1316 1.213                                   -0.71 1  176 123 
 L26K BZ  P       1316 4.833                                   -0.25 3  371 136 
 H21K BN  S       1316 7.174                                   -0.32 3  200 276 
 BPAW BN  S       1316 7.259                                    0.23 2  198 218 
 MCK  BE  S       1316 7.756                                    0.21 3  200 186 
 COLD BE  S       1316 9.216                                    0.55 2  205 338 
 GREN HN  S       131612.494                                    1.09 2  216 141 
 RND  BE  S       131616.962                                    0.94 1  235 184 
 TRF  BE  S       131619.665                                    1.17 1  246 201 
                                                                                

