 2023  5 4 1917 16.5 LQ 67.531-166.568 12.5   AK 67 0.8 3.8                    1
 2023  5 4 1917 16.509  67.53140 -166.56840   12.500  0.840                    H
 GAP=                      2.5     2.8  1.6 -5.6937e+00                        E
 Action:ARG 26-01-05 11:59 OP:OBSP STATUS:               ID:20230504191716     I
 STAT SP IPHASW D HRMM SECON CODA AMPLIT PERI AZIMU VELO AIN AR TRES W  DIS CAZ7
 C16K BZ  P    A  191732.920                                   -0.2110 97.2  31 
 D17K BZ  P       191741.089                                    0.75 6  148  81 
 RDOG BZ  P       191742.913                                    0.43 3  164  67 
 C16K BN  S       191745.985                                   -0.11 2 97.2  31 
 F15K BZ  P       191750.056                                    0.10 9  219 156 
 TNA  BZ  P    A  191750.948                                    0.07 9  227 195 
 D17K BN  S       191758.684                                   -0.28 3  148  81 
 F18K BZ  P       1918 2.520                                    0.31 2  316 105 
 RDOG BN  S       1918 2.618                                   -0.17 3  164  67 
 ANM  BZ  P    A  1918 4.848                                    0.41 6  334 170 
 G17K BZ  P    A  1918 5.540                                   -0.35 6  345 127 
 A19K BZ  P       1918 9.192                                    0.30 2  369  34 
 H16K BZ  P    A  1918 9.760                                    0.04 5  376 146 
 E19K BZ  P       191812.002                                   -0.41 3  397  86 
 F15K BN  S       191814.590                                   -1.52 4  219 156 
 D20K BZ  P       191816.622                                   -0.26 1  432  67 
 B20K BZ  P       191820.917                                   -0.37 2  467  49 
 F20K BZ  P    A  191821.240                                   -0.10 3  467  91 
 GAMB BZ  P    A  191821.648                                   -1.08 3  479 211 
 C21K BZ  P       191826.773                                   -0.59 2  515  64 
 E21K BZ  P       191829.226                                   -0.49 1  533  73 
 GCSA BZ  P       191830.245                                    0.59 2  533 120 
 H20K BZ  P    A  191833.200                                   -0.38 1  564 108 
 J17K BZ  P    A  191835.480                                    0.64 1  574 139 
 A22K BZ  P       191836.373                                   -1.03 0  596  44 
 D22K BZ  P    A  191836.580                                   -0.29 1  591  68 
 B22K BZ  P       191838.064                                   -0.96 0  609  53 
 E22K BZ  P       191840.223                                   -0.29 0  621  77 
 K13K BZ  P    A  191841.260                                   -0.14 1  629 170 
 K15K BZ  P       191841.837                                    0.49 1  628 155 
 H21K BZ  P       191842.345                                   -0.55 1  641 102 
 C23K BZ  P    A  191847.800                                   -1.13 1  691  61 
 J20K BZ  P       191847.860                                    0.88 1  675 117 
 H22K BZ  P       191849.196                                    0.37 0  690  98 
 COLD BZ  P    A  191850.048                                    0.24 1  698  85 
 G23K BZ  P       191850.797                                   -1.50 0  718  89 
 TOLK BZ  P       191851.165                                   -0.51 1  713  72 
 TTA  BZ  P       191852.118                                    1.11 1  707 131 
 PS04 BZ  P       191852.327                                   -0.37 1  721  74 
 L16K BZ  P       191854.048                                    0.56 0  729 149 
 E24K BZ  P    A  191857.260                                    0.08 1  759  77 
 MLY  BZ  P       191857.291                                    0.28 1  757 104 
 H23K BZ  P       191858.805                                    0.30 0  770  96 
 PS01 BZ  P       191859.226                                    0.06 0  776  58 
 M14K BZ  P       1919 1.285                                    1.00 0  785 161 
 M11K BZ  P       1919 1.759                                    0.38 0  794 178 
 BPAW BZ  P       1919 2.399                                   -0.01 1  802 110 
 CAST BZ  P       1919 4.048                                    1.14 1  806 117 
 I23K BZ  P       1919 4.367                                    1.24 1  809 101 
 L19K BZ  P       1919 4.549                                    1.27 0  809 131 
 G24K BZ  P    A  1919 5.200                                   -0.16 1  827  87 
 H24K BZ  P    A  1919 6.720                                   -0.25 0  840  94 
 KTH  BZ  P       1919 7.640                                    0.46 0  841 114 
 M19K BZ  P       1919 8.757                                    0.77 0  849 131 
 WRH  BZ  P       191914.095                                    0.24 0  897 103 
 C26K BZ  P    A  191914.220                                   -0.77 0  907  63 
 CCB  BZ  P       191915.021                                    0.91 0  900 102 
 MCK  BZ  P       191916.422                                    1.30 0  908 109 
 C27K BZ  P    A  191919.240                                   -1.00 0  950  65 
 L22K BZ  P       191919.398                                    2.48 0  922 119 
 SKN  BZ  P       191920.306                                    1.49 0  938 123 
 SPNN BZ  P       191922.081                                    1.66 0  951 129 
 WAT7 BZ  P       191923.498                                    0.48 0  972 114 
 STLK BZ  P       191923.638                                    1.19 0  968 126 
 SPBG BZ  P       191924.017                                    1.23 0  971 129 
 N20K BZ  P       191925.135                                    1.09 0  981 128 
 SPCL BZ  P       191925.845                                    2.24 0  977 129 
 O18K BZ  P       191929.999                                    1.71 0 1017 141 
 E27K BZ  P    A  191931.200                                   -0.06 0 1041  74 
 I26K BZ  P       191933.737                                   -0.09 0 1063  92 
 P18K BZ  P       191934.785                                    1.05 0 1062 142 
                                                                                

 2020 11 1 1144 43.1 LQ 65.393-168.772 19.6   AK 87 1.2 4.6                    1
 2020 11 1 1144 43.195  65.39270 -168.77170   19.600  1.200                    H
 GAP=                      1.4     0.9  0.3 -6.9983e-01                        E
 Action:ARG 26-01-05 11:59 OP:OBSP STATUS:               ID:20201101114443     I
 STAT SP IPHASW D HRMM SECON CODA AMPLIT PERI AZIMU VELO AIN AR TRES W  DIS CAZ7
 TNA  BZ  P    A  114451.448                                    0.2110 43.1  64 
 TNA  BE  S       114456.467                                   -1.05 2 43.1  64 
 ANM  BZ  P    A  114510.868                                   -0.27 8  184 118 
 F15K BZ  P    A  114512.280                                   -0.01 5  192  77 
 GAMB BZ  P       114517.097                                    0.28 7  227 219 
 H16K BZ  P       114527.377                                   -0.87 5  317 102 
 ANM  BN  S       114533.229                                    0.23 2  184 118 
 C16K BZ  P       114533.417                                    0.66 1  353  23 
 G17K BZ  P       114535.048                                   -0.46 3  375  84 
 F15K BN  S       114536.680                                    1.62 2  192  77 
 RDOG BZ  P       114537.904                                    0.25 3  392  38 
 H17K BZ  P       114540.306                                   -0.44 1  416  92 
 E18K BZ  P       114541.538                                   -0.57 2  427  54 
 K13K BZ  P    A  114542.760                                   -0.28 2  434 150 
 GAMB BN  S       114543.779                                    0.67 1  227 219 
 K15K BZ  P       114550.403                                   -0.16 1  494 130 
 C18K BZ  P       114550.545                                    0.64 1  488  38 
 J17K BZ  P       114553.229                                   -0.02 0  515 111 
 G19K BZ  P       114554.590                                   -1.65 1  538  75 
 L14K BZ  P       114556.109                                   -0.56 1  542 143 
 B18K BZ  P       114556.790                                    1.43 0  532  30 
 E19K BZ  P       114558.799                                   -0.26 1  561  60 
 GCSA BZ  P    A  114559.048                                    0.03 1  561  91 
 F20K BZ  P       1146 4.796                                   -0.38 0  611  66 
 L17K BZ  P       1146 7.652                                    0.47 0  628 120 
 A19K BZ  P       1146 8.184                                    1.54 0  624  27 
 H20K BZ  P       1146 8.562                                   -0.13 0  640  82 
 J19K BZ  P       1146 8.674                                   -0.25 0  642  97 
 D20K BZ  P       1146 9.549                                    0.72 0  641  49 
 M16K BZ  P    A  114615.640                                    1.02 0  689 130 
 L18K BZ  P       114615.714                                    1.29 0  688 115 
 J20K BZ  P       114616.739                                    0.42 1  704  94 
 F21K BZ  P       114617.616                                    0.48 0  710  66 
 B20K BZ  P       114617.672                                    1.00 0  707  38 
 N15K BZ  P       114619.981                                    0.74 0  728 138 
 C21K BZ  P       114620.341                                    0.94 0  729  48 
 H21K BZ  P       114620.354                                    0.39 0  734  80 
 K20K BZ  P       114621.187                                    0.47 0  740 101 
 L19K BZ  P    A  114625.280                                    1.11 0  768 111 
 O14K BZ  P       114626.378                                    0.46 0  783 147 
 L20K BZ  P       114628.133                                    0.94 0  793 107 
 D22K BZ  P       114628.323                                    1.31 0  792  53 
 H22K BZ  P       114628.491                                    0.94 0  797  78 
 CHUM BZ  P       114628.741                                    0.98 0  799  94 
 M19K BZ  P       114630.033                                    1.37 0  806 112 
 CAST BZ  P       114631.850                                    0.52 0  828  97 
 MLY  BZ  P       114632.810                                    0.22 0  838  84 
 A22K BZ  P       114633.508                                    0.71 0  841  36 
 N18K BZ  P       114633.743                                    1.99 0  831 123 
 B22K BZ  P       114633.875                                    0.94 0  842  42 
 PPLA BZ  P       114634.746                                    0.97 0  847 101 
 BPAW BZ  P       114634.907                                    0.62 0  852  91 
 M20K BZ  P       114637.503                                    2.03 0  862 109 
 KTH  BZ  P       114638.095                                    0.93 0  876  95 
 H23K BZ  P       114638.974                                    1.31 0  880  78 
 N19K BZ  P       114639.195                                    1.85 0  877 118 
 P16K BZ  P       114641.448                                    1.66 0  899 136 
 C23K BZ  P       114641.835                                    0.86 0  908  49 
 TOLK BZ  P       114642.039                                    1.61 0  903  57 
 TRF  BZ  P       114642.591                                    1.32 0  909  95 
 SPIA BZ  P       114642.664                                    0.71 0  916 185 
 NEA2 BZ  P       114643.785                                    0.62 0  926  86 
 SPWE BZ  P       114645.325                                    2.14 0  925 112 
 SKN  BZ  P       114645.355                                    2.15 0  926 106 
 O19K BZ  P       114645.565                                    1.90 0  931 121 
 P17K BZ  P       114645.745                                    1.53 0  935 131 
 E24K BZ  P       114646.172                                    2.00 0  934  62 
 SPBG BZ  P       114646.626                                    2.38 0  934 111 
 SPCL BZ  P       114647.286                                    2.35 0  940 112 
 STLK BZ  P       114647.651                                    2.48 0  942 109 
 H24K BZ  P       114648.036                                    1.28 1  956  77 
 P18K BZ  P       114648.386                                    0.94 0  961 127 
 MCK  BZ  P       114648.411                                    1.09 0  960  91 
 WRH  BZ  P       114649.446                                    0.43 0  975  86 
 RDDF BZ  P       114650.093                                    1.89 0  967 115 
 RND  BZ  P       114650.629                                    1.27 0  977  93 
 CCB  BZ  P       114650.800                                    0.80 0  983  85 
 RDT  BZ  P       114652.079                                    2.82 0  980 115 
 WAT7 BZ  P       114654.366                                    1.84 0 1003  97 
 WAT1 HZ  P       114656.070                                    1.94 0 1017  96 
 Q18K BZ  P       114658.219                                    2.01 0 1034 130 
 Q17K BZ  P       114658.322                                    1.62 0 1038 133 
 D25K BZ  P       114658.839                                    1.26 0 1045  55 
 ACH  BZ  P       1147 1.203                                    1.66 0 1061 132 
 KARR BZ  P       1147 1.329                                    2.29 0 1058 129 
 DHY  BZ  P       1147 1.484                                    2.07 0 1060  94 
 KAHG BZ  P       1147 1.599                                    1.81 0 1063 129 
 KAWH BZ  P       1147 1.756                                    1.89 0 1064 130 
 WAT6 BZ  P       1147 1.851                                    1.67 0 1066  97 
 KJL  BZ  P       1147 1.974                                    1.74 0 1067 133 
 PPD  BZ  P       1147 2.118                                    1.79 0 1067  78 
                                                                                

 2015  3 1  711 55.6 LQ 64.928-162.422 24.7   AK  3 0.8 2.3                    1
 2015  3 1  711 55.600  64.92770 -162.42160   24.700  0.750                    H
 GAP=                     17.9    15.6 32.3  2.2176e+02                        E
 Action:ARG 26-01-05 11:59 OP:OBSP STATUS:               ID:20150301071155     I
 STAT SP IPHASW D HRMM SECON CODA AMPLIT PERI AZIMU VELO AIN AR TRES W  DIS CAZ7
 ANM  BZ  P        71217.271                                    0.0410  145 255 
 KOTZ BZ  P        71226.957                                    0.01 1  218 357 
 ANM  BE  S        71234.246                                   -0.36 2  145 255 
 KOTZ BE  S        71250.101                                   -1.84 2  218 357 
 RDOG BE  S        71321.544                                    0.33 6  348 356 
                                                                                

