 2023 1023  149  0.8 LQ 66.281-140.937 13.0     133 0.0                        1
 2023 1023  149  0.800  66.28110 -140.93720   13.000  0.000                    H
 Action:ARG 26-01-05 12:06 OP:OBSP STATUS:               ID:20231023014900     I
 STAT SP IPHASW D HRMM SECON CODA AMPLIT PERI AZIMU VELO AIN AR TRES W  DIS CAZ7
 I27K BZ  Pg       14914.470                              82   -0.5918 81.8 203 
 I27K BN  IAML     14924.360      4127.3 0.36             82   -0.3211 81.8 203 
 I26K BZ  Pn       14925.020                              45   -0.5912  149 224 
 E27K BZ  Pn       14933.140                              45   -0.6511  215 352 
 J26L BZ  Pn       14935.810                              45   -0.3011  233 213 
 DAWY HZ  Pn       14939.310                              45    0.3211  257 163 
 J25K BZ  IAML     14941.220       270.4 0.58             45   -0.3711  278 230 
 E25K BZ  Pn       14943.310                              45    0.5311  288 317 
 I26K BN  Sn       14943.350                              50   -0.15 8  149 224 
 G24K BZ  Pn       14943.620                              45   -0.1710  296 282 
 SCRK BZ  IAML     14944.090       293.3 0.64             45    0.3811  294 210 
 H24K BZ  Pn       14945.200                              45   -1.50 0  319 264 
 POKR BZ  IAML     14946.860       318.9 0.80             45   -0.6710  326 249 
 DOT  BZ  IAML     14947.600       438.3 0.60             45   -0.2710  329 208 
 GREN HZ  Pn       14948.970                              45   -0.39 0  341 223 
 GRES HZ  Pn       14949.060                              45   -0.73 0  345 223 
 RIDG BZ  IAML     14949.620       478.3 0.76             45    0.5610  338 215 
 HDA  BZ  IAML     14950.690       253.3 0.66             45    0.2710  350 236 
 K24K BZ  Pn       14951.880                              45    0.3310  359 221 
 CCB  BZ  IAML     14952.040       116.6 0.36             45   -0.5610  368 243 
 INK  HZ  Pn       14954.890                              45   -0.5110  390  51 
 C27K BZ  Pn       14956.230                              45    0.6510  391 343 
 I23K BZ  IAML     14956.630       205.1 0.88             45   -0.9110  408 255 
 MENT BZ  IAML     14957.110       440.9 0.62             45    0.9510  396 201 
 E27K BN  Sn       14957.810                              50   -0.35 0  215 352 
 G23K BZ  IAML     14958.090        75.8 0.58             45    0.3910  408 280 
 D25K BZ  IAML     14958.790       123.1 0.70             45    0.8610  410 328 
 COLD BZ  Pn       14959.430                              45   -0.00 9  423 288 
 BVCY HZ  Pn       14959.860                              45   -0.63 9  431 179 
 C26K BZ  Pn       150 2.190                              45    0.80 9  439 339 
 M27K BZ  IAML     150 2.470       290.0 0.60             45    0.80 9  440 186 
 TOLK BZ  IAML     150 3.930         1.1 0.94             45    0.55 9  454 309 
 H22K BZ  IAML     150 4.110        17.3 1.12             45   -1.82 9  475 269 
 DHY  BZ  IAML     150 5.630        87.6 0.96             45    0.00 9  472 223 
 HARP BZ  IAML     150 6.320       211.0 0.78             45   -0.05 9  479 207 
 RND  BZ  IAML     150 8.230        53.8 1.18             45   -0.13 9  494 233 
 I21K BZ  IAML     150 9.910        78.6 0.80             45   -1.77 9  522 261 
 YUK3 HZ  Pn       15010.510                              45    0.99 0  503 177 
 WACK BZ  Pn       15010.880                              45    0.84 0  507 200 
 WASW SZ  Pn       15011.230                              45    0.74 0  510 199 
 E22K BZ  Pn       15012.130                              45    1.34 0  514 298 
 WAT6 BZ  IAML     15012.280        31.7 1.04             45   -0.19 9  527 221 
 PS11 BZ  Pn       15012.710                              45    1.51 0  518 207 
 H21K BZ  IAML     15014.030        52.5 0.62             45   -0.46 9  545 268 
 N25K BZ  Pn       15015.130                              45   -0.27 0  551 200 
 GLB  BZ  IAML     15016.130        36.1 1.00             45   -0.05 8  558 196 
 MCAR BZ  IAML     15016.630        50.3 1.10             45    0.77 8  556 191 
 BRWY HZ  Pn       15016.730                              45    0.89 0  555 169 
 YUK4 HZ  Pn       15016.750                              45    1.09 0  553 166 
 F21K BZ  IAML     15017.470        42.7 0.56             45    0.67 8  563 286 
 D22K BZ  Pn       15017.990                              45   -0.64 8  578 305 
 C23K BZ  IAML     15018.020        75.3 0.98             45    0.93 8  566 318 
 PTPK BZ  Pn       15019.280                              45    1.11 0  573 188 
 SCM  BZ  IAML     15019.970        60.5 0.76             45    0.28 8  586 215 
 VRDI BZ  IAML     15020.030        16.0 1.10             45    1.36 8  577 193 
 BARN BZ  IAML     15020.430        38.5 0.78             45    1.02 8  583 183 
 KLU  BZ  IAML     15020.910        46.5 0.88             45    1.05 8  587 207 
 BAL  BZ  Pn       15021.020                              45    0.95 0  589 187 
 YUK5 HZ  Pn       15021.450                              45    0.79 0  593 163 
 CAST BZ  Pn       15021.930                              45   -1.59 8  618 244 
 YUK6 HZ  Pn       15023.620                              45    1.05 0  608 166 
 SAW  BZ  Pn       15024.400                              45    1.08 8  616 219 
 BMR  BZ  Pn       15025.300                              45    1.48 8  620 198 
 GRNC BZ  Pn       15025.360                              45    1.35 8  620 184 
 HYT  HZ  Pn       15025.830                              45    0.56 8  631 162 
 TGL  BZ  Pn       15025.960                              45    1.64 8  623 189 
 CRQ  BZ  Pn       15026.050                              45    1.43 8  626 190 
 DIV  BZ  Pn       15026.170                              45    2.03 8  622 204 
 H20K BZ  Pn       15026.240                              45   -0.29 0  642 268 
 J20K BZ  Pn       15027.260                              45   -1.55 8  661 255 
 GHO  BZ  Pn       15027.530                              45    1.62 8  637 221 
 F20K BZ  Pn       15028.230                              45   -0.40 8  660 284 
 PPLA BZ  Pn       15028.600                              45    0.02 8  658 240 
 BARK BZ  Pn       15028.640                              45   -0.21 0  660 187 
 KHIT BZ  Pn       15029.110                              45    0.14 0  661 191 
 BAGL BZ  Pn       15029.460                              45    2.04 0  648 185 
 YUK7 HZ  Pn       15029.650                              45    1.25 0  656 166 
 KNK  BZ  Pn       15030.220                              45    1.88 8  657 217 
 YAH  BZ  Pn       15030.490                              45    1.35 8  662 184 
 RKAV BZ  Pn       15030.660                              45    0.89 0  667 182 
 C21K BZ  Pn       15030.680                              45    1.02 0  668 304 
 BERG BZ  Pn       15031.440                              45    1.33 8  671 193 
 BAT  BZ  Pn       15031.500                              45    0.80 0  675 215 
 GLI  BZ  Pn       15031.580                              45    0.95 8  675 209 
 FID  BZ  Pn       15031.620                              45    0.38 8  680 207 
 BAE  BZ  Pn       15032.290                              45    1.70 8  675 215 
 WHY  HZ  Pn       15032.900                              45   -0.19 8  695 151 
 K20K BZ  Pn       15033.190                              45   -0.90 8  703 248 
 PIN  BZ  Pn       15033.470                              45    0.92 8  690 176 
 SKN  BZ  Pn       15033.480                              45   -0.68 8  704 232 
 CHX  BZ  Pn       15033.990                              45    1.07 0  693 180 
 MESA BZ  Pn       15034.580                              45    2.91 8  682 184 
 SAMH BZ  Pn       15035.000                              45    2.99 8  686 179 
 PWL  BZ  Pn       15035.460                              45    0.89 8  707 214 
 HIN  BZ  Pn       15036.360                              45    1.09 8  713 205 
 E19K BZ  Pn       15036.500                              45   -0.37 8  726 287 
 J19K BZ  Pn       15036.610                              45   -1.27 8  734 256 
 G19K BZ  Pn       15036.830                              45   -0.15 8  727 276 
 RC01 BZ  Pn       15037.130                              45    0.52 8  724 221 
 L20K BZ  Pn       15038.900                              45   -1.46 8  754 241 
 STLK BZ  Pn       15041.300                              45    0.82 8  755 230 
 M20K BZ  Pn       15042.030                              45   -0.35 9  770 236 
 SPBL BZ  Pn       15042.470                              45    0.45 0  767 229 
 B20K BZ  Pn       15044.610                              45   -0.12 9  790 309 
 SPCG BZ  Pn       15044.810                              45    1.30 0  779 229 
 SPWE BZ  Pn       15045.010                              45   -0.97 0  799 231 
 SLK  BZ  Pn       15045.590                              45    0.50 9  793 220 
 TTA  BZ  Pn       15045.760                              45   -1.69 9  811 249 
 SPU  BZ  Pn       15046.080                              45    1.32 0  790 229 
 SPCL BZ  Pn       15046.140                              45    0.28 0  798 230 
 SPNN BZ  Pn       15047.110                              45    1.49 0  796 232 
 L19K BZ  Pn       15047.450                              45   -0.31 9  814 242 
 M19K BZ  Pn       15048.180                              45    0.15 9  817 239 
 ATLI BZ  Pn       15049.940                              45    0.23 0  830 150 
 C19K BZ  Pn       15051.330                              45   -0.66 9  849 300 
 RDJH BZ  Pn       15054.680                              45    0.37 0  867 228 
 BRLK BZ  Pn       15055.490                              45   -0.94 9  885 219 
 H17K BZ  Pn       15056.140                              45   -0.41 9  886 269 
 BRSE BZ  Pn       15057.230                              45    1.25 0  881 218 
 RDSO BZ  Pn       15057.230                              45    1.66 0  877 227 
 RDWB BZ  Pn       15057.270                              45    1.65 0  877 228 
 G17K BZ  Pn       15057.860                              45   -0.59 9  901 273 
 C18K BZ  Pn       15059.060                              45    0.31 0  903 296 
 J17K BZ  Pn       15059.610                              45   -0.76 9  917 257 
 N19K BZ  Pn       15059.680                              45    0.49 9  907 234 
 IVE  BZ  Pn       151 2.200                              45    0.73 0  925 226 
 ILSW BZ  Pn       151 2.730                              45    0.38 0  932 226 
 ILCB BZ  Pn       151 3.250                              45   -0.34 0  943 225 
 S31K BZ  Pn       151 6.940                              45    1.44 9  959 163 
 D17K BZ  Pn       151 7.190                              45   -0.42 0  976 289 
 N18K BZ  Pn       151 8.400                              45    1.5110  970 236 
 O18K BZ  Pn       15113.720                              45    1.3810 1014 231 
 L16K BZ  Pn       15114.540                              45   -0.58 0 1037 249 
 DLBC HZ  Pn       15115.230                              45   -0.09 0 1038 142 
 Q20K BZ  Pn       15115.680                              45    0.46 0 1038 219 
 FALS BZ  Pn       15243.080        11.0 0.80             42    0.08 6 1756 234 
                                                                                

