 2021 1116 11 8 52.1 LQ 67.329-156.162  6.8   AK 91 0.6 3.5                    1
 2021 1116 11 8 52.106  67.32870 -156.16190    6.800  0.600                    H
 GAP=                      0.4     0.5  0.6 -2.3526e-02                        E
 Action:ARG 26-01-05 11:59 OP:OBSP STATUS:               ID:20211116110852     I
 STAT SP IPHASW D HRMM SECON CODA AMPLIT PERI AZIMU VELO AIN AR TRES W  DIS CAZ7
 F20K BZ  P       11 858.618                                    0.23 3 36.4 148 
 E19K BZ  P       11 9 0.196                                   -0.12 2 47.9 287 
 F20K BE  S       11 9 2.960                                   -0.33 1 36.4 148 
 E19K BN  S       11 9 6.179                                   -0.55 1 47.9 287 
 F21K BZ  P       11 911.161                                   -0.59 1  115  94 
 G19K BZ  P    A  11 915.340                                    0.26 3  137 197 
 E21K BZ  P    A  11 917.200                                   -0.07 3  154  35 
 D20K BZ  P       11 918.012                                    0.59 1  155 353 
 F18K BZ  P       11 920.200                                    0.55 1  172 243 
 E22K BZ  P       11 925.093                                    1.06 1  203  61 
 F21K BN  S       11 925.435                                   -1.64 1  115  94 
 H20K BZ  P    A  11 925.540                                    0.44 3  211 163 
 C21K BZ  P    A  11 925.680                                    0.72 3  211  14 
 D22K BZ  P       11 927.954                                    1.12 3  224  38 
 H21K BZ  P    A  11 929.020                                    0.49 3  238 139 
 PS05 BZ  P       11 929.676                                    0.31 0  244 100 
 C19K BZ  P       11 929.725                                    0.57 1  242 325 
 COLD BZ  P       11 931.099                                    0.33 3  255  89 
 H22K BZ  P    A  11 932.200                                    0.31 2  264 124 
 G19K BE  S       11 932.604                                   -0.43 0  137 197 
 G23K BZ  P       11 933.173                                   -0.06 1  275 101 
 G17K BZ  P    A  11 933.720                                   -0.70 2  284 226 
 D17K BZ  P       11 936.087                                    0.14 1  297 281 
 RDOG BZ  P       11 936.273                                    0.45 2  295 288 
 D20K BE  S       11 936.335                                   -0.87 1  155 353 
 B20K BZ  P    A  11 936.440                                    0.04 2  300 352 
 E21K BE  S       11 936.501                                   -0.45 1  154  35 
 I21K BZ  P    A  11 937.340                                    0.58 2  303 140 
 H17K BZ  P       11 937.872                                   -0.36 1  314 214 
 TOLK BZ  P       11 938.223                                    0.46 2  310  58 
 B18K BZ  P       11 939.785                                    0.48 1  323 316 
 PS06 BZ  P    A  11 939.988                                    0.16 2  327 117 
 F18K BN  S       11 941.393                                    0.20 0  172 243 
 E24K BZ  P       11 942.044                                    1.33 2  334  72 
 B22K BZ  P    A  11 942.200                                   -0.74 2  352  16 
 MLY  BZ  P    A  11 943.108                                    0.05 2  352 133 
 C23K BZ  P       11 943.426                                   -0.27 3  358  36 
 J20K BZ  P       11 944.384                                    0.15 3  362 164 
 J19K BZ  P       11 945.394                                   -0.0210  371 175 
 A19K BZ  P       11 945.651                                   -0.24 3  375 330 
 G24K BZ  P       11 946.423                                   -0.48 9  383  96 
 I23K BZ  P       11 948.034                                    0.43 2  389 125 
 H16K BZ  P       11 948.248                                   -1.51 1  406 225 
 H24K BZ  P       11 948.910                                   -0.33 2  401 110 
 C16K BZ  P       11 948.947                                    0.05 1  399 289 
 A22K BZ  P       11 949.007                                   -1.39 1  411   6 
 E22K BN  S       11 950.335                                    1.33 1  203  61 
 F15K BZ  P       11 950.701                                   -0.40 2  416 248 
 H20K BE  S       11 951.356                                    0.46 1  211 163 
 CHUM BZ  P       11 952.113                                    0.37 2  421 153 
 BPAW BZ  P       11 953.292                                    0.50 1  429 144 
 A21K BZ  P       11 954.106                                   -0.48 1  444 357 
 MDM  BZ  P       11 954.220                                   -0.23 1  442 122 
 NEA2 BZ  P    A  11 954.708                                    0.38 1  441 130 
 D22K BN  S       11 955.121                                    1.12 1  224  38 
 K20K BZ  P       11 955.792                                    0.17 2  452 166 
 J17K BZ  P       11 956.057                                   -0.23 2  457 198 
 POKR BZ  P       11 956.508                                   -0.30 1  461 118 
 H21K BN  S       11 956.514                                   -0.50 1  238 139 
 CAST BZ  P       11 958.786                                    0.41 1  473 154 
 CCB  BZ  P    A  11 959.148                                   -0.10 1  481 124 
 WRH  BZ  P    A  11 959.688                                    0.01 1  484 127 
 KTH  BZ  P       11 959.817                                    0.05 1  484 147 
 TTA  BZ  P    A  1110 0.320                                   -0.04 1  489 179 
 PS08 BZ  P       1110 4.291                                   -0.39 1  523 121 
 MCK  BZ  P    A  1110 4.568                                    0.39 1  519 136 
 HDA  BZ  P    A  1110 4.888                                   -0.46 1  529 123 
 C26K BZ  P    A  1110 6.460                                    0.01 0  537  52 
 L20K BZ  P    A  1110 8.420                                    0.41 0  549 167 
 RND  BZ  P       1110 8.928                                    0.69 0  551 138 
 L18K BZ  P       111010.092                                   -0.26 0  568 182 
 C27K BZ  P    A  111010.200                                    0.04 0  567  57 
 J25K BZ  P    A  111010.380                                   -0.63 0  573 116 
 L17K BZ  P       111012.099                                   -0.44 0  586 190 
 L22K BZ  P       111014.298                                    1.15 0  590 152 
 WAT7 BZ  P       111015.591                                    0.66 0  605 142 
 K24K BZ  P       111015.894                                   -0.34 0  616 124 
 M19K BZ  P       111015.959                                    0.66 0  609 171 
 K15K BZ  P       111016.163                                    0.25 0  614 206 
 E27K BZ  P       111016.298                                   -0.22 0  619  74 
 WAT1 HZ  P       111016.435                                    0.57 0  613 141 
 M20K BZ  P       111017.937                                    0.95 0  622 165 
 DHY  BZ  P       111018.319                                    1.01 0  624 135 
 SKN  BZ  P       111019.142                                    0.84 0  633 157 
 J26L BZ  P       111019.851                                   -0.56 0  650 112 
 RIDG BZ  P       111020.177                                   -0.68 0  654 122 
 WAT6 BZ  P       111021.653                                    0.18 0  659 139 
 I27K BZ  P       111022.230                                   -0.70 0  671  99 
 SCRK BZ  P    A  111022.468                                   -0.20 0  669 118 
 STLK BZ  P       111024.454                                    0.49 0  680 160 
 PAX  BZ  P       111026.246                                    0.57 0  694 129 
 SPWE BZ  P       111026.716                                    0.94 0  695 163 
 M16K BZ  P       111027.378                                   -0.57 0  713 192 
 GHO  BZ  P       111028.287                                    0.73 0  707 147 
 SPCL BZ  P       111028.339                                    1.23 0  706 163 
 N19K BZ  P       111030.157                                    0.31 0  728 172 
 K27K BZ  P       111031.214                                    0.12 0  739 113 
 N18K BZ  P       111031.466                                    0.43 0  739 178 
 O18K BZ  P       111042.537                                    0.28 0  832 176 
 DAWY HZ  P       111043.882                                    0.04 0  845 107 
 M27K BZ  P       111047.693                                    0.90 0  869 122 
 P18K BZ  P       111049.397                                    0.94 0  883 176 
                                                                                

 2023  919 1536  9.7 LQ 67.415-168.941 24.4   AK 65 0.6 3.6                    1
 2023  919 1536  9.722  67.41530 -168.94080   24.400  0.570                    H
 GAP=                      1.2     3.7  1.8 -2.7044e+00                        E
 Action:ARG 26-01-05 11:59 OP:OBSP STATUS:               ID:20230919153609     I
 STAT SP IPHASW D HRMM SECON CODA AMPLIT PERI AZIMU VELO AIN AR TRES W  DIS CAZ7
 C16K BZ  P       153636.445                                    0.0910  178  55 
 D17K BZ  P       153645.269                                   -0.44 2  250  80 
 RDOG BZ  P       153647.175                                   -0.23 4  263  71 
 F15K BZ  P       153648.036                                    0.05 7  268 133 
 C16K BE  S       153656.926                                   -0.27 5  178  55 
 C18K BZ  P       153658.698                                    0.34 2  349  63 
 B18K BZ  P       1537 1.164                                    1.15 5  363  50 
 F18K BZ  P       1537 5.982                                   -0.28 4  413  98 
 G17K BZ  P       1537 7.471                                   -0.31 4  424 116 
 GAMB BZ  P       1537 7.478                                   -0.17 2  423 198 
 C19K BZ  P       1537 8.586                                    0.35 1  427  59 
 H16K BZ  P       1537 8.699                                    0.01 4  432 132 
 D17K BN  S       153714.023                                    0.17 2  250  80 
 H17K BZ  P       153715.668                                   -0.31 1  489 120 
 RDOG BN  S       153716.476                                   -0.42 7  263  71 
 E19K BZ  P       153716.960                                   -0.21 2  498  84 
 F15K BN  S       153718.278                                    0.35 3  268 133 
 G19K BZ  P       153721.078                                   -0.99 1  537  99 
 D20K BZ  P       153721.172                                   -0.08 0  530  68 
 B20K BZ  P       153723.940                                   -0.27 1  554  53 
 F20K BZ  P       153725.530                                   -0.43 0  569  87 
 C21K BZ  P       153730.551                                   -0.64 0  612  65 
 J17K BZ  P       153734.440                                    0.21 1  637 129 
 C18K BE  S       153735.359                                   -1.04 1  349  63 
 K13K BZ  P       153735.411                                    0.59 0  642 159 
 H20K BZ  P       153736.324                                   -0.46 0  658 102 
 F21K BZ  P       153737.192                                    0.03 0  661  84 
 B18K BN  S       153738.378                                   -0.98 1  363  50 
 K15K BZ  P       153738.555                                    0.69 0  667 145 
 A22K BZ  P       153739.215                                    0.14 0  677  47 
 D22K BZ  P       153740.858                                    0.25 1  690  68 
 J19K BZ  P       153743.490                                   -0.25 0  716 115 
 E22K BZ  P       153744.659                                    0.12 0  722  75 
 L14K BZ  P       153747.058                                    0.67 0  738 153 
 L16K BZ  P       153751.869                                    0.79 0  777 140 
 GAMB BE  S       153752.262                                   -0.70 1  423 198 
 C23K BZ  P       153752.304                                    0.12 0  786  61 
 H22K BZ  P       153752.865                                    0.28 0  789  94 
 C19K BE  S       153752.886                                   -1.13 1  427  59 
 I21K BZ  P       153753.815                                    0.61 0  794 100 
 M11K BZ  P       153753.831                                    0.88 0  792 169 
 COLD BZ  P       153754.099                                    0.21 0  800  82 
 TOLK BZ  P       153755.638                                    0.09 0  813  71 
 M14K BZ  P       153756.384                                    0.92 0  813 152 
 G23K BZ  P       153756.572                                    0.24 0  820  86 
 K20K BZ  P       153756.679                                    0.37 0  820 116 
 MLY  BZ  P       1538 1.320                                    0.89 0  854  99 
 E24K BZ  P       1538 1.428                                    0.23 0  860  75 
 L19K BZ  P       1538 3.452                                   -0.27 0  881 124 
 BPAW BZ  P       1538 4.595                                   -0.69 0  894 105 
 L20K BZ  P       1538 5.179                                    0.09 0  892 120 
 CAST BZ  P       1538 5.475                                    0.34 0  893 111 
 M19K BZ  P       1538 7.789                                   -0.63 0  920 124 
 PPLA BZ  P       1538 8.304                                   -0.82 0  925 114 
 E19K BE  S       1538 8.942                                   -0.99 1  498  84 
 D25K BZ  P       153810.132                                   -1.02 0  943  66 
 H24K BZ  P       153810.803                                   -0.08 0  940  90 
 MDM  BZ  P       153813.669                                    0.04 0  963  96 
 M20K BZ  P       153815.065                                    0.94 0  967 121 
 N18K BZ  P       153816.268                                    0.93 0  977 133 
 O14K BZ  P       153816.817                                    0.88 0  983 153 
 WRH  BZ  P       153817.163                                   -0.13 0  994  99 
 CCB  BZ  P       153817.835                                    0.18 0  997  98 
 MCK  BZ  P       153818.691                                    0.56 0 1001 104 
 C26K BZ  P       153818.801                                    0.42 0 1003  63 
 L22K BZ  P       153819.786                                    0.87 0 1007 113 
 SKN  BZ  P       153821.010                                    0.74 0 1018 118 
 SPNN BZ  P       153821.693                                    0.57 0 1024 123 
 C27K BZ  P       153823.427                                   -0.34 0 1048  64 
 STLK BZ  P       153824.121                                    0.59 0 1045 120 
 WAT7 BZ  P       153826.249                                    0.66 0 1062 109 
 RDWB BZ  P       153829.907                                    0.39 0 1094 126 
 J25K BZ  P       153831.077                                    0.68 0 1102  95 
 DHY  BZ  P       153831.505                                    0.56 0 1106 105 
                                                                                

 2024 1228 1750 58.3 LQ 67.489-166.470  6.2   AK 16 0.8 2.5                    1
 2024 1228 1750 58.377  67.48940 -166.47030    6.200  0.850                    H
 GAP=                      1.8     1.1  1.2  3.0150e-01                        E
 Action:ARG 26-01-05 11:59 OP:OBSP STATUS:               ID:20241228175058     I
 STAT SP IPHASW D HRMM SECON CODA AMPLIT PERI AZIMU VELO AIN AR TRES W  DIS CAZ7
 C16K BZ  P       175115.564                                    0.0410 99.2  27 
 D17K BZ  P       175124.219                                    0.75 2  145  79 
 RDOG BZ  P       175126.158                                   -0.25 4  162  65 
 C16K BE  S       175128.711                                    0.74 1 99.2  27 
 TNA  BZ  P       175133.812                                   -1.35 2  224 197 
 D17K BE  S       175142.881                                    1.19 1  145  79 
 RDOG BN  S       175146.143                                   -0.62 4  162  65 
 F18K BZ  P       175146.161                                    0.06 3  311 105 
 C19K BZ  P       175147.519                                   -1.58 2  334  54 
 ANM  BZ  P       175147.737                                   -0.57 2  328 170 
 H16K BZ  P       175153.855                                    0.45 3  369 147 
 E19K BZ  P       175155.731                                   -0.62 1  393  86 
 H17K BZ  P       175158.934                                    0.70 1  408 130 
 G19K BZ  P       1752 1.360                                   -0.41 1  436 105 
 TNA  BE  S       1752 1.621                                   -1.18 2  224 197 
 E21K BZ  P       175212.468                                   -1.13 1  531  72 
 GCSA BZ  P       175213.591                                    0.47 2  527 120 
 H20K BZ  P       175217.357                                    0.29 6  558 107 
 J17K BZ  P       175219.473                                    1.26 0  568 139 
 D22K BZ  P       175219.540                                   -1.29 0  588  68 
                                                                                

