 2023 12 7 2135 48.9 LQ 59.203-139.736  1.8   AK 61 0.5 3.0                    1
 2023 12 7 2135 48.978  59.20330 -139.73620    1.800  0.540                    H
 GAP=                      0.5     0.4  0.4 -3.6267e-02                        E
 Action:ARG 26-01-05 11:50 OP:OBSP STATUS:               ID:20231207213548     I
 STAT SP IPHASW D HRMM SECON CODA AMPLIT PERI AZIMU VELO AIN AR TRES W  DIS CAZ7
 PNL  BZ  P    A  213559.668                                    0.4710 54.9  20 
 PIN  BZ  P    A  2136 6.568                                   -0.1310  103 343 
 PNL  BN  S       2136 6.633                                   -0.57 8 54.9  20 
 SAMH BZ  P    A  2136 9.368                                    0.60 9  118 330 
 RKAV BZ  P    A  213614.048                                    0.86 9  151 324 
 MESA BZ  P    A  213614.648                                   -0.29 9  164 312 
 BAGL BZ  P    A  213618.188                                   -0.51 8  194 318 
 PLBC HZ  P       213618.322                                   -0.07 8  193  80 
 LOGN BZ  P       213618.486                                   -0.14 8  193 339 
 BARK BZ  P       213619.437                                   -0.49 8  203 312 
 PIN  BN  S       213619.883                                   -0.69 5  103 343 
 GRNC BZ  P       213620.129                                    0.12 1  203 327 
 ISLE BZ  P    A  213620.468                                   -0.63 7  212 318 
 YUK6 HZ  P       213621.093                                    0.52 1  207  20 
 WAX  BZ  P    A  213621.848                                   -0.44 7  222 309 
 BGLC BZ  P       213622.464                                    0.14 1  223 298 
 KIAG BZ  P       213624.254                                   -0.41 7  240 323 
 SAMH BN  S       213624.267                                    0.01 2  118 330 
 TGL  BZ  P    A  213624.268                                   -0.73 7  243 316 
 GRIN BZ  P    A  213624.348                                    0.67 7  233 302 
 KHIT BZ  P    A  213624.488                                   -0.03 7  239 306 
 BARN BZ  P    A  213624.488                                    0.85 7  232 333 
 S31K BZ  P       213625.051                                   -0.03 7  245 122 
 BAL  BZ  P    A  213625.548                                   -0.25 6  249 325 
 SUCK BZ  P       213625.555                                    0.25 1  246 294 
 CRQ  BZ  P    A  213625.808                                   -0.53 6  253 314 
 BRWY HZ  P       213626.027                                    1.03 3  244   8 
 BERG BZ  P       213626.399                                   -0.36 2  258 302 
 PTPK BZ  P       213628.496                                    0.41 2  267 326 
 BESE BZ  P       213629.990                                   -0.68 1  288 101 
 YUK3 HZ  P    A  213631.430                                    0.59 5  288 352 
 VRDI BZ  P       213631.446                                   -1.37 1  304 319 
 MCAR BZ  P       213632.294                                   -0.06 1  302 324 
 RKAV BN  S       213632.361                                    0.24 2  151 324 
 WHY  HZ  P       213634.033                                   -0.02 1  315  57 
 JIS  BZ  P       213634.630                                   -0.56 1  325 106 
 EDCR BZ  P       213635.344                                   -1.14 1  335 133 
 GLB  BZ  P       213635.939                                   -0.58 0  335 319 
 BMR  BZ  P       213635.980                                   -0.36 1  333 308 
 MESA BN  S       213635.982                                    0.75 1  164 312 
 SIT  BZ  P       213637.582                                   -0.98 1  352 130 
 S32K BZ  P       213639.136                                   -0.11 0  357 120 
 BVCY HZ  P       213640.307                                    0.37 1  362 350 
 EYAK BZ  P       213640.413                                   -0.09 1  367 296 
 N25K BZ  P       213641.274                                   -0.66 3  377 317 
 M27K BZ  P       213641.946                                    0.97 1  369 342 
 BAGL BN  S       213642.364                                    0.43 7  194 318 
 WASW SZ  P       213642.811                                   -0.57 1  387 323 
 DIV  BZ  P       213643.369                                   -0.90 0  396 305 
 BARK BN  S       213644.201                                    0.08 8  203 312 
 HIN  BZ  P       213644.271                                   -0.48 0  400 292 
 WACK BZ  P       213645.058                                    0.41 1  398 322 
 YUK6 HE  S       213645.404                                    0.13 8  207  20 
 ISLE BE  S       213646.625                                    0.43 2  212 318 
 FID  BZ  P       213646.641                                   -0.16 2  417 296 
 KLU  BZ  P       213647.137                                   -0.62 1  424 309 
 VMT  BZ  P       213647.198                                   -0.11 3  422 302 
 P23K BZ  P       213649.024                                   -0.53 1  440 284 
 GLI  BZ  P       213650.320                                   -0.33 1  448 297 
 BAE  BZ  P       213657.776                                   -0.52 0  510 298 
 PWL  BZ  P       213657.788                                   -0.59 0  511 294 
 BAT  BZ  P       213657.880                                   -0.85 0  513 298 
 SCM  BZ  P       213658.472                                    0.49 0  507 308 
 PAX  BZ  P       213658.969                                   -0.52 0  519 326 
 U33K BZ  P       213659.147                                   -0.46 0  521 128 
 KNK  BZ  P       2137 1.405                                   -0.40 0  539 300 
 WAT6 BZ  P       2137 5.885                                   -0.10 1  572 314 
 SCRK BZ  P       2137 6.819                                    0.43 1  576 338 
 RC01 BZ  P       2137 8.038                                   -0.04 0  591 295 
 SLK  BZ  P    A  2137 9.488                                    0.01 0  602 288 
                                                                                

 2024  711  945 54.2 LQ 59.953-141.630  4.5   AK 28 0.8 2.5                    1
 2024  711  945 54.216  59.95350 -141.63040    4.500  0.810                    H
 GAP=                      0.5     0.2  0.2 -7.0685e-03                        E
 Action:ARG 26-01-05 11:50 OP:OBSP STATUS:               ID:20240711094554     I
 STAT SP IPHASW D HRMM SECON CODA AMPLIT PERI AZIMU VELO AIN AR TRES W  DIS CAZ7
 MESA BZ  P    A   94559.808                                   -0.2410 30.6 324 
 RKAV BZ  P        946 1.534                                   -0.44 9 41.5  22 
 SAMH BZ  P        946 3.709                                    0.08 3 50.9  67 
 MESA BE  S        946 5.995                                    1.38 5 30.6 324 
 PIN  BZ  P        946 7.545                                   -0.51 9 78.2  77 
 RKAV BE  S        946 8.141                                    0.0910 41.5  22 
 BGLC BZ  P        94610.580                                    0.42 5 93.7 282 
 LOGN BZ  P        94610.807                                   -0.79 9  102  19 
 SAMH BN  S        94611.992                                    0.99 5 50.9  67 
 TGL  BZ  P        94612.148                                   -0.48 9  110 323 
 KIAG BZ  P        94612.637                                   -0.63 9  114 339 
 CRQ  BZ  P        94613.520                                   -0.35 5  119 318 
 SUCK BZ  P        94613.702                                   -0.0910  120 277 
 BARN BZ  P    A   94613.728                                   -0.61 9  122 359 
 BAL  BZ  P        94614.228                                   -0.55 9  126 342 
 PNL  BZ  P        94614.626                                   -0.31 2  128 103 
 PTPK BZ  P        94616.974                                   -0.21 8  144 341 
 PIN  BE  S        94618.263                                   -0.6410 78.2  77 
 VRDI BZ  P        94620.703                                   -0.20 8  173 325 
 MCAR BZ  P    A   94621.308                                    0.21 8  176 335 
 RAG  BZ  P    A   94621.608                                    0.59 8  175 287 
 YUK8 HZ  P        94622.692                                    0.88 8  179  33 
 LOGN BE  S        94624.271                                   -0.93 3  102  19 
 BMR  BZ  P        94624.614                                    0.60 7  198 305 
 GLB  BZ  P        94624.993                                    0.28 7  203 325 
 YUK7 HZ  P        94625.695                                    0.91 3  203  70 
 TGL  BN  S        94626.613                                   -0.44 3  110 323 
 YUK6 HZ  P        94626.726                                    0.96 7  210  57 
 KIAG BN  S        94627.248                                   -0.94 2  114 339 
 BRWY HZ  P        94627.546                                    1.79 2  211  40 
 BARN BN  S        94629.437                                   -0.66 2  122 359 
 YUK4 HZ  P        94630.331                                    1.41 6  235  44 
 N25K BZ  P        94630.890                                    0.94 6  244 320 
 PNL  BN  S        94631.368                                    0.22 2  128 103 
 HYT  HZ  P        94631.595                                    1.34 6  246  65 
 FID  BZ  P        94634.670                                   -0.54 5  286 289 
 KLU  BZ  P        94636.029                                    0.39 5  289 308 
 PTPK BN  S        94636.152                                    1.00 5  144 341 
 YUK8 HE  S        94645.084                                    1.70 3  179  33 
 GLB  BE  S        94650.272                                    1.71 2  203 325 
                                                                                

 2024 1111 1619 40.4 LQ 60.324-140.961 24.4   AK 12 0.8 1.5                    1
 2024 1111 1619 40.407  60.32360 -140.96130   24.400  0.840                    H
 GAP=                      0.6     0.8  0.3 -2.9488e-01                        E
 Action:ARG 26-01-05 11:50 OP:OBSP STATUS:               ID:20241111161940     I
 STAT SP IPHASW D HRMM SECON CODA AMPLIT PERI AZIMU VELO AIN AR TRES W  DIS CAZ7
 RKAV BZ  P    A  161945.108                                   -0.79 9 21.5 262 
 RKAV BE  S       161947.958                                   -2.24 3 21.5 262 
 MESA BZ  P    A  161950.488                                    0.16 8 56.9 253 
 LOGN BZ  P    A  161950.868                                    0.73 8 55.7 357 
 BARN BZ  P       161955.251                                    0.59 8 90.3 335 
 KIAG BZ  P       161955.969                                   -0.13 5  101 311 
 BAL  BZ  P    A  161957.328                                    0.24 8  109 317 
 TGL  BZ  P       161957.385                                   -0.14 5  112 295 
 MESA BE  S       161957.435                                   -0.66 5 56.9 253 
 LOGN BN  S       161957.573                                   -0.1810 55.7 357 
 KHIT BZ  P       161959.255                                   -0.03 5  126 277 
 CRQ  BZ  P       161959.633                                    0.3910  125 293 
 PTPK BZ  P       161959.946                                    0.61 2  126 320 
 BARN BN  S       1620 5.060                                   -0.74 5 90.3 335 
 VRDI BZ  P       1620 5.247                                    0.39 3  168 307 
 KIAG BN  S       1620 6.396                                   -1.97 5  101 311 
 BAL  BE  S       1620 9.265                                   -0.85 3  109 317 
 TGL  BE  S       1620 9.624                                   -1.2810  112 295 
 GOAT BZ  P       162010.128                                    0.30 2  208 279 
 PTPK BE  S       162014.437                                    0.30 2  126 320 
 VRDI BN  S       162023.607                                   -0.35 2  168 307 
                                                                                

